{"type":"FeatureCollection","features":[{"type":"Feature","properties":{"OID":"1103716690662","NAME":"Auglaize Riv","BASENAME":"Auglaize","MTFCC":"H3010"},"geometry":{"type":"Polygon","coordinates":[[[-84.30748,40.76268],[-84.30731,40.76249],[-84.30695,40.76314],[-84.30564,40.7638],[-84.30447,40.76564],[-84.30286,40.76669],[-84.30305,40.76706],[-84.30459,40.76739],[-84.30498,40.76824],[-84.30356,40.76964],[-84.30351,40.771],[-84.30273,40.77371],[-84.30208,40.77573],[-84.30162,40.77599],[-84.30192,40.777],[-84.30174,40.77772],[-84.30068,40.77853],[-84.30088,40.77992],[-84.29971,40.78039],[-84.29848,40.77947],[-84.29746,40.77941],[-84.29628,40.7806],[-84.29359,40.78123],[-84.2928,40.78292],[-84.29351,40.78494],[-84.29195,40.78516],[-84.29139,40.78563],[-84.29171,40.78695],[-84.29129,40.78797],[-84.29041,40.78875],[-84.28607,40.79105],[-84.28447,40.79246],[-84.28466,40.79324],[-84.28639,40.79387],[-84.28648,40.7942],[-84.28573,40.79468],[-84.28413,40.79486],[-84.28341,40.79584],[-84.28473,40.79696],[-84.28527,40.79794],[-84.28705,40.79883],[-84.28679,40.79977],[-84.28718,40.80073],[-84.28921,40.80243],[-84.28898,40.80297],[-84.28778,40.80319],[-84.28781,40.80293],[-84.28703,40.80349],[-84.28692,40.80401],[-84.28741,40.8048],[-84.28799,40.80484],[-84.28791,40.80512],[-84.2875,40.80528],[-84.28642,40.80495],[-84.28584,40.80518],[-84.28374,40.80668],[-84.28261,40.80792],[-84.27967,40.80867],[-84.27862,40.80984],[-84.2752,40.81219],[-84.27495,40.81247],[-84.27502,40.81326],[-84.27567,40.81397],[-84.27398,40.81416],[-84.27345,40.81523],[-84.27365,40.81615],[-84.27461,40.81751],[-84.27352,40.81908],[-84.27361,40.8202],[-84.27547,40.82522],[-84.27553,40.82442],[-84.27594,40.82541],[-84.27649,40.82587],[-84.27886,40.82664],[-84.27906,40.8281],[-84.27954,40.82876],[-84.28213,40.8296],[-84.28283,40.83166],[-84.28614,40.83369],[-84.28792,40.83638],[-84.2868,40.83811],[-84.28713,40.83932],[-84.29057,40.84005],[-84.2909,40.84044],[-84.2907,40.84132],[-84.28818,40.84271],[-84.28577,40.84556],[-84.28414,40.84677],[-84.28336,40.84856],[-84.28419,40.85133],[-84.28494,40.85245],[-84.28609,40.85328],[-84.28703,40.8557],[-84.28812,40.85652],[-84.28952,40.85605],[-84.29009,40.85623],[-84.2895,40.85828],[-84.28984,40.85969],[-84.29006,40.85969],[-84.28978,40.85822],[-84.29035,40.8568],[-84.29031,40.85606],[-84.2893,40.85574],[-84.28818,40.85623],[-84.28741,40.85577],[-84.28643,40.85337],[-84.28451,40.85149],[-84.28354,40.8486],[-84.28423,40.84712],[-84.28703,40.84471],[-84.28803,40.84358],[-84.28798,40.84317],[-84.29091,40.84153],[-84.29114,40.84047],[-84.29039,40.83987],[-84.28733,40.83922],[-84.28705,40.83812],[-84.28771,40.83744],[-84.28822,40.83615],[-84.28707,40.8343],[-84.28542,40.83278],[-84.2833,40.83174],[-84.28277,40.83099],[-84.28239,40.82937],[-84.28069,40.8291],[-84.27955,40.82831],[-84.27902,40.82643],[-84.27693,40.82587],[-84.27613,40.8253],[-84.27528,40.82396],[-84.27549,40.82366],[-84.27447,40.82224],[-84.27452,40.82145],[-84.27375,40.82037],[-84.27389,40.81899],[-84.27455,40.8184],[-84.27479,40.81746],[-84.27367,40.81568],[-84.27429,40.81428],[-84.27596,40.81427],[-84.27673,40.81375],[-84.2765,40.81307],[-84.27545,40.81227],[-84.27856,40.81025],[-84.27986,40.80877],[-84.28255,40.80817],[-84.28356,40.80698],[-84.28526,40.80602],[-84.2861,40.80515],[-84.28763,40.80539],[-84.28805,40.80512],[-84.28807,40.80463],[-84.2874,40.80439],[-84.28713,40.80366],[-84.2876,40.8033],[-84.28901,40.80306],[-84.28936,40.80277],[-84.28936,40.80218],[-84.28916,40.8019],[-84.28866,40.80205],[-84.28735,40.80073],[-84.28697,40.79988],[-84.28707,40.79867],[-84.28579,40.79827],[-84.28382,40.79609],[-84.28378,40.79542],[-84.28407,40.7951],[-84.28551,40.79487],[-84.28665,40.79409],[-84.28667,40.79381],[-84.28623,40.79375],[-84.28637,40.79347],[-84.2855,40.79349],[-84.28483,40.79313],[-84.28474,40.79237],[-84.28827,40.7899],[-84.29044,40.78893],[-84.29176,40.7878],[-84.29211,40.78682],[-84.29149,40.78613],[-84.29165,40.7856],[-84.29202,40.78525],[-84.2937,40.78496],[-84.29294,40.78313],[-84.29359,40.78144],[-84.29598,40.78087],[-84.29767,40.77944],[-84.29834,40.77952],[-84.29886,40.78012],[-84.29992,40.78056],[-84.30109,40.77984],[-84.30074,40.77869],[-84.30197,40.77766],[-84.30174,40.77601],[-84.30217,40.77571],[-84.30323,40.77262],[-84.30381,40.76941],[-84.30506,40.76833],[-84.3048,40.76742],[-84.30306,40.76697],[-84.30303,40.76662],[-84.30449,40.76588],[-84.30521,40.76504],[-84.30543,40.76425],[-84.30748,40.76268]]]}},{"type":"Feature","properties":{"OID":"1103716690663","NAME":"Auglaize Riv","BASENAME":"Auglaize","MTFCC":"H3010"},"geometry":{"type":"Polygon","coordinates":[[[-84.30248,40.88678],[-84.30231,40.88585],[-84.30117,40.88423],[-84.29902,40.88289],[-84.29703,40.88104],[-84.29561,40.88109],[-84.29521,40.88077],[-84.29516,40.87982],[-84.29557,40.87896],[-84.29731,40.87874],[-84.2982,40.87792],[-84.29822,40.87705],[-84.29709,40.87646],[-84.2973,40.87579],[-84.29789,40.87559],[-84.29948,40.87593],[-84.30025,40.8754],[-84.29968,40.87437],[-84.29698,40.873],[-84.29709,40.87067],[-84.29669,40.86887],[-84.2947,40.86792],[-84.29428,40.86611],[-84.29492,40.86502],[-84.29654,40.86483],[-84.29682,40.86439],[-84.29671,40.86363],[-84.29578,40.86287],[-84.29383,40.86232],[-84.29329,40.86058],[-84.29236,40.86023],[-84.2909,40.86035],[-84.28984,40.85969],[-84.29086,40.86044],[-84.29297,40.86072],[-84.29337,40.86101],[-84.29309,40.86159],[-84.29371,40.86244],[-84.29541,40.86294],[-84.29661,40.86393],[-84.29639,40.8647],[-84.29497,40.86481],[-84.29449,40.86521],[-84.29411,40.86614],[-84.29457,40.86797],[-84.29648,40.86898],[-84.29688,40.87092],[-84.29665,40.87294],[-84.29735,40.87364],[-84.29951,40.87461],[-84.29992,40.87536],[-84.29951,40.8757],[-84.29706,40.87564],[-84.29692,40.87669],[-84.29806,40.87726],[-84.29808,40.87774],[-84.29704,40.87858],[-84.2954,40.8788],[-84.29499,40.87956],[-84.29493,40.88074],[-84.29548,40.88129],[-84.2969,40.88122],[-84.29877,40.88302],[-84.30024,40.88373],[-84.30166,40.88507],[-84.30223,40.88642],[-84.30218,40.8869],[-84.30168,40.88709],[-84.29871,40.88709],[-84.29506,40.88913],[-84.29396,40.89089],[-84.29421,40.89251],[-84.29457,40.8928],[-84.29413,40.89089],[-84.2953,40.88925],[-84.29891,40.88724],[-84.3018,40.88731],[-84.30248,40.88678]]]}},{"type":"Feature","properties":{"OID":"110440713435","NAME":"Auglaize Riv","BASENAME":"Auglaize","MTFCC":"H3010"},"geometry":{"type":"Polygon","coordinates":[[[-84.26566,40.68573],[-84.2655,40.68584],[-84.26565,40.68584],[-84.26566,40.68573]]]}},{"type":"Feature","properties":{"OID":"110449522623","NAME":"Hog Crk","BASENAME":"Hog","MTFCC":"H3010"},"geometry":{"type":"Polygon","coordinates":[[[-83.88001,40.79384],[-83.87736,40.79467],[-83.87494,40.79456],[-83.87718,40.79478],[-83.88001,40.79384]]]}},{"type":"Feature","properties":{"OID":"110454442585","NAME":"Ottawa Riv","BASENAME":"Ottawa","MTFCC":"H3010"},"geometry":{"type":"Polygon","coordinates":[[[-84.1955,40.86223],[-84.19486,40.86144],[-84.1938,40.86143],[-84.19319,40.86108],[-84.19285,40.86039],[-84.19336,40.85966],[-84.19284,40.85967],[-84.19246,40.86082],[-84.19284,40.86133],[-84.1949,40.86197],[-84.19509,40.86235],[-84.19174,40.86489],[-84.19121,40.86608],[-84.19149,40.86624],[-84.19223,40.86469],[-84.1951,40.86278],[-84.1955,40.86223]]]}},{"type":"Feature","properties":{"OID":"110454443201","MTFCC":"H3010"},"geometry":{"type":"Polygon","coordinates":[[[-83.9706,40.93086],[-83.9698,40.92945],[-83.96855,40.92898],[-83.9675,40.9281],[-83.96567,40.92529],[-83.96537,40.92212],[-83.96488,40.92076],[-83.96526,40.92006],[-83.96485,40.92007],[-83.96467,40.9207],[-83.96525,40.92251],[-83.9651,40.92345],[-83.96547,40.92514],[-83.9671,40.92799],[-83.96856,40.92913],[-83.96934,40.92935],[-83.97028,40.93075],[-83.97005,40.93146],[-83.96847,40.93238],[-83.96672,40.93269],[-83.96461,40.93437],[-83.9647,40.935],[-83.96555,40.93556],[-83.9659,40.93637],[-83.96513,40.93822],[-83.96572,40.93774],[-83.96618,40.93678],[-83.96577,40.93545],[-83.96486,40.93488],[-83.96473,40.93448],[-83.96647,40.93304],[-83.96863,40.93252],[-83.97023,40.93159],[-83.9706,40.93086]]]}},{"type":"Feature","properties":{"OID":"110457138547","NAME":"Hog Crk","BASENAME":"Hog","MTFCC":"H3010"},"geometry":{"type":"Polygon","coordinates":[[[-83.95337,40.77051],[-83.95172,40.77033],[-83.94797,40.77079],[-83.94627,40.77051],[-83.94415,40.77099],[-83.93653,40.77639],[-83.93467,40.77677],[-83.93396,40.77807],[-83.93072,40.77909],[-83.93075,40.77965],[-83.93321,40.78254],[-83.93311,40.78342],[-83.93256,40.78436],[-83.93192,40.78461],[-83.92858,40.78419],[-83.92764,40.78718],[-83.91468,40.78662],[-83.91333,40.78715],[-83.91253,40.78819],[-83.912,40.7883],[-83.91046,40.78792],[-83.90921,40.78675],[-83.9069,40.78662],[-83.90613,40.78765],[-83.90357,40.7885],[-83.90029,40.78833],[-83.89714,40.78908],[-83.89675,40.78944],[-83.89652,40.7906],[-83.89465,40.79045],[-83.89384,40.79109],[-83.89237,40.79132],[-83.89229,40.79243],[-83.88855,40.79079],[-83.88758,40.79065],[-83.88246,40.79129],[-83.88104,40.79324],[-83.88001,40.79384],[-83.88118,40.79338],[-83.88255,40.79154],[-83.88493,40.79151],[-83.88582,40.79105],[-83.88769,40.79082],[-83.8924,40.79261],[-83.89287,40.79139],[-83.89502,40.79059],[-83.89667,40.7908],[-83.89701,40.78942],[-83.89773,40.78909],[-83.90039,40.78849],[-83.90315,40.78881],[-83.9042,40.7886],[-83.90613,40.78792],[-83.90717,40.78682],[-83.90912,40.78688],[-83.91043,40.788],[-83.91205,40.78851],[-83.91285,40.78815],[-83.91349,40.78733],[-83.91479,40.78677],[-83.91685,40.78724],[-83.928,40.78729],[-83.92875,40.78426],[-83.93203,40.78482],[-83.93261,40.78461],[-83.93311,40.78388],[-83.93344,40.78251],[-83.93092,40.77961],[-83.93097,40.77916],[-83.93374,40.77839],[-83.93434,40.77794],[-83.93471,40.77701],[-83.93666,40.77646],[-83.94428,40.77104],[-83.94603,40.77066],[-83.94776,40.77094],[-83.95337,40.77051]]]}},{"type":"Feature","properties":{"OID":"110457138552","NAME":"Riley Crk","BASENAME":"Riley","MTFCC":"H3010"},"geometry":{"type":"Polygon","coordinates":[[[-83.94345,40.90462],[-83.9423,40.90426],[-83.94125,40.90319],[-83.93807,40.90335],[-83.93661,40.90429],[-83.93647,40.90522],[-83.93413,40.90603],[-83.93276,40.90541],[-83.93067,40.90533],[-83.92952,40.90374],[-83.92877,40.90341],[-83.92756,40.9035],[-83.92739,40.90325],[-83.92787,40.90245],[-83.92725,40.90169],[-83.92677,40.90158],[-83.92507,40.90197],[-83.92402,40.90285],[-83.92292,40.9032],[-83.92119,40.90524],[-83.91864,40.90651],[-83.91698,40.9067],[-83.91631,40.90586],[-83.91437,40.90448],[-83.91688,40.90678],[-83.91868,40.90663],[-83.92116,40.90548],[-83.92325,40.90317],[-83.92415,40.90297],[-83.92547,40.90197],[-83.92689,40.90171],[-83.9277,40.9025],[-83.92754,40.9029],[-83.92693,40.90296],[-83.92729,40.90351],[-83.92927,40.90379],[-83.92977,40.90419],[-83.93006,40.90508],[-83.93119,40.90564],[-83.93274,40.90548],[-83.93455,40.90618],[-83.93662,40.90534],[-83.93678,40.90429],[-83.93813,40.9035],[-83.94012,40.90327],[-83.94127,40.90345],[-83.94119,40.90388],[-83.94074,40.90397],[-83.94138,40.90397],[-83.94309,40.90478],[-83.94345,40.90462]]]}},{"type":"Feature","properties":{"OID":"110457138553","NAME":"Riley Crk","BASENAME":"Riley","MTFCC":"H3010"},"geometry":{"type":"Polygon","coordinates":[[[-83.89277,40.89105],[-83.89188,40.8916],[-83.89022,40.89114],[-83.88771,40.89226],[-83.88691,40.89386],[-83.88711,40.89513],[-83.88594,40.89594],[-83.8858,40.89691],[-83.88729,40.8973],[-83.88607,40.89687],[-83.88597,40.89613],[-83.88719,40.89537],[-83.88737,40.89454],[-83.88705,40.89377],[-83.88796,40.89224],[-83.89008,40.89129],[-83.89206,40.89168],[-83.89277,40.89105]]]}},{"type":"Feature","properties":{"OID":"110457138554","NAME":"Riley Crk","BASENAME":"Riley","MTFCC":"H3010"},"geometry":{"type":"Polygon","coordinates":[[[-83.95403,40.91132],[-83.95372,40.91108],[-83.95286,40.91136],[-83.95269,40.91089],[-83.95185,40.91043],[-83.95086,40.90928],[-83.94756,40.90737],[-83.94968,40.90904],[-83.95099,40.90961],[-83.95179,40.91114],[-83.95267,40.91148],[-83.95403,40.91132]]]}},{"type":"Feature","properties":{"OID":"110457138555","NAME":"Riley Crk","BASENAME":"Riley","MTFCC":"H3010"},"geometry":{"type":"Polygon","coordinates":[[[-83.89482,40.90545],[-83.89411,40.9049],[-83.89372,40.90409],[-83.89411,40.90371],[-83.8942,40.90265],[-83.89231,40.90115],[-83.894,40.90291],[-83.89359,40.90454],[-83.89482,40.90545]]]}},{"type":"Feature","properties":{"OID":"110457138556","NAME":"Riley Crk","BASENAME":"Riley","MTFCC":"H3010"},"geometry":{"type":"Polygon","coordinates":[[[-83.96586,40.91929],[-83.96549,40.91845],[-83.96364,40.91706],[-83.95911,40.91477],[-83.95889,40.91326],[-83.9584,40.91314],[-83.95712,40.91403],[-83.95315,40.91295],[-83.95664,40.91421],[-83.95768,40.91409],[-83.95881,40.91343],[-83.95866,40.9144],[-83.95909,40.915],[-83.96533,40.91858],[-83.9656,40.91928],[-83.96485,40.92007],[-83.96535,40.92001],[-83.96586,40.91929]]]}},{"type":"Feature","properties":{"OID":"110457138557","NAME":"Riley Crk","BASENAME":"Riley","MTFCC":"H3010"},"geometry":{"type":"Polygon","coordinates":[[[-83.90097,40.90774],[-83.89994,40.9072],[-83.89862,40.90716],[-83.90097,40.90774]]]}},{"type":"Feature","properties":{"OID":"110457138558","NAME":"Sugar Crk","BASENAME":"Sugar","MTFCC":"H3010"},"geometry":{"type":"Polygon","coordinates":[[[-84.13097,40.85266],[-84.12975,40.85123],[-84.12831,40.85074],[-84.12865,40.84994],[-84.12821,40.85027],[-84.12821,40.85085],[-84.12968,40.85126],[-84.12975,40.85174],[-84.13087,40.85267],[-84.13003,40.8531],[-84.13001,40.85404],[-84.12953,40.85457],[-84.12995,40.8558],[-84.12979,40.85734],[-84.13014,40.85598],[-84.12961,40.85475],[-84.13026,40.85406],[-84.1301,40.85322],[-84.13097,40.85266]]]}},{"type":"Feature","properties":{"OID":"110457138559","NAME":"Sugar Crk","BASENAME":"Sugar","MTFCC":"H3010"},"geometry":{"type":"Polygon","coordinates":[[[-84.13076,40.85859],[-84.13001,40.85751],[-84.13059,40.85846],[-84.13022,40.85954],[-84.13033,40.86019],[-84.13076,40.85859]]]}},{"type":"Feature","properties":{"OID":"110457138564","NAME":"Ottawa Riv","BASENAME":"Ottawa","MTFCC":"H3010"},"geometry":{"type":"Polygon","coordinates":[[[-84.20868,40.81669],[-84.20745,40.81527],[-84.20737,40.81563],[-84.208,40.81649],[-84.20868,40.81669]]]}},{"type":"Feature","properties":{"OID":"110457138565","NAME":"Ottawa Riv","BASENAME":"Ottawa","MTFCC":"H3010"},"geometry":{"type":"Polygon","coordinates":[[[-84.21144,40.82186],[-84.21105,40.81944],[-84.2102,40.81771],[-84.20839,40.8167],[-84.20978,40.81754],[-84.21039,40.81847],[-84.21102,40.82019],[-84.21111,40.82192],[-84.20964,40.82302],[-84.20795,40.82352],[-84.2053,40.82493],[-84.20367,40.82795],[-84.20473,40.83006],[-84.20358,40.831],[-84.20069,40.8321],[-84.19937,40.83547],[-84.19804,40.83636],[-84.19697,40.83786],[-84.19668,40.8387],[-84.19692,40.83949],[-84.19749,40.83988],[-84.19926,40.84006],[-84.19977,40.84086],[-84.19967,40.8417],[-84.19928,40.84199],[-84.19696,40.84202],[-84.19503,40.84253],[-84.19389,40.84333],[-84.19367,40.84426],[-84.19486,40.84566],[-84.19416,40.84738],[-84.19418,40.84808],[-84.19466,40.84901],[-84.19607,40.85027],[-84.19439,40.85127],[-84.19417,40.8517],[-84.19583,40.85247],[-84.19735,40.85564],[-84.19596,40.85789],[-84.19357,40.85894],[-84.19284,40.85967],[-84.19336,40.85966],[-84.19399,40.85908],[-84.19625,40.85814],[-84.19772,40.85577],[-84.19612,40.85254],[-84.19441,40.85171],[-84.19449,40.8514],[-84.1961,40.85074],[-84.19631,40.85031],[-84.19458,40.84851],[-84.19444,40.84725],[-84.19511,40.8456],[-84.19389,40.84423],[-84.19386,40.84378],[-84.19419,40.84318],[-84.19507,40.84268],[-84.19692,40.84219],[-84.19918,40.84218],[-84.19985,40.84173],[-84.19992,40.8407],[-84.19942,40.83994],[-84.19745,40.83974],[-84.19709,40.83943],[-84.19681,40.83887],[-84.19721,40.8378],[-84.1983,40.83645],[-84.19974,40.83545],[-84.20079,40.83229],[-84.20369,40.83124],[-84.20497,40.83013],[-84.20502,40.8297],[-84.20414,40.82881],[-84.20387,40.82794],[-84.20551,40.82525],[-84.20809,40.82371],[-84.21013,40.82306],[-84.21144,40.82186]]]}},{"type":"Feature","properties":{"OID":"110457138566","NAME":"Ottawa Riv","BASENAME":"Ottawa","MTFCC":"H3010"},"geometry":{"type":"Polygon","coordinates":[[[-83.99338,40.77336],[-83.99191,40.77402],[-83.99079,40.77415],[-83.98836,40.77529],[-83.98782,40.77583],[-83.98512,40.77546],[-83.98316,40.77687],[-83.98258,40.77764],[-83.98145,40.77766],[-83.98042,40.77855],[-83.97901,40.77839],[-83.97747,40.77773],[-83.97504,40.77774],[-83.97244,40.7792],[-83.97127,40.77886],[-83.9713,40.77839],[-83.9704,40.77794],[-83.96973,40.7786],[-83.96823,40.77863],[-83.96612,40.77989],[-83.96363,40.78037],[-83.96111,40.78337],[-83.95986,40.78343],[-83.95958,40.78331],[-83.95953,40.78262],[-83.95888,40.78213],[-83.95725,40.78205],[-83.9568,40.78032],[-83.95722,40.77922],[-83.95875,40.77869],[-83.95877,40.77823],[-83.95814,40.77739],[-83.95993,40.77771],[-83.96043,40.77721],[-83.96044,40.77642],[-83.95932,40.77488],[-83.95889,40.77317],[-83.95808,40.772],[-83.95695,40.77107],[-83.95496,40.77085],[-83.957,40.77126],[-83.95806,40.77223],[-83.95869,40.77329],[-83.95911,40.77515],[-83.96017,40.77681],[-83.9598,40.77752],[-83.95795,40.77728],[-83.95827,40.77859],[-83.95711,40.77907],[-83.95642,40.78015],[-83.9566,40.78153],[-83.95736,40.7825],[-83.95869,40.7822],[-83.95924,40.78256],[-83.95934,40.78332],[-83.95974,40.78353],[-83.96119,40.78344],[-83.96188,40.78235],[-83.96387,40.78043],[-83.9665,40.77994],[-83.96791,40.77899],[-83.96973,40.77871],[-83.97049,40.7781],[-83.97118,40.77892],[-83.9725,40.77938],[-83.97503,40.77789],[-83.97729,40.77783],[-83.9788,40.77852],[-83.98052,40.77873],[-83.98138,40.77783],[-83.98266,40.77767],[-83.98528,40.77549],[-83.98778,40.77591],[-83.98849,40.77528],[-83.99338,40.77336]]]}},{"type":"Feature","properties":{"OID":"110457138572","NAME":"Auglaize Riv","BASENAME":"Auglaize","MTFCC":"H3010"},"geometry":{"type":"Polygon","coordinates":[[[-84.31593,40.74327],[-84.31567,40.74236],[-84.31581,40.74402],[-84.31593,40.74327]]]}},{"type":"Feature","properties":{"OID":"110457138573","NAME":"Auglaize Riv","BASENAME":"Auglaize","MTFCC":"H3010"},"geometry":{"type":"Polygon","coordinates":[[[-84.29058,40.71364],[-84.28862,40.71442],[-84.28657,40.71425],[-84.2851,40.71369],[-84.2839,40.71288],[-84.28269,40.7126],[-84.282,40.71171],[-84.28003,40.71099],[-84.27693,40.70909],[-84.27515,40.70885],[-84.27375,40.7082],[-84.2732,40.70766],[-84.27281,40.70618],[-84.27212,40.70547],[-84.26791,40.70474],[-84.2663,40.70327],[-84.2658,40.70231],[-84.26603,40.70114],[-84.26585,40.7001],[-84.26433,40.69948],[-84.26355,40.69759],[-84.26466,40.69687],[-84.26723,40.69664],[-84.26801,40.6963],[-84.2689,40.69527],[-84.269,40.69434],[-84.26804,40.6918],[-84.26638,40.6898],[-84.26557,40.68747],[-84.2655,40.68584],[-84.26524,40.68745],[-84.26647,40.69051],[-84.26823,40.69257],[-84.26874,40.69413],[-84.26871,40.69505],[-84.26804,40.69607],[-84.26742,40.69641],[-84.26401,40.69663],[-84.26344,40.6971],[-84.26331,40.69777],[-84.26384,40.6995],[-84.26525,40.69984],[-84.26553,40.70019],[-84.2658,40.70124],[-84.26562,40.7027],[-84.26679,40.70416],[-84.26874,40.70517],[-84.27205,40.70562],[-84.27264,40.7063],[-84.27304,40.70773],[-84.27393,40.70849],[-84.27518,40.70903],[-84.27696,40.70927],[-84.27994,40.71125],[-84.28162,40.71175],[-84.28242,40.71285],[-84.28381,40.71309],[-84.28634,40.71442],[-84.28904,40.71458],[-84.29058,40.71364]]]}},{"type":"Feature","properties":{"OID":"110457138574","NAME":"Auglaize Riv","BASENAME":"Auglaize","MTFCC":"H3010"},"geometry":{"type":"Polygon","coordinates":[[[-84.30245,40.72726],[-84.30206,40.72666],[-84.29886,40.72535],[-84.29861,40.72464],[-84.29869,40.72291],[-84.29725,40.7228],[-84.29438,40.72144],[-84.29567,40.72031],[-84.29587,40.71959],[-84.29475,40.71896],[-84.29451,40.71822],[-84.29357,40.71722],[-84.29291,40.71564],[-84.29338,40.71476],[-84.29264,40.71546],[-84.29309,40.71685],[-84.29462,40.71907],[-84.29567,40.71968],[-84.29516,40.72066],[-84.2943,40.72109],[-84.29414,40.72154],[-84.29696,40.72293],[-84.29849,40.72304],[-84.29842,40.72487],[-84.29868,40.72553],[-84.30053,40.72616],[-84.30218,40.72717],[-84.30165,40.72858],[-84.29985,40.73014],[-84.30165,40.72901],[-84.30245,40.72726]]]}},{"type":"Feature","properties":{"OID":"110457139676","MTFCC":"H3010"},"geometry":{"type":"Polygon","coordinates":[[[-84.19452,40.84768],[-84.19452,40.84766],[-84.19449,40.84766],[-84.19452,40.84768]]]}},{"type":"Feature","properties":{"OID":"110457139677","MTFCC":"H3010"},"geometry":{"type":"Polygon","coordinates":[[[-84.2084,40.81672],[-84.20823,40.81669],[-84.20839,40.81675],[-84.2084,40.81672]]]}},{"type":"Feature","properties":{"OID":"110457139678","MTFCC":"H3010"},"geometry":{"type":"Polygon","coordinates":[[[-84.20869,40.81676],[-84.20887,40.81681],[-84.20839,40.8167],[-84.20869,40.81676]]]}},{"type":"Feature","properties":{"OID":"110457139679","MTFCC":"H3010"},"geometry":{"type":"Polygon","coordinates":[[[-84.0506,40.75153],[-84.04815,40.75285],[-84.04909,40.75258],[-84.0506,40.75153]]]}},{"type":"Feature","properties":{"OID":"110457139680","MTFCC":"H3010"},"geometry":{"type":"Polygon","coordinates":[[[-84.2072,40.81087],[-84.20695,40.8082],[-84.20664,40.80943],[-84.2072,40.81087]]]}},{"type":"Feature","properties":{"OID":"110457139681","MTFCC":"H3010"},"geometry":{"type":"Polygon","coordinates":[[[-83.91113,40.87454],[-83.91065,40.8737],[-83.90892,40.87349],[-83.90873,40.87196],[-83.90868,40.87368],[-83.91048,40.87381],[-83.91113,40.87454]]]}},{"type":"Feature","properties":{"OID":"110457139682","MTFCC":"H3010"},"geometry":{"type":"Polygon","coordinates":[[[-84.25576,40.70449],[-84.25549,40.70422],[-84.25511,40.7045],[-84.25576,40.70449]]]}},{"type":"Feature","properties":{"OID":"110457139683","MTFCC":"H3010"},"geometry":{"type":"Polygon","coordinates":[[[-84.17478,40.71261],[-84.17369,40.71213],[-84.174,40.71263],[-84.17478,40.71261]]]}},{"type":"Feature","properties":{"OID":"110457139684","MTFCC":"H3010"},"geometry":{"type":"Polygon","coordinates":[[[-84.32092,40.7516],[-84.32005,40.75134],[-84.32008,40.75157],[-84.32092,40.7516]]]}},{"type":"Feature","properties":{"OID":"110457139685","MTFCC":"H3010"},"geometry":{"type":"Polygon","coordinates":[[[-84.19689,40.83821],[-84.19687,40.83816],[-84.19684,40.83816],[-84.19689,40.83821]]]}},{"type":"Feature","properties":{"OID":"110457139686","MTFCC":"H3010"},"geometry":{"type":"Polygon","coordinates":[[[-84.19234,40.75259],[-84.19045,40.75374],[-84.18947,40.75393],[-84.18663,40.75211],[-84.18572,40.75093],[-84.18569,40.74801],[-84.18419,40.74665],[-84.18179,40.74621],[-84.18074,40.74337],[-84.18144,40.74291],[-84.1833,40.74287],[-84.18454,40.7421],[-84.18496,40.74097],[-84.18457,40.73992],[-84.18295,40.73831],[-84.18072,40.73677],[-84.17665,40.73595],[-84.17621,40.73508],[-84.1747,40.73441],[-84.17503,40.73217],[-84.17654,40.73189],[-84.17715,40.73104],[-84.17877,40.73061],[-84.17811,40.72951],[-84.1764,40.72828],[-84.17622,40.72647],[-84.17589,40.72597],[-84.17503,40.72588],[-84.17382,40.72652],[-84.17349,40.72631],[-84.17413,40.72456],[-84.17379,40.72253],[-84.17428,40.72193],[-84.17828,40.72101],[-84.17936,40.72001],[-84.17921,40.71907],[-84.17785,40.7182],[-84.17565,40.71754],[-84.1719,40.71778],[-84.16966,40.71682],[-84.16956,40.71603],[-84.16765,40.71546],[-84.16686,40.71583],[-84.16615,40.71705],[-84.16502,40.71759],[-84.16017,40.71746],[-84.15933,40.71676],[-84.15955,40.71512],[-84.15742,40.71359],[-84.15606,40.71144],[-84.15306,40.71086],[-84.15346,40.70951],[-84.15485,40.70895],[-84.15516,40.70832],[-84.15406,40.70787],[-84.15414,40.70618],[-84.15303,40.70581],[-84.14993,40.70686],[-84.15304,40.7061],[-84.15376,40.70624],[-84.15391,40.70815],[-84.15231,40.70871],[-84.15285,40.70877],[-84.15411,40.70807],[-84.15481,40.7082],[-84.15495,40.70858],[-84.15446,40.70893],[-84.15347,40.70896],[-84.15286,40.71025],[-84.15289,40.71096],[-84.15592,40.71153],[-84.15608,40.71225],[-84.15739,40.71391],[-84.15939,40.71513],[-84.15913,40.71666],[-84.15996,40.71751],[-84.16517,40.71765],[-84.16619,40.71718],[-84.16701,40.71588],[-84.16766,40.71553],[-84.16945,40.71615],[-84.16926,40.71699],[-84.1719,40.71799],[-84.17564,40.71763],[-84.17908,40.7191],[-84.17932,40.71983],[-84.17852,40.72074],[-84.17648,40.72152],[-84.17432,40.72179],[-84.17356,40.72267],[-84.17404,40.7245],[-84.17334,40.72592],[-84.17338,40.72644],[-84.17392,40.72664],[-84.1748,40.72606],[-84.17573,40.72606],[-84.17615,40.72675],[-84.17635,40.72841],[-84.17791,40.72943],[-84.17867,40.73055],[-84.17825,40.73088],[-84.17708,40.731],[-84.17642,40.73184],[-84.17494,40.73213],[-84.17462,40.73273],[-84.17472,40.73513],[-84.17614,40.7359],[-84.18032,40.73674],[-84.18249,40.73813],[-84.18447,40.73996],[-84.18482,40.74124],[-84.18435,40.74209],[-84.18289,40.74289],[-84.18109,40.74288],[-84.18064,40.74343],[-84.18162,40.74627],[-84.18402,40.74666],[-84.18536,40.74772],[-84.18572,40.74875],[-84.18564,40.75102],[-84.18657,40.75221],[-84.18796,40.7533],[-84.18964,40.75404],[-84.19133,40.75358],[-84.19234,40.75259]],[[-84.17639,40.7358],[-84.17487,40.73505],[-84.17598,40.735],[-84.17639,40.7358]]]}},{"type":"Feature","properties":{"OID":"110457139687","MTFCC":"H3010"},"geometry":{"type":"Polygon","coordinates":[[[-84.12599,40.72543],[-84.12599,40.72517],[-84.12563,40.72514],[-84.12543,40.72764],[-84.12495,40.72848],[-84.12148,40.73129],[-84.11937,40.73173],[-84.11696,40.73297],[-84.11192,40.73352],[-84.10484,40.73616],[-84.10337,40.73602],[-84.10011,40.73682],[-84.0986,40.73786],[-84.0965,40.73872],[-84.09436,40.74027],[-84.09249,40.74085],[-84.09199,40.74142],[-84.09263,40.74324],[-84.09364,40.74385],[-84.09322,40.74729],[-84.09465,40.74974],[-84.09421,40.75002],[-84.0947,40.75022],[-84.09494,40.75002],[-84.09333,40.74722],[-84.09377,40.74389],[-84.09289,40.74311],[-84.09244,40.742],[-84.09273,40.74093],[-84.09518,40.74012],[-84.09739,40.73848],[-84.10084,40.73688],[-84.10305,40.73629],[-84.105,40.73637],[-84.11169,40.73384],[-84.11658,40.73337],[-84.1198,40.73193],[-84.12152,40.73154],[-84.12532,40.72843],[-84.12599,40.72543]]]}},{"type":"Feature","properties":{"OID":"110457139688","MTFCC":"H3010"},"geometry":{"type":"Polygon","coordinates":[[[-84.21122,40.79522],[-84.209,40.79647],[-84.20872,40.79852],[-84.20702,40.79882],[-84.20646,40.80023],[-84.20493,40.79981],[-84.20404,40.80025],[-84.20355,40.80132],[-84.20385,40.8023],[-84.20581,40.80284],[-84.20393,40.80213],[-84.20371,40.80133],[-84.20401,40.80056],[-84.20481,40.79995],[-84.20658,40.80029],[-84.2073,40.79882],[-84.20882,40.79861],[-84.2092,40.79658],[-84.21093,40.79568],[-84.21122,40.79522]]]}},{"type":"Feature","properties":{"OID":"110457139689","MTFCC":"H3010"},"geometry":{"type":"Polygon","coordinates":[[[-84.01366,40.76531],[-84.0123,40.76584],[-84.01266,40.7659],[-84.01366,40.76531]]]}},{"type":"Feature","properties":{"OID":"110457139690","MTFCC":"H3010"},"geometry":{"type":"Polygon","coordinates":[[[-84.21317,40.77794],[-84.213,40.77735],[-84.21186,40.77637],[-84.21086,40.77607],[-84.21097,40.77558],[-84.21221,40.77559],[-84.21278,40.77526],[-84.21283,40.77489],[-84.21245,40.77289],[-84.21097,40.77162],[-84.21089,40.7694],[-84.20846,40.76972],[-84.20772,40.76874],[-84.20729,40.76632],[-84.20351,40.76413],[-84.20001,40.76346],[-84.19991,40.76276],[-84.2008,40.76229],[-84.20102,40.76164],[-84.19851,40.75999],[-84.1971,40.758],[-84.1959,40.75704],[-84.19474,40.7549],[-84.1945,40.75498],[-84.19576,40.75728],[-84.19689,40.75815],[-84.19868,40.76045],[-84.20076,40.76179],[-84.19967,40.76271],[-84.19975,40.76363],[-84.20276,40.76411],[-84.2069,40.76631],[-84.20723,40.76677],[-84.20738,40.76874],[-84.20791,40.76975],[-84.20896,40.77006],[-84.21064,40.76967],[-84.21075,40.77175],[-84.21225,40.77293],[-84.21255,40.77392],[-84.21251,40.77497],[-84.21087,40.77537],[-84.21052,40.77591],[-84.21293,40.77766],[-84.21046,40.7802],[-84.21236,40.78216],[-84.211,40.78491],[-84.21269,40.78806],[-84.21288,40.78795],[-84.21126,40.78508],[-84.21267,40.78214],[-84.21079,40.7803],[-84.21317,40.77794]]]}},{"type":"Feature","properties":{"OID":"110457139691","MTFCC":"H3010"},"geometry":{"type":"Polygon","coordinates":[[[-84.13787,40.71577],[-84.13783,40.71478],[-84.13648,40.72194],[-84.13301,40.72305],[-84.12854,40.72328],[-84.12657,40.72416],[-84.12666,40.72436],[-84.12898,40.72335],[-84.13304,40.72318],[-84.13666,40.72199],[-84.13679,40.72009],[-84.13738,40.71895],[-84.13737,40.71722],[-84.13787,40.71577]]]}},{"type":"Feature","properties":{"OID":"110457139692","MTFCC":"H3010"},"geometry":{"type":"Polygon","coordinates":[[[-84.08669,40.74869],[-84.0853,40.74922],[-84.08428,40.74872],[-84.08016,40.74985],[-84.08015,40.7504],[-84.08039,40.74999],[-84.08446,40.749],[-84.08503,40.74911],[-84.0851,40.74945],[-84.0862,40.7492],[-84.08669,40.74869]]]}},{"type":"Feature","properties":{"OID":"110457139693","MTFCC":"H3010"},"geometry":{"type":"Polygon","coordinates":[[[-84.03743,40.75682],[-84.03623,40.75748],[-84.03683,40.75753],[-84.03743,40.75682]]]}},{"type":"Feature","properties":{"OID":"110457139694","MTFCC":"H3010"},"geometry":{"type":"Polygon","coordinates":[[[-84.06767,40.74779],[-84.06789,40.74766],[-84.06506,40.74878],[-84.06381,40.74889],[-84.06379,40.74924],[-84.06564,40.74887],[-84.06767,40.74779]]]}},{"type":"Feature","properties":{"OID":"110457139695","MTFCC":"H3010"},"geometry":{"type":"Polygon","coordinates":[[[-83.99471,40.77192],[-83.9942,40.77199],[-83.99392,40.77233],[-83.99471,40.77192]]]}},{"type":"Feature","properties":{"OID":"110457139696","MTFCC":"H3020"},"geometry":{"type":"Polygon","coordinates":[[[-83.92524,40.78927],[-83.92497,40.78907],[-83.92483,40.78927],[-83.92524,40.78927]]]}}]}
