{"type":"FeatureCollection","features":[{"type":"Feature","properties":{"GEOID":"3927944","NAME":"Fort Shawnee CDP","BASENAME":"Fort Shawnee","LSADC":"57","AREALAND":"24629764","CENTLAT":"+40.6814319","CENTLON":"-084.1486922"},"geometry":{"type":"Polygon","coordinates":[[[-84.2039,40.69768],[-84.20389,40.69707],[-84.20389,40.69687],[-84.20389,40.69671],[-84.20388,40.69612],[-84.20384,40.69341],[-84.20384,40.69333],[-84.20382,40.69167],[-84.20381,40.69088],[-84.20381,40.69068],[-84.20378,40.68847],[-84.20377,40.68811],[-84.20376,40.68741],[-84.20376,40.68728],[-84.20375,40.68611],[-84.20312,40.68611],[-84.20015,40.68615],[-84.19623,40.68616],[-84.19387,40.68618],[-84.19179,40.68618],[-84.19021,40.68619],[-84.18906,40.68619],[-84.18849,40.6862],[-84.1881,40.68623],[-84.18721,40.68623],[-84.18574,40.68623],[-84.18557,40.68623],[-84.1846,40.68622],[-84.18435,40.68622],[-84.18363,40.68623],[-84.18358,40.68623],[-84.18015,40.68626],[-84.17965,40.68626],[-84.17888,40.68627],[-84.175,40.68629],[-84.17456,40.6863],[-84.17423,40.6863],[-84.17325,40.68631],[-84.17205,40.68632],[-84.17185,40.68632],[-84.1714,40.68633],[-84.16977,40.68634],[-84.16939,40.68634],[-84.16872,40.68635],[-84.16677,40.68636],[-84.16551,40.68636],[-84.16552,40.68611],[-84.1655,40.68531],[-84.1655,40.68527],[-84.16549,40.68459],[-84.16548,40.68363],[-84.16548,40.68336],[-84.16548,40.68296],[-84.16549,40.68256],[-84.1655,40.68202],[-84.16549,40.68145],[-84.16548,40.6802],[-84.16546,40.67893],[-84.16542,40.67647],[-84.16537,40.67295],[-84.16537,40.67201],[-84.16536,40.6717],[-84.16534,40.67054],[-84.16533,40.66899],[-84.16531,40.66801],[-84.16529,40.66705],[-84.1653,40.66592],[-84.16527,40.66443],[-84.16239,40.66445],[-84.16038,40.66448],[-84.16007,40.66448],[-84.15963,40.66449],[-84.15853,40.66449],[-84.1574,40.6645],[-84.15586,40.66452],[-84.15567,40.66452],[-84.15507,40.66454],[-84.15361,40.66455],[-84.15313,40.66456],[-84.15255,40.66457],[-84.15091,40.66458],[-84.1509,40.66379],[-84.1509,40.66346],[-84.1509,40.66286],[-84.15089,40.66216],[-84.15089,40.66172],[-84.15088,40.65919],[-84.15088,40.65731],[-84.15013,40.65733],[-84.14997,40.65733],[-84.14968,40.65733],[-84.14943,40.65734],[-84.14893,40.65734],[-84.14842,40.65735],[-84.14817,40.65735],[-84.14792,40.65735],[-84.14766,40.65735],[-84.14732,40.65736],[-84.14617,40.65737],[-84.14612,40.65737],[-84.14562,40.65737],[-84.14513,40.65738],[-84.14471,40.65738],[-84.14388,40.65739],[-84.14215,40.6574],[-84.14127,40.65741],[-84.14053,40.65744],[-84.13965,40.65748],[-84.13749,40.65751],[-84.13587,40.65754],[-84.13582,40.65754],[-84.13553,40.65755],[-84.13476,40.65755],[-84.13467,40.65755],[-84.13405,40.65753],[-84.13183,40.65763],[-84.13153,40.65764],[-84.13147,40.65764],[-84.13122,40.65764],[-84.1312,40.65764],[-84.13092,40.65764],[-84.12566,40.65765],[-84.12214,40.65765],[-84.10791,40.65794],[-84.10792,40.65961],[-84.10792,40.66014],[-84.10792,40.66096],[-84.10793,40.66109],[-84.10794,40.66181],[-84.10794,40.66217],[-84.10794,40.66325],[-84.10795,40.66488],[-84.10796,40.66573],[-84.10798,40.66709],[-84.10803,40.66944],[-84.10804,40.66997],[-84.10803,40.67065],[-84.10805,40.67096],[-84.10804,40.67139],[-84.10806,40.67224],[-84.10807,40.6727],[-84.10807,40.6731],[-84.10807,40.67326],[-84.10807,40.67371],[-84.10807,40.67398],[-84.10808,40.67421],[-84.10807,40.67442],[-84.10807,40.67463],[-84.10807,40.67469],[-84.10809,40.67509],[-84.1081,40.67595],[-84.1081,40.67607],[-84.10811,40.6765],[-84.10811,40.67707],[-84.10811,40.67743],[-84.10812,40.67755],[-84.10813,40.6784],[-84.10813,40.67877],[-84.10814,40.67913],[-84.10815,40.67944],[-84.10814,40.67978],[-84.10814,40.68012],[-84.10814,40.68026],[-84.10815,40.6804],[-84.10814,40.68056],[-84.10815,40.68098],[-84.10815,40.68122],[-84.10815,40.68146],[-84.10816,40.68189],[-84.10816,40.682],[-84.10816,40.68214],[-84.10816,40.68228],[-84.10815,40.68254],[-84.10814,40.68285],[-84.10814,40.68291],[-84.10814,40.68298],[-84.10814,40.68315],[-84.10814,40.68345],[-84.10814,40.68374],[-84.10815,40.68404],[-84.10815,40.68433],[-84.10816,40.68462],[-84.10816,40.68499],[-84.10817,40.68525],[-84.10817,40.68582],[-84.10817,40.68588],[-84.10817,40.68602],[-84.10817,40.68616],[-84.10817,40.68639],[-84.10817,40.68651],[-84.10818,40.68667],[-84.109,40.68668],[-84.10944,40.68669],[-84.11008,40.6867],[-84.11134,40.68671],[-84.1115,40.68671],[-84.11174,40.68671],[-84.11216,40.68671],[-84.1133,40.68671],[-84.11413,40.68671],[-84.11487,40.68671],[-84.11497,40.68671],[-84.11557,40.68671],[-84.11591,40.68671],[-84.11665,40.68671],[-84.11835,40.68671],[-84.11919,40.68671],[-84.12051,40.68669],[-84.12118,40.68667],[-84.12226,40.68669],[-84.12312,40.68669],[-84.1235,40.6867],[-84.12448,40.68668],[-84.12453,40.68668],[-84.12515,40.68669],[-84.12543,40.68669],[-84.12419,40.68888],[-84.12392,40.68935],[-84.12388,40.68943],[-84.12322,40.69059],[-84.12286,40.69124],[-84.12272,40.6915],[-84.12269,40.69154],[-84.12247,40.69194],[-84.12217,40.69244],[-84.12187,40.69299],[-84.12184,40.69305],[-84.12173,40.69324],[-84.12151,40.69362],[-84.12144,40.69377],[-84.12108,40.69443],[-84.12043,40.69559],[-84.11995,40.6964],[-84.12006,40.69628],[-84.12012,40.69622],[-84.12018,40.69618],[-84.12025,40.69611],[-84.12036,40.69601],[-84.12046,40.69594],[-84.12063,40.69584],[-84.12083,40.69575],[-84.12099,40.69568],[-84.12113,40.69563],[-84.12142,40.69558],[-84.12157,40.69558],[-84.12184,40.69558],[-84.12207,40.69558],[-84.12239,40.69561],[-84.1226,40.69566],[-84.1228,40.69571],[-84.12335,40.69595],[-84.12367,40.69609],[-84.12401,40.69623],[-84.1241,40.69627],[-84.12415,40.69617],[-84.12441,40.6956],[-84.12467,40.69502],[-84.12511,40.69405],[-84.12609,40.69404],[-84.12747,40.69402],[-84.12795,40.69402],[-84.13206,40.69396],[-84.13307,40.69396],[-84.13454,40.69394],[-84.13482,40.69394],[-84.1363,40.69391],[-84.13736,40.6939],[-84.13795,40.69389],[-84.13883,40.69388],[-84.13974,40.69387],[-84.14008,40.69386],[-84.1403,40.69386],[-84.1406,40.69386],[-84.14063,40.69386],[-84.14156,40.69385],[-84.1424,40.69384],[-84.1429,40.69383],[-84.14418,40.69382],[-84.14466,40.69382],[-84.14569,40.69381],[-84.14654,40.6938],[-84.1466,40.6938],[-84.14703,40.69379],[-84.1487,40.69377],[-84.14874,40.69376],[-84.14966,40.69376],[-84.1498,40.69376],[-84.15037,40.69375],[-84.15058,40.69375],[-84.15132,40.69374],[-84.15132,40.69387],[-84.15133,40.69401],[-84.15133,40.69414],[-84.15133,40.69428],[-84.15133,40.69454],[-84.15133,40.6948],[-84.15133,40.69494],[-84.15134,40.69503],[-84.15133,40.69515],[-84.15133,40.69521],[-84.15132,40.6954],[-84.15133,40.69557],[-84.15133,40.69571],[-84.15134,40.69581],[-84.15134,40.6959],[-84.15134,40.6962],[-84.15135,40.69651],[-84.15136,40.69681],[-84.15136,40.69711],[-84.15137,40.69771],[-84.15137,40.69801],[-84.15138,40.69829],[-84.15138,40.69858],[-84.15138,40.69876],[-84.15137,40.69915],[-84.15138,40.70036],[-84.15139,40.70047],[-84.15141,40.70139],[-84.15142,40.7019],[-84.15145,40.70463],[-84.15146,40.70576],[-84.1525,40.70569],[-84.15394,40.70559],[-84.15412,40.70559],[-84.15435,40.70557],[-84.15456,40.70554],[-84.15482,40.7055],[-84.15511,40.70544],[-84.15542,40.70536],[-84.15643,40.70515],[-84.15651,40.70513],[-84.15665,40.70511],[-84.15678,40.7051],[-84.15693,40.70508],[-84.15725,40.70507],[-84.15759,40.70505],[-84.15876,40.70505],[-84.15922,40.70504],[-84.15977,40.70503],[-84.16007,40.70503],[-84.16069,40.70503],[-84.16099,40.70503],[-84.16208,40.70501],[-84.16241,40.705],[-84.16283,40.70499],[-84.16352,40.70497],[-84.16429,40.70495],[-84.16591,40.70491],[-84.16634,40.7049],[-84.16661,40.70489],[-84.16676,40.70489],[-84.16702,40.70488],[-84.17192,40.70478],[-84.17226,40.70477],[-84.17251,40.70476],[-84.1728,40.70475],[-84.17304,40.70474],[-84.17324,40.70472],[-84.17354,40.70467],[-84.1738,40.70461],[-84.17421,40.70453],[-84.17472,40.70441],[-84.17523,40.70429],[-84.17534,40.70426],[-84.17669,40.70396],[-84.17709,40.70387],[-84.17872,40.70349],[-84.17969,40.70327],[-84.18064,40.70304],[-84.1809,40.70298],[-84.18209,40.70272],[-84.18256,40.70262],[-84.18263,40.7026],[-84.1827,40.70259],[-84.18486,40.70212],[-84.18504,40.70208],[-84.18862,40.70129],[-84.18872,40.70127],[-84.18962,40.70107],[-84.19486,40.69987],[-84.19616,40.69957],[-84.19727,40.69932],[-84.19839,40.69905],[-84.19929,40.69884],[-84.20109,40.69841],[-84.20137,40.69834],[-84.20193,40.69821],[-84.20287,40.69798],[-84.2039,40.69768]]]}},{"type":"Feature","properties":{"GEOID":"3930814","NAME":"Gomer CDP","BASENAME":"Gomer","LSADC":"57","AREALAND":"5921662","CENTLAT":"+40.8456958","CENTLON":"-084.1811912"},"geometry":{"type":"Polygon","coordinates":[[[-84.19979,40.84119],[-84.19978,40.84113],[-84.19976,40.84108],[-84.19975,40.84103],[-84.19975,40.84098],[-84.19976,40.84092],[-84.19977,40.84089],[-84.19977,40.84086],[-84.19974,40.8408],[-84.19966,40.84067],[-84.19965,40.84062],[-84.19966,40.84052],[-84.19965,40.84045],[-84.19951,40.8403],[-84.19936,40.84015],[-84.19926,40.84006],[-84.19915,40.84001],[-84.19907,40.83997],[-84.19894,40.83996],[-84.19889,40.83996],[-84.19877,40.83993],[-84.19863,40.83989],[-84.1985,40.83989],[-84.19836,40.83992],[-84.1981,40.83995],[-84.198,40.83995],[-84.19789,40.83996],[-84.19778,40.83995],[-84.19765,40.83992],[-84.19749,40.83988],[-84.19728,40.83978],[-84.19704,40.83963],[-84.19699,40.83958],[-84.19692,40.83949],[-84.1968,40.83928],[-84.19672,40.83909],[-84.19667,40.83891],[-84.19668,40.8387],[-84.19672,40.83855],[-84.19687,40.83821],[-84.19683,40.83818],[-84.19684,40.83816],[-84.19685,40.83815],[-84.19687,40.83816],[-84.19687,40.83819],[-84.19689,40.83821],[-84.19688,40.83807],[-84.19697,40.83786],[-84.19711,40.83768],[-84.19727,40.8375],[-84.19748,40.83717],[-84.19784,40.83662],[-84.19804,40.83636],[-84.19823,40.83623],[-84.19843,40.83607],[-84.19869,40.83594],[-84.19889,40.83578],[-84.19901,40.83571],[-84.19924,40.83563],[-84.19931,40.83556],[-84.19937,40.83547],[-84.19942,40.83533],[-84.19944,40.83523],[-84.19946,40.83503],[-84.19947,40.835],[-84.19842,40.83501],[-84.18916,40.83511],[-84.1835,40.83516],[-84.18223,40.83518],[-84.18134,40.83518],[-84.18079,40.83519],[-84.18042,40.8352],[-84.17929,40.83521],[-84.17837,40.83522],[-84.17795,40.83522],[-84.17758,40.83522],[-84.17713,40.83523],[-84.17613,40.83524],[-84.176,40.83524],[-84.17576,40.83524],[-84.17529,40.83525],[-84.17466,40.83525],[-84.17406,40.83526],[-84.1735,40.83525],[-84.17282,40.83524],[-84.17207,40.83523],[-84.17134,40.8352],[-84.17079,40.83518],[-84.1694,40.83509],[-84.16871,40.83503],[-84.16775,40.83494],[-84.16719,40.83487],[-84.1668,40.83482],[-84.16654,40.83478],[-84.16651,40.83552],[-84.1665,40.83661],[-84.1665,40.8369],[-84.1665,40.83703],[-84.1665,40.83746],[-84.16651,40.83793],[-84.1665,40.83837],[-84.1665,40.8391],[-84.1665,40.83926],[-84.16651,40.83937],[-84.1665,40.83954],[-84.1665,40.83971],[-84.16651,40.84011],[-84.16651,40.84039],[-84.16651,40.8409],[-84.16651,40.84139],[-84.16651,40.84173],[-84.16651,40.84218],[-84.16658,40.8423],[-84.16674,40.84252],[-84.16685,40.84265],[-84.16688,40.8427],[-84.1669,40.84273],[-84.16691,40.84275],[-84.16692,40.84279],[-84.16692,40.84285],[-84.16693,40.84319],[-84.16694,40.84354],[-84.16693,40.84372],[-84.16692,40.84391],[-84.1669,40.84399],[-84.16688,40.84403],[-84.16687,40.84404],[-84.16679,40.84414],[-84.16671,40.84423],[-84.16663,40.84433],[-84.16657,40.84442],[-84.16652,40.84452],[-84.1665,40.8447],[-84.1665,40.84503],[-84.1665,40.84558],[-84.1665,40.84607],[-84.1665,40.84624],[-84.16651,40.84661],[-84.1665,40.84697],[-84.16651,40.84733],[-84.1665,40.84764],[-84.16651,40.84835],[-84.16651,40.84906],[-84.16651,40.84914],[-84.16651,40.84917],[-84.16651,40.84972],[-84.16652,40.85065],[-84.16652,40.85098],[-84.16652,40.85163],[-84.16652,40.85196],[-84.16653,40.85245],[-84.16653,40.85272],[-84.16653,40.85364],[-84.16654,40.85414],[-84.16653,40.85465],[-84.16653,40.85501],[-84.16654,40.85554],[-84.16653,40.85596],[-84.16653,40.85611],[-84.16653,40.85648],[-84.16653,40.85701],[-84.16653,40.85754],[-84.16653,40.85785],[-84.16669,40.85786],[-84.16701,40.85786],[-84.16795,40.85784],[-84.16865,40.85783],[-84.16971,40.85782],[-84.17198,40.85778],[-84.17209,40.85776],[-84.17218,40.85774],[-84.17227,40.85772],[-84.17239,40.85768],[-84.17277,40.85754],[-84.17329,40.85733],[-84.17416,40.857],[-84.17474,40.85677],[-84.17577,40.85638],[-84.17615,40.85624],[-84.17632,40.85619],[-84.17641,40.85618],[-84.17654,40.85618],[-84.17679,40.85617],[-84.17733,40.85617],[-84.17771,40.85616],[-84.17911,40.85615],[-84.17975,40.85614],[-84.17992,40.85614],[-84.18036,40.85613],[-84.18135,40.85612],[-84.18225,40.85612],[-84.18319,40.8561],[-84.18411,40.85609],[-84.18502,40.85607],[-84.1859,40.85606],[-84.18636,40.85605],[-84.19723,40.8561],[-84.19733,40.85577],[-84.19735,40.85564],[-84.19735,40.85556],[-84.19709,40.85512],[-84.19677,40.85459],[-84.19669,40.85441],[-84.19646,40.85401],[-84.19625,40.85355],[-84.19616,40.85332],[-84.19603,40.85298],[-84.19595,40.85277],[-84.19592,40.85268],[-84.1959,40.85259],[-84.19586,40.85252],[-84.19583,40.85247],[-84.19579,40.85246],[-84.19573,40.85245],[-84.19566,40.85245],[-84.19551,40.85243],[-84.19543,40.8524],[-84.19523,40.8523],[-84.19514,40.85226],[-84.19505,40.85224],[-84.19499,40.85224],[-84.19487,40.85222],[-84.19464,40.85213],[-84.19449,40.85206],[-84.19428,40.85187],[-84.19417,40.8517],[-84.19414,40.85155],[-84.19418,40.85145],[-84.19439,40.85127],[-84.19459,40.85114],[-84.19482,40.85102],[-84.19507,40.85093],[-84.19535,40.85084],[-84.19577,40.85068],[-84.19595,40.85056],[-84.19606,40.85039],[-84.19607,40.85027],[-84.19605,40.85015],[-84.19598,40.85004],[-84.19585,40.8499],[-84.19555,40.84964],[-84.19517,40.84937],[-84.19488,40.8492],[-84.19466,40.84901],[-84.19454,40.84887],[-84.19442,40.84872],[-84.19434,40.84851],[-84.19426,40.84833],[-84.19418,40.84808],[-84.19415,40.84779],[-84.19415,40.84757],[-84.19416,40.84738],[-84.19422,40.84715],[-84.19436,40.8469],[-84.19447,40.84674],[-84.1946,40.84658],[-84.19467,40.8464],[-84.19476,40.84626],[-84.19483,40.8461],[-84.19486,40.84594],[-84.19486,40.84566],[-84.19481,40.84549],[-84.19469,40.84522],[-84.19453,40.84502],[-84.19436,40.84486],[-84.19419,40.84475],[-84.19406,40.84466],[-84.19387,40.84454],[-84.19376,40.84443],[-84.1937,40.84432],[-84.19367,40.84426],[-84.19367,40.84418],[-84.19368,40.84407],[-84.19372,40.84386],[-84.19381,40.84351],[-84.19389,40.84333],[-84.19401,40.84315],[-84.19419,40.84293],[-84.19434,40.84282],[-84.19476,40.84263],[-84.19503,40.84253],[-84.19512,40.84251],[-84.19517,40.84251],[-84.19522,40.8425],[-84.19539,40.84244],[-84.19549,40.84241],[-84.19556,40.84239],[-84.19564,40.84237],[-84.1957,40.84237],[-84.19579,40.84236],[-84.19583,40.84234],[-84.19588,40.84233],[-84.19594,40.84233],[-84.19603,40.84231],[-84.19623,40.84227],[-84.19631,40.84224],[-84.19642,40.8422],[-84.19676,40.84209],[-84.19679,40.84207],[-84.19686,40.84204],[-84.19696,40.84202],[-84.19704,40.84201],[-84.19715,40.84201],[-84.19738,40.842],[-84.19758,40.84199],[-84.19775,40.84198],[-84.19794,40.84196],[-84.19808,40.84196],[-84.19819,40.84198],[-84.1983,40.84198],[-84.19849,40.84199],[-84.19865,40.84199],[-84.19874,40.84198],[-84.19888,40.84198],[-84.19898,40.84198],[-84.19907,40.84199],[-84.19921,40.842],[-84.19928,40.84199],[-84.19933,40.84196],[-84.19939,40.84193],[-84.19957,40.8418],[-84.19967,40.8417],[-84.19974,40.84161],[-84.19976,40.84153],[-84.19977,40.84136],[-84.19979,40.84119]]]}},{"type":"Feature","properties":{"GEOID":"3983930","NAME":"Westminster CDP","BASENAME":"Westminster","LSADC":"57","AREALAND":"4715850","CENTLAT":"+40.6990203","CENTLON":"-083.9794619"},"geometry":{"type":"Polygon","coordinates":[[[-83.99407,40.70198],[-83.99408,40.70164],[-83.99386,40.69895],[-83.99385,40.69489],[-83.99384,40.68985],[-83.99384,40.68862],[-83.9906,40.68799],[-83.99042,40.68796],[-83.99028,40.68797],[-83.99011,40.68799],[-83.98994,40.68803],[-83.98988,40.68807],[-83.9898,40.68811],[-83.9897,40.68819],[-83.98959,40.68829],[-83.98948,40.68841],[-83.98939,40.68855],[-83.98929,40.68878],[-83.98923,40.689],[-83.98921,40.6894],[-83.98917,40.68952],[-83.98913,40.68962],[-83.98906,40.6897],[-83.98894,40.68976],[-83.98862,40.68992],[-83.98822,40.69009],[-83.98805,40.69015],[-83.98785,40.69022],[-83.98771,40.69031],[-83.98761,40.69034],[-83.98744,40.69036],[-83.98731,40.69038],[-83.98707,40.69043],[-83.98687,40.69053],[-83.98665,40.69066],[-83.98651,40.69076],[-83.98521,40.69155],[-83.98478,40.69174],[-83.98453,40.69185],[-83.98388,40.69211],[-83.98326,40.69232],[-83.98295,40.69241],[-83.98291,40.69242],[-83.98266,40.69247],[-83.98217,40.69253],[-83.98128,40.69252],[-83.98098,40.69252],[-83.98051,40.69249],[-83.98025,40.69242],[-83.98016,40.69238],[-83.97998,40.69224],[-83.9796,40.69182],[-83.9793,40.6916],[-83.97897,40.6915],[-83.97873,40.69148],[-83.97842,40.69151],[-83.97825,40.69159],[-83.97791,40.69162],[-83.97756,40.69168],[-83.97749,40.6917],[-83.97716,40.69181],[-83.97663,40.69199],[-83.97662,40.69199],[-83.97643,40.69213],[-83.97626,40.69231],[-83.97607,40.69257],[-83.97596,40.69267],[-83.9759,40.69272],[-83.97583,40.69276],[-83.97557,40.69285],[-83.97546,40.69292],[-83.97537,40.69306],[-83.97513,40.69356],[-83.97509,40.69362],[-83.97501,40.6937],[-83.97495,40.69372],[-83.9749,40.69375],[-83.97482,40.69376],[-83.97475,40.69376],[-83.97467,40.69375],[-83.97459,40.69372],[-83.97419,40.69352],[-83.97377,40.69325],[-83.97347,40.69301],[-83.97323,40.69277],[-83.97304,40.69264],[-83.9729,40.69251],[-83.97275,40.69239],[-83.97256,40.69234],[-83.97229,40.69234],[-83.97173,40.69236],[-83.97113,40.69224],[-83.97098,40.69225],[-83.97087,40.69226],[-83.97056,40.69226],[-83.97001,40.69219],[-83.96972,40.6921],[-83.96939,40.69211],[-83.96911,40.69204],[-83.96865,40.69204],[-83.96818,40.69209],[-83.96799,40.69211],[-83.96761,40.69222],[-83.96721,40.6924],[-83.967,40.69245],[-83.9667,40.69247],[-83.96638,40.69254],[-83.96613,40.69253],[-83.96576,40.69249],[-83.96551,40.69248],[-83.96527,40.69246],[-83.96517,40.69241],[-83.96513,40.69234],[-83.96514,40.69223],[-83.96515,40.69216],[-83.96513,40.6921],[-83.96501,40.69206],[-83.96473,40.69197],[-83.96427,40.69192],[-83.96398,40.69182],[-83.9638,40.69171],[-83.96367,40.69167],[-83.96355,40.69164],[-83.96336,40.69162],[-83.96321,40.69162],[-83.96301,40.69165],[-83.96273,40.6917],[-83.96258,40.69167],[-83.96222,40.69156],[-83.96192,40.69147],[-83.96159,40.69145],[-83.96107,40.69153],[-83.96073,40.69157],[-83.96013,40.69162],[-83.95981,40.69157],[-83.95956,40.69148],[-83.95902,40.69117],[-83.95871,40.691],[-83.95857,40.69093],[-83.95816,40.69077],[-83.95754,40.69055],[-83.95679,40.69045],[-83.95657,40.69041],[-83.95657,40.69099],[-83.95654,40.69396],[-83.95659,40.69519],[-83.96144,40.69518],[-83.9615,40.69879],[-83.96148,40.69882],[-83.96147,40.69885],[-83.96146,40.69893],[-83.96146,40.69909],[-83.96144,40.69987],[-83.96257,40.69988],[-83.96257,40.70253],[-83.96387,40.70255],[-83.96392,40.70253],[-83.96413,40.70253],[-83.96448,40.70253],[-83.96505,40.70254],[-83.97587,40.70261],[-83.97572,40.70945],[-83.98188,40.70946],[-83.98535,40.70947],[-83.98782,40.70948],[-83.99407,40.70949],[-83.99406,40.70906],[-83.99406,40.70865],[-83.99406,40.70696],[-83.99407,40.70644],[-83.99407,40.70617],[-83.99407,40.70578],[-83.99408,40.70567],[-83.99407,40.70487],[-83.99408,40.70389],[-83.99407,40.70328],[-83.99408,40.70304],[-83.99407,40.70226],[-83.99407,40.70198]]]}}]}
