{"type":"FeatureCollection","features":[{"type":"Feature","properties":{"GEOID":"39003","NAME":"Allen County","BASENAME":"Allen","AREALAND":"1042587394","AREAWATER":"11152063","CENTLAT":"+40.7715422","CENTLON":"-084.1058104"},"geometry":{"type":"Polygon","coordinates":[[[-84.10959,40.86099],[-84.11521,40.86072],[-84.1169,40.86063],[-84.11908,40.86052],[-84.12497,40.86034],[-84.13033,40.86019],[-84.13046,40.86018],[-84.13792,40.86013],[-84.16654,40.85992],[-84.18744,40.85963],[-84.19221,40.85968],[-84.19284,40.85967],[-84.19319,40.85966],[-84.19336,40.85966],[-84.19342,40.85966],[-84.19587,40.8597],[-84.19827,40.85971],[-84.19829,40.85971],[-84.1983,40.85971],[-84.20557,40.85954],[-84.22479,40.85931],[-84.22485,40.85931],[-84.22485,40.85967],[-84.22486,40.86011],[-84.22699,40.86009],[-84.23143,40.86004],[-84.23158,40.86004],[-84.23313,40.85998],[-84.23341,40.85997],[-84.23441,40.85992],[-84.23531,40.85991],[-84.23645,40.85989],[-84.23913,40.85984],[-84.24276,40.85977],[-84.24363,40.85975],[-84.2439,40.85978],[-84.24994,40.85977],[-84.25274,40.85976],[-84.25329,40.85975],[-84.2593,40.85971],[-84.26282,40.85968],[-84.26626,40.85969],[-84.26645,40.85969],[-84.26688,40.85969],[-84.26816,40.8597],[-84.26837,40.8597],[-84.27099,40.85969],[-84.27729,40.85966],[-84.27899,40.85966],[-84.28148,40.85965],[-84.28342,40.85964],[-84.28683,40.85964],[-84.28697,40.85963],[-84.28712,40.85961],[-84.28721,40.85962],[-84.28731,40.85963],[-84.28744,40.85965],[-84.28796,40.85966],[-84.28984,40.85969],[-84.28993,40.85969],[-84.28999,40.85969],[-84.29006,40.85969],[-84.29551,40.85963],[-84.31073,40.85946],[-84.31216,40.85944],[-84.31307,40.85943],[-84.31401,40.85941],[-84.31426,40.85941],[-84.31501,40.8594],[-84.32027,40.85934],[-84.32036,40.85934],[-84.32077,40.85933],[-84.32119,40.85933],[-84.32191,40.85932],[-84.32315,40.8593],[-84.32315,40.85941],[-84.32318,40.85941],[-84.32896,40.85934],[-84.32959,40.85933],[-84.32962,40.85933],[-84.32962,40.8593],[-84.32974,40.85929],[-84.33027,40.85929],[-84.33063,40.85927],[-84.33398,40.8592],[-84.33437,40.85919],[-84.33692,40.85913],[-84.33831,40.85911],[-84.33887,40.85911],[-84.33912,40.85911],[-84.33941,40.85911],[-84.33983,40.85911],[-84.34036,40.8591],[-84.34053,40.8591],[-84.34048,40.85703],[-84.34048,40.85629],[-84.34048,40.85616],[-84.34047,40.85496],[-84.34047,40.85464],[-84.34045,40.85206],[-84.34045,40.85111],[-84.34043,40.84995],[-84.34042,40.84967],[-84.34042,40.84962],[-84.34042,40.84914],[-84.34044,40.84814],[-84.34044,40.84762],[-84.34044,40.8476],[-84.34044,40.84712],[-84.34041,40.84585],[-84.34038,40.84504],[-84.34038,40.8447],[-84.34039,40.84426],[-84.34039,40.84371],[-84.34039,40.84272],[-84.3404,40.84203],[-84.3404,40.84172],[-84.3404,40.84166],[-84.34037,40.8408],[-84.34037,40.84073],[-84.34036,40.8403],[-84.34036,40.83972],[-84.3403,40.83382],[-84.34031,40.83283],[-84.34031,40.83274],[-84.3403,40.83269],[-84.3403,40.83235],[-84.34029,40.83187],[-84.34028,40.83124],[-84.34027,40.83047],[-84.34027,40.83003],[-84.34026,40.8296],[-84.34025,40.82895],[-84.34025,40.82885],[-84.34025,40.82875],[-84.34025,40.82838],[-84.34022,40.82659],[-84.3401,40.81614],[-84.34014,40.81614],[-84.34022,40.81615],[-84.34474,40.81614],[-84.34635,40.81614],[-84.34992,40.81609],[-84.35063,40.8161],[-84.35079,40.8161],[-84.35246,40.8161],[-84.35917,40.81608],[-84.3594,40.81608],[-84.35943,40.81608],[-84.36003,40.81608],[-84.36325,40.81608],[-84.3641,40.81609],[-84.36466,40.81609],[-84.36714,40.81606],[-84.36888,40.81604],[-84.37155,40.81603],[-84.37484,40.81603],[-84.37805,40.81602],[-84.37839,40.81602],[-84.37868,40.816],[-84.3793,40.81599],[-84.38556,40.81597],[-84.38803,40.81598],[-84.38856,40.81596],[-84.38928,40.81595],[-84.38936,40.81595],[-84.39,40.81595],[-84.39008,40.81595],[-84.39214,40.81595],[-84.39391,40.81595],[-84.39546,40.81593],[-84.39551,40.81593],[-84.39737,40.81594],[-84.39738,40.81565],[-84.39738,40.81495],[-84.39737,40.81424],[-84.39737,40.81354],[-84.39736,40.81242],[-84.39735,40.81172],[-84.39734,40.81085],[-84.39734,40.81016],[-84.39732,40.8086],[-84.39732,40.80833],[-84.39732,40.80759],[-84.39731,40.80697],[-84.3973,40.80605],[-84.3973,40.80585],[-84.3973,40.8053],[-84.39728,40.80452],[-84.39728,40.80441],[-84.39728,40.80431],[-84.39726,40.80114],[-84.39723,40.79721],[-84.39723,40.797],[-84.39723,40.79642],[-84.39723,40.79594],[-84.39722,40.79541],[-84.39722,40.79383],[-84.39721,40.7914],[-84.39721,40.79083],[-84.39721,40.7902],[-84.39719,40.78792],[-84.3972,40.7876],[-84.39719,40.78658],[-84.39718,40.78387],[-84.39718,40.78381],[-84.39716,40.78093],[-84.39716,40.77937],[-84.39713,40.77698],[-84.39712,40.77607],[-84.39711,40.7748],[-84.39711,40.77366],[-84.39709,40.77209],[-84.39711,40.77132],[-84.3971,40.76952],[-84.39711,40.76711],[-84.39712,40.76542],[-84.39711,40.76505],[-84.39702,40.75803],[-84.39701,40.75763],[-84.39701,40.75736],[-84.39701,40.75723],[-84.39702,40.75527],[-84.39706,40.75271],[-84.39708,40.75031],[-84.39708,40.75004],[-84.39706,40.7474],[-84.39705,40.74675],[-84.39703,40.74435],[-84.39702,40.74378],[-84.39702,40.74311],[-84.39702,40.74131],[-84.39703,40.73978],[-84.39703,40.73923],[-84.39703,40.73869],[-84.39702,40.73789],[-84.39702,40.73759],[-84.39702,40.73746],[-84.39702,40.73726],[-84.39703,40.7365],[-84.39703,40.73584],[-84.39703,40.73582],[-84.39704,40.73348],[-84.39705,40.7329],[-84.39706,40.7294],[-84.39706,40.72895],[-84.39704,40.72858],[-84.39702,40.7283],[-84.39699,40.72765],[-84.39699,40.72743],[-84.39699,40.72668],[-84.39698,40.72616],[-84.39698,40.72566],[-84.39698,40.72545],[-84.39697,40.72524],[-84.39697,40.72476],[-84.39696,40.72385],[-84.39695,40.72285],[-84.39695,40.72139],[-84.39694,40.71457],[-84.39694,40.71411],[-84.39694,40.71406],[-84.39695,40.71383],[-84.39695,40.71365],[-84.39692,40.71014],[-84.39689,40.70745],[-84.39689,40.70713],[-84.39688,40.70681],[-84.39689,40.70412],[-84.39687,40.70252],[-84.39686,40.70161],[-84.39686,40.69953],[-84.39686,40.69925],[-84.39685,40.69778],[-84.39683,40.69589],[-84.39683,40.69525],[-84.39683,40.69461],[-84.39682,40.69419],[-84.39682,40.69395],[-84.39683,40.6931],[-84.39682,40.69225],[-84.39678,40.68493],[-84.37761,40.68495],[-84.37495,40.68495],[-84.36606,40.68503],[-84.36571,40.68503],[-84.36501,40.68503],[-84.36469,40.68504],[-84.36463,40.68504],[-84.35273,40.68509],[-84.33929,40.68508],[-84.33929,40.6856],[-84.33866,40.6856],[-84.31821,40.68566],[-84.31779,40.68566],[-84.31694,40.68566],[-84.31273,40.68568],[-84.31206,40.68568],[-84.31109,40.68567],[-84.31005,40.68567],[-84.30916,40.68567],[-84.30805,40.68568],[-84.3076,40.68568],[-84.30672,40.68568],[-84.30566,40.68568],[-84.30393,40.68569],[-84.30251,40.68569],[-84.3025,40.68569],[-84.30201,40.68569],[-84.30196,40.68569],[-84.30179,40.68569],[-84.30013,40.68572],[-84.29947,40.68572],[-84.29927,40.68572],[-84.29915,40.68572],[-84.29791,40.68573],[-84.29694,40.68574],[-84.29573,40.68575],[-84.29448,40.68574],[-84.29333,40.68574],[-84.29288,40.68574],[-84.29202,40.68575],[-84.29007,40.68575],[-84.28949,40.68575],[-84.2886,40.68575],[-84.28853,40.68575],[-84.28769,40.68575],[-84.28751,40.68575],[-84.28724,40.68575],[-84.28675,40.68576],[-84.28564,40.68576],[-84.285,40.68576],[-84.28423,40.68575],[-84.28422,40.68575],[-84.28371,40.68575],[-84.28321,40.68574],[-84.28214,40.68575],[-84.28122,40.68575],[-84.28018,40.68575],[-84.28014,40.68575],[-84.28006,40.68574],[-84.27993,40.68574],[-84.27964,40.68574],[-84.2785,40.68575],[-84.27693,40.68576],[-84.27541,40.68578],[-84.27483,40.68578],[-84.27353,40.68579],[-84.27255,40.6858],[-84.27222,40.6858],[-84.27108,40.68581],[-84.27097,40.68581],[-84.27079,40.68581],[-84.27076,40.68581],[-84.27038,40.6858],[-84.26644,40.68583],[-84.26565,40.68584],[-84.2655,40.68584],[-84.26532,40.68584],[-84.26529,40.68584],[-84.26422,40.68586],[-84.26418,40.68586],[-84.26369,40.68587],[-84.26346,40.68587],[-84.2633,40.68587],[-84.26301,40.68587],[-84.26149,40.68589],[-84.26109,40.6859],[-84.26074,40.6859],[-84.25996,40.68591],[-84.25966,40.68591],[-84.25963,40.68591],[-84.25898,40.68593],[-84.25895,40.68593],[-84.25861,40.68594],[-84.25808,40.68594],[-84.25768,40.68594],[-84.25719,40.68595],[-84.2569,40.68596],[-84.25674,40.68597],[-84.25655,40.686],[-84.25636,40.68604],[-84.25618,40.68608],[-84.24995,40.68593],[-84.2467,40.68594],[-84.24664,40.68594],[-84.2419,40.68601],[-84.2228,40.68596],[-84.22279,40.68566],[-84.22279,40.68552],[-84.22279,40.68522],[-84.22278,40.68491],[-84.22278,40.6841],[-84.22277,40.68389],[-84.22277,40.68386],[-84.22277,40.68307],[-84.22276,40.68229],[-84.22276,40.68187],[-84.2228,40.68159],[-84.22281,40.68147],[-84.22281,40.6814],[-84.22281,40.68061],[-84.22282,40.67975],[-84.22281,40.67947],[-84.22281,40.67921],[-84.22281,40.67903],[-84.2228,40.67827],[-84.22279,40.67748],[-84.22278,40.67673],[-84.22277,40.67589],[-84.22277,40.67515],[-84.22276,40.67438],[-84.22275,40.67358],[-84.22274,40.67276],[-84.22272,40.67194],[-84.22272,40.67137],[-84.22271,40.67111],[-84.22271,40.6703],[-84.22271,40.66956],[-84.22271,40.66951],[-84.22271,40.66924],[-84.2227,40.66873],[-84.22269,40.66794],[-84.22269,40.66774],[-84.22268,40.66733],[-84.22268,40.66696],[-84.22253,40.66688],[-84.22257,40.66688],[-84.22268,40.66683],[-84.22268,40.66671],[-84.22268,40.66654],[-84.22265,40.66428],[-84.22275,40.65695],[-84.21122,40.65696],[-84.20754,40.65705],[-84.20351,40.65705],[-84.20348,40.65705],[-84.18959,40.6571],[-84.18536,40.65712],[-84.18435,40.65712],[-84.16521,40.65714],[-84.15267,40.65729],[-84.15223,40.65729],[-84.15088,40.65731],[-84.15013,40.65733],[-84.14997,40.65733],[-84.14968,40.65733],[-84.14943,40.65734],[-84.14893,40.65734],[-84.14842,40.65735],[-84.14817,40.65735],[-84.14792,40.65735],[-84.14766,40.65735],[-84.14732,40.65736],[-84.14617,40.65737],[-84.14612,40.65737],[-84.14562,40.65737],[-84.14513,40.65738],[-84.14471,40.65738],[-84.14388,40.65739],[-84.14215,40.6574],[-84.14127,40.65741],[-84.14053,40.65744],[-84.13965,40.65748],[-84.13749,40.65751],[-84.13587,40.65754],[-84.13582,40.65754],[-84.13553,40.65755],[-84.13476,40.65755],[-84.13467,40.65755],[-84.13405,40.65753],[-84.13183,40.65763],[-84.13153,40.65764],[-84.13147,40.65764],[-84.13122,40.65764],[-84.1312,40.65764],[-84.13092,40.65764],[-84.12566,40.65765],[-84.12214,40.65765],[-84.10791,40.65794],[-84.10789,40.65699],[-84.10789,40.65645],[-84.10788,40.65624],[-84.10787,40.65603],[-84.10787,40.65573],[-84.10785,40.65491],[-84.10786,40.65442],[-84.10787,40.6537],[-84.10787,40.65337],[-84.10787,40.65288],[-84.10787,40.65254],[-84.10786,40.65248],[-84.10785,40.65171],[-84.10785,40.65149],[-84.10785,40.65117],[-84.10785,40.65112],[-84.10785,40.65108],[-84.10785,40.65053],[-84.10784,40.65021],[-84.10784,40.65015],[-84.10782,40.64856],[-84.10781,40.64803],[-84.10781,40.64677],[-84.10781,40.64514],[-84.10781,40.64483],[-84.10781,40.64458],[-84.10781,40.64437],[-84.10781,40.64421],[-84.1078,40.64412],[-84.10779,40.6438],[-84.10779,40.64307],[-84.0994,40.64322],[-84.08979,40.6434],[-84.08976,40.6434],[-84.08457,40.64346],[-84.08135,40.6435],[-84.07896,40.64353],[-84.0784,40.64353],[-84.07826,40.64353],[-84.07808,40.64353],[-84.07775,40.64354],[-84.07741,40.64356],[-84.07724,40.64357],[-84.07619,40.64357],[-84.07532,40.6436],[-84.07461,40.64361],[-84.07057,40.64365],[-84.06524,40.64374],[-84.0647,40.64375],[-84.06256,40.64378],[-84.06167,40.6438],[-84.06098,40.6438],[-84.05531,40.6438],[-84.04924,40.64385],[-84.04654,40.64395],[-84.03918,40.64395],[-84.03849,40.64397],[-84.03222,40.64405],[-84.03219,40.64406],[-84.03216,40.64406],[-84.03212,40.64406],[-84.03209,40.64406],[-84.03203,40.64406],[-84.03192,40.64406],[-84.03147,40.64405],[-84.03025,40.64405],[-84.02903,40.64405],[-84.02768,40.64406],[-84.0267,40.64406],[-84.02524,40.64407],[-84.02458,40.64407],[-84.02376,40.64407],[-84.02291,40.64407],[-84.02177,40.64407],[-84.02103,40.64408],[-84.02061,40.64407],[-84.02007,40.64407],[-84.01952,40.64408],[-84.01897,40.64407],[-84.01842,40.64407],[-84.01787,40.64407],[-84.01732,40.64407],[-84.01677,40.64408],[-84.01585,40.64408],[-84.01314,40.64408],[-84.01213,40.64409],[-84.01171,40.64409],[-84.01096,40.64409],[-84.01087,40.64409],[-84.01001,40.64408],[-84.00915,40.64408],[-84.00884,40.64408],[-84.00827,40.64409],[-84.00744,40.64409],[-84.00728,40.64409],[-84.0066,40.64409],[-84.00576,40.64409],[-84.0049,40.64408],[-84.00426,40.64409],[-84.00319,40.64409],[-84.00242,40.6441],[-84.0018,40.6441],[-84.00057,40.6441],[-83.9992,40.64411],[-83.99668,40.64412],[-83.99559,40.64412],[-83.99518,40.64413],[-83.99408,40.64413],[-83.98883,40.64414],[-83.98521,40.64415],[-83.98296,40.64416],[-83.97911,40.64418],[-83.97621,40.64419],[-83.97576,40.64419],[-83.97549,40.6442],[-83.97548,40.6442],[-83.97521,40.6442],[-83.97464,40.6442],[-83.9736,40.64421],[-83.9713,40.64422],[-83.97087,40.64422],[-83.97085,40.64422],[-83.97032,40.64422],[-83.96899,40.64423],[-83.96579,40.64424],[-83.96498,40.64425],[-83.96461,40.64425],[-83.96277,40.64426],[-83.9618,40.64426],[-83.95885,40.64427],[-83.95711,40.64428],[-83.95659,40.64428],[-83.95598,40.64429],[-83.95273,40.64432],[-83.95269,40.64432],[-83.95262,40.64432],[-83.95166,40.64433],[-83.95155,40.64433],[-83.95136,40.64434],[-83.94939,40.64436],[-83.94561,40.6444],[-83.94545,40.64439],[-83.9452,40.64439],[-83.9449,40.64439],[-83.94446,40.6444],[-83.94383,40.6444],[-83.94225,40.64442],[-83.94222,40.64442],[-83.93805,40.64445],[-83.93762,40.64446],[-83.93747,40.64446],[-83.93736,40.64446],[-83.93693,40.64446],[-83.92973,40.64453],[-83.92971,40.64453],[-83.92715,40.6445],[-83.91835,40.64453],[-83.91338,40.64455],[-83.89925,40.64467],[-83.88692,40.64469],[-83.88019,40.64469],[-83.88019,40.64986],[-83.88017,40.65227],[-83.88017,40.65231],[-83.88016,40.65278],[-83.88016,40.65374],[-83.88016,40.65408],[-83.88016,40.65415],[-83.88016,40.65425],[-83.88016,40.65427],[-83.88016,40.65431],[-83.88015,40.65576],[-83.88014,40.65616],[-83.88012,40.6574],[-83.88012,40.65749],[-83.88012,40.65763],[-83.88012,40.65769],[-83.88012,40.65771],[-83.88012,40.65798],[-83.88012,40.65816],[-83.88012,40.65817],[-83.88009,40.66067],[-83.88008,40.66201],[-83.88008,40.66337],[-83.88008,40.66349],[-83.88008,40.66359],[-83.88008,40.66398],[-83.8801,40.66597],[-83.8801,40.66599],[-83.88009,40.66794],[-83.88008,40.66836],[-83.88008,40.66869],[-83.88008,40.6687],[-83.88006,40.66996],[-83.88006,40.67151],[-83.88005,40.6739],[-83.88005,40.67449],[-83.88005,40.6746],[-83.88006,40.67787],[-83.88005,40.67971],[-83.88005,40.67991],[-83.88005,40.68012],[-83.88005,40.68136],[-83.88005,40.68148],[-83.88005,40.68168],[-83.88005,40.68187],[-83.88004,40.68362],[-83.88003,40.68465],[-83.88003,40.68562],[-83.88001,40.68898],[-83.88001,40.68919],[-83.88001,40.6894],[-83.88001,40.68941],[-83.88001,40.68943],[-83.88001,40.68945],[-83.88001,40.68963],[-83.88001,40.69134],[-83.88001,40.69157],[-83.88,40.69288],[-83.87999,40.6934],[-83.87999,40.69346],[-83.87999,40.69541],[-83.88,40.69598],[-83.88,40.69599],[-83.88,40.69601],[-83.88,40.69603],[-83.88,40.69607],[-83.88,40.69612],[-83.88,40.69741],[-83.88,40.6978],[-83.88,40.69783],[-83.88,40.69934],[-83.87999,40.69968],[-83.87998,40.70124],[-83.87999,40.70326],[-83.87999,40.70329],[-83.87998,40.70384],[-83.87998,40.70387],[-83.87995,40.70685],[-83.87995,40.70697],[-83.87994,40.71073],[-83.87994,40.71077],[-83.87994,40.71093],[-83.87992,40.71294],[-83.87992,40.71297],[-83.87992,40.71299],[-83.87992,40.71301],[-83.87992,40.71303],[-83.87992,40.71304],[-83.87992,40.71311],[-83.87992,40.71343],[-83.87992,40.71536],[-83.87989,40.71738],[-83.87989,40.71784],[-83.87989,40.71852],[-83.87989,40.71857],[-83.87989,40.7191],[-83.87989,40.71924],[-83.87989,40.71966],[-83.87988,40.72119],[-83.87986,40.72313],[-83.87983,40.72883],[-83.87983,40.72904],[-83.87984,40.73147],[-83.87984,40.7317],[-83.87984,40.73173],[-83.87984,40.73174],[-83.87983,40.73242],[-83.87983,40.73244],[-83.87983,40.73292],[-83.87983,40.73383],[-83.87983,40.73385],[-83.87983,40.73408],[-83.87983,40.73427],[-83.87983,40.73431],[-83.87983,40.73432],[-83.87983,40.73437],[-83.87983,40.7344],[-83.87983,40.73442],[-83.87983,40.73452],[-83.87983,40.73461],[-83.87983,40.73468],[-83.87983,40.7348],[-83.87984,40.7358],[-83.87984,40.73582],[-83.87985,40.73623],[-83.87985,40.73673],[-83.87985,40.73675],[-83.87985,40.73707],[-83.87985,40.73731],[-83.87986,40.73873],[-83.87986,40.73888],[-83.87986,40.73963],[-83.87986,40.73985],[-83.87987,40.74006],[-83.87987,40.74104],[-83.87987,40.74106],[-83.87987,40.74144],[-83.87988,40.74213],[-83.87989,40.74251],[-83.87989,40.74252],[-83.87989,40.74255],[-83.87989,40.7427],[-83.87989,40.74354],[-83.87989,40.74531],[-83.8799,40.74662],[-83.8799,40.74664],[-83.8799,40.74689],[-83.8799,40.74693],[-83.8799,40.74706],[-83.8799,40.7472],[-83.8799,40.74723],[-83.8799,40.74727],[-83.8799,40.74953],[-83.87991,40.74976],[-83.87991,40.75007],[-83.87991,40.75011],[-83.87991,40.75061],[-83.87991,40.75071],[-83.87991,40.75078],[-83.87992,40.75084],[-83.87991,40.75182],[-83.87991,40.7524],[-83.8799,40.75322],[-83.87992,40.75468],[-83.87992,40.75492],[-83.87992,40.75493],[-83.87992,40.75494],[-83.87992,40.75556],[-83.87992,40.75557],[-83.87992,40.75559],[-83.87992,40.75561],[-83.87992,40.75566],[-83.87992,40.7557],[-83.87992,40.75573],[-83.87991,40.75611],[-83.87991,40.75677],[-83.87992,40.75705],[-83.87992,40.7573],[-83.87992,40.75731],[-83.87992,40.75738],[-83.87992,40.7574],[-83.87992,40.7585],[-83.87992,40.75985],[-83.87992,40.76073],[-83.87992,40.76157],[-83.87992,40.76171],[-83.87992,40.76186],[-83.87992,40.76303],[-83.87992,40.76514],[-83.87992,40.76516],[-83.87994,40.76727],[-83.87992,40.76902],[-83.87992,40.76904],[-83.87992,40.76905],[-83.87992,40.76907],[-83.87991,40.76994],[-83.87991,40.76996],[-83.87991,40.77011],[-83.87991,40.77013],[-83.8799,40.77427],[-83.87991,40.7756],[-83.87991,40.77562],[-83.87991,40.77564],[-83.87992,40.77618],[-83.87992,40.77626],[-83.87992,40.77644],[-83.87992,40.77706],[-83.87993,40.78001],[-83.87994,40.78092],[-83.87994,40.78131],[-83.87994,40.78143],[-83.87995,40.78211],[-83.87995,40.78247],[-83.87995,40.78323],[-83.87996,40.78349],[-83.87996,40.78382],[-83.88002,40.78848],[-83.88001,40.79041],[-83.88001,40.7907],[-83.88001,40.79071],[-83.88001,40.79095],[-83.88001,40.79096],[-83.88001,40.79098],[-83.88001,40.79125],[-83.88001,40.79145],[-83.88001,40.79164],[-83.88001,40.79173],[-83.88001,40.79254],[-83.88001,40.7937],[-83.88001,40.79384],[-83.88,40.79438],[-83.88,40.79551],[-83.88,40.79646],[-83.88,40.79647],[-83.88001,40.79726],[-83.88002,40.79888],[-83.88,40.80142],[-83.87999,40.80227],[-83.88001,40.80365],[-83.88002,40.80435],[-83.88002,40.80542],[-83.88002,40.80558],[-83.88002,40.80717],[-83.88003,40.80757],[-83.88004,40.80948],[-83.88004,40.81179],[-83.88005,40.8126],[-83.88006,40.81446],[-83.88005,40.81674],[-83.88005,40.8173],[-83.88005,40.81758],[-83.88005,40.81768],[-83.88005,40.81778],[-83.88005,40.8192],[-83.88006,40.81992],[-83.8801,40.82176],[-83.8801,40.822],[-83.88014,40.82481],[-83.88014,40.82545],[-83.88013,40.82748],[-83.88014,40.82772],[-83.88014,40.82878],[-83.88015,40.83089],[-83.88017,40.83229],[-83.88017,40.83242],[-83.88017,40.83245],[-83.88018,40.83438],[-83.88018,40.83535],[-83.88018,40.83616],[-83.88019,40.83742],[-83.88019,40.83938],[-83.8802,40.84088],[-83.8802,40.84228],[-83.8802,40.84354],[-83.8802,40.84435],[-83.8802,40.84716],[-83.8802,40.84799],[-83.88021,40.84837],[-83.88021,40.84886],[-83.88021,40.84984],[-83.88021,40.85008],[-83.88022,40.85431],[-83.88023,40.85727],[-83.88025,40.86127],[-83.88025,40.86151],[-83.88025,40.86226],[-83.88025,40.86248],[-83.88026,40.86335],[-83.88026,40.86348],[-83.88026,40.86354],[-83.88026,40.86411],[-83.88026,40.86564],[-83.88026,40.86638],[-83.88027,40.86753],[-83.88027,40.86884],[-83.8803,40.87064],[-83.88029,40.8719],[-83.88029,40.87354],[-83.88028,40.87382],[-83.88028,40.8746],[-83.88028,40.87462],[-83.88028,40.87484],[-83.88028,40.87508],[-83.88028,40.8752],[-83.88029,40.87555],[-83.88029,40.87649],[-83.88028,40.87689],[-83.88028,40.87786],[-83.88028,40.87794],[-83.88029,40.87836],[-83.88029,40.87885],[-83.8803,40.87984],[-83.8803,40.88006],[-83.8803,40.88008],[-83.8803,40.88103],[-83.8803,40.88142],[-83.8803,40.88154],[-83.8803,40.8816],[-83.8803,40.88217],[-83.8803,40.88245],[-83.8803,40.8829],[-83.88031,40.88455],[-83.88031,40.88476],[-83.88031,40.88493],[-83.8803,40.88525],[-83.8803,40.88574],[-83.88031,40.88744],[-83.88031,40.88747],[-83.88031,40.88784],[-83.88031,40.88785],[-83.88031,40.88807],[-83.88031,40.88821],[-83.88032,40.88909],[-83.88032,40.8896],[-83.88032,40.88996],[-83.88033,40.89041],[-83.88034,40.89135],[-83.88034,40.89138],[-83.88034,40.89194],[-83.88034,40.89242],[-83.88034,40.89244],[-83.88033,40.89257],[-83.88035,40.89342],[-83.88036,40.89524],[-83.88037,40.89563],[-83.88037,40.89575],[-83.88037,40.89588],[-83.88037,40.89591],[-83.88037,40.89593],[-83.88037,40.89598],[-83.88037,40.89612],[-83.88037,40.89629],[-83.88037,40.89643],[-83.88037,40.89664],[-83.88038,40.89864],[-83.88038,40.89876],[-83.88038,40.89886],[-83.88039,40.89966],[-83.88039,40.90122],[-83.88039,40.90128],[-83.88039,40.90135],[-83.88039,40.90195],[-83.8804,40.90263],[-83.8804,40.90466],[-83.8804,40.9052],[-83.8804,40.90591],[-83.88041,40.90775],[-83.88041,40.90831],[-83.88041,40.90961],[-83.88041,40.91247],[-83.88042,40.91768],[-83.88042,40.91831],[-83.88042,40.91885],[-83.88042,40.9197],[-83.88042,40.92043],[-83.88055,40.92043],[-83.88081,40.92043],[-83.88129,40.92042],[-83.88189,40.92042],[-83.88253,40.92042],[-83.88284,40.92042],[-83.88323,40.92042],[-83.88366,40.92041],[-83.88412,40.92041],[-83.88456,40.92041],[-83.88502,40.92041],[-83.88552,40.92041],[-83.88571,40.92041],[-83.88603,40.9204],[-83.88669,40.92041],[-83.88715,40.9204],[-83.88749,40.9204],[-83.88794,40.9204],[-83.8882,40.9204],[-83.88856,40.9204],[-83.88886,40.9204],[-83.88919,40.9204],[-83.88957,40.9204],[-83.88983,40.9204],[-83.89042,40.9204],[-83.89074,40.92039],[-83.89105,40.92039],[-83.89151,40.92039],[-83.89175,40.92039],[-83.89201,40.92039],[-83.89241,40.92039],[-83.89275,40.92038],[-83.89311,40.92038],[-83.89342,40.92038],[-83.89391,40.92038],[-83.89426,40.92037],[-83.89451,40.92037],[-83.89488,40.92037],[-83.89525,40.92037],[-83.89558,40.92036],[-83.89593,40.92037],[-83.89628,40.92036],[-83.89662,40.92036],[-83.897,40.92036],[-83.89736,40.92035],[-83.89773,40.92035],[-83.89811,40.92035],[-83.89848,40.92034],[-83.89907,40.92035],[-83.89924,40.92035],[-83.89951,40.92035],[-83.89955,40.92035],[-83.8996,40.92034],[-83.90058,40.92034],[-83.90259,40.92033],[-83.90281,40.92033],[-83.9044,40.92032],[-83.90688,40.92032],[-83.90787,40.92031],[-83.909,40.92031],[-83.91441,40.9203],[-83.91443,40.9203],[-83.91453,40.9203],[-83.91455,40.9203],[-83.915,40.9203],[-83.91531,40.9203],[-83.91541,40.9203],[-83.91598,40.9203],[-83.91712,40.9203],[-83.91847,40.9203],[-83.91865,40.92029],[-83.91935,40.92029],[-83.92007,40.92029],[-83.92036,40.92029],[-83.92153,40.92029],[-83.92442,40.9203],[-83.9248,40.9203],[-83.926,40.9203],[-83.92631,40.9203],[-83.92971,40.9203],[-83.93178,40.9203],[-83.93246,40.9203],[-83.93352,40.92029],[-83.93639,40.92027],[-83.93774,40.92026],[-83.93964,40.92026],[-83.94236,40.92024],[-83.94255,40.92023],[-83.94596,40.92022],[-83.94645,40.92021],[-83.94732,40.92021],[-83.94805,40.9202],[-83.94922,40.9202],[-83.94981,40.9202],[-83.94999,40.9202],[-83.95047,40.92019],[-83.95081,40.92019],[-83.9509,40.92019],[-83.95694,40.92019],[-83.96016,40.92014],[-83.96157,40.92012],[-83.96449,40.92008],[-83.96465,40.92007],[-83.96485,40.92007],[-83.96526,40.92006],[-83.96647,40.92004],[-83.96649,40.92004],[-83.96704,40.92004],[-83.96828,40.92003],[-83.97134,40.91999],[-83.97374,40.91996],[-83.97397,40.91996],[-83.97445,40.91996],[-83.97608,40.91994],[-83.97611,40.91994],[-83.98456,40.91989],[-83.99327,40.91985],[-83.99523,40.91984],[-83.99523,40.91971],[-83.99523,40.91961],[-83.99523,40.91942],[-83.99522,40.91885],[-83.99521,40.91763],[-83.99521,40.91704],[-83.99521,40.91644],[-83.99521,40.91598],[-83.99521,40.91552],[-83.99521,40.91503],[-83.99521,40.91401],[-83.99523,40.91364],[-83.99523,40.9136],[-83.99529,40.91228],[-83.99524,40.91184],[-83.99519,40.91148],[-83.99519,40.91103],[-83.99518,40.90667],[-83.99517,40.90507],[-83.99621,40.90506],[-83.99647,40.90505],[-83.99676,40.90505],[-83.99702,40.90505],[-83.9982,40.90503],[-84.0046,40.90501],[-84.00939,40.90496],[-84.01058,40.90497],[-84.01191,40.90494],[-84.01195,40.90494],[-84.01369,40.90495],[-84.01694,40.90492],[-84.0203,40.90489],[-84.02036,40.90489],[-84.02181,40.90488],[-84.02543,40.90488],[-84.0257,40.90488],[-84.02832,40.90486],[-84.04465,40.90483],[-84.05263,40.90481],[-84.05417,40.90481],[-84.05501,40.90481],[-84.05528,40.90475],[-84.05766,40.90477],[-84.06215,40.90476],[-84.06219,40.90476],[-84.0625,40.90475],[-84.07016,40.9049],[-84.07602,40.90486],[-84.08134,40.90484],[-84.08246,40.9048],[-84.08286,40.90481],[-84.0834,40.90481],[-84.08565,40.90482],[-84.08584,40.90483],[-84.0861,40.90482],[-84.08711,40.90479],[-84.08713,40.90479],[-84.08713,40.90479],[-84.08715,40.90478],[-84.08718,40.90478],[-84.10952,40.90473],[-84.10994,40.8943],[-84.10994,40.89423],[-84.10993,40.89414],[-84.10992,40.89389],[-84.10993,40.89328],[-84.10992,40.89266],[-84.10991,40.89201],[-84.1099,40.89137],[-84.1099,40.89104],[-84.1099,40.89081],[-84.10989,40.89038],[-84.10989,40.88999],[-84.10989,40.88994],[-84.10988,40.88945],[-84.10988,40.88895],[-84.10987,40.88846],[-84.10987,40.88793],[-84.10987,40.88719],[-84.10988,40.88692],[-84.10986,40.88379],[-84.10986,40.88287],[-84.10987,40.87925],[-84.10987,40.8788],[-84.10987,40.8783],[-84.10987,40.87794],[-84.10988,40.8758],[-84.10976,40.87542],[-84.10973,40.87505],[-84.10973,40.87387],[-84.1097,40.8683],[-84.10968,40.86815],[-84.10967,40.86714],[-84.10966,40.86683],[-84.10966,40.86645],[-84.10966,40.866],[-84.10965,40.86556],[-84.10964,40.86519],[-84.10964,40.86515],[-84.10964,40.86508],[-84.10963,40.86478],[-84.10963,40.86434],[-84.10963,40.86392],[-84.10962,40.86349],[-84.10962,40.86307],[-84.10961,40.86263],[-84.10959,40.86201],[-84.10959,40.86133],[-84.10959,40.86099]]]}}]}
