{"type":"FeatureCollection","features":[{"type":"Feature","properties":{"GEOID":"3904752","NAME":"Beaverdam village","BASENAME":"Beaverdam","LSADC":"47","AREALAND":"1631420","CENTLAT":"+40.8327998","CENTLON":"-083.9737883"},"geometry":{"type":"Polygon","coordinates":[[[-83.98537,40.83648],[-83.98537,40.83642],[-83.98536,40.83638],[-83.98535,40.83458],[-83.98533,40.83283],[-83.98529,40.83117],[-83.98527,40.83062],[-83.98524,40.82919],[-83.98267,40.82923],[-83.98255,40.82923],[-83.98166,40.82925],[-83.98068,40.82926],[-83.979,40.82928],[-83.97659,40.82931],[-83.97575,40.82933],[-83.97506,40.82933],[-83.97505,40.82898],[-83.9743,40.82899],[-83.97376,40.8288],[-83.97215,40.82822],[-83.97067,40.82816],[-83.96943,40.82812],[-83.96889,40.82813],[-83.96818,40.82816],[-83.96798,40.82817],[-83.96761,40.8282],[-83.96718,40.82825],[-83.96685,40.8283],[-83.96646,40.82839],[-83.96619,40.82846],[-83.96554,40.82868],[-83.96536,40.82876],[-83.9652,40.82883],[-83.9649,40.82898],[-83.96483,40.82901],[-83.96428,40.82934],[-83.96414,40.82942],[-83.96397,40.82953],[-83.96385,40.82962],[-83.9637,40.82975],[-83.96356,40.82989],[-83.96344,40.83002],[-83.96333,40.83016],[-83.96329,40.83023],[-83.96319,40.83039],[-83.96308,40.83063],[-83.963,40.83092],[-83.96297,40.83116],[-83.96296,40.83133],[-83.96298,40.8315],[-83.96349,40.83319],[-83.96447,40.83313],[-83.96487,40.83312],[-83.96486,40.83324],[-83.96423,40.8333],[-83.96352,40.83337],[-83.96259,40.83434],[-83.96229,40.83465],[-83.96231,40.83503],[-83.96221,40.83511],[-83.96212,40.8352],[-83.9621,40.83534],[-83.96194,40.83542],[-83.96188,40.83556],[-83.96185,40.83567],[-83.96182,40.83584],[-83.96172,40.83675],[-83.96172,40.83685],[-83.96368,40.83681],[-83.96484,40.83679],[-83.96506,40.83678],[-83.96572,40.83677],[-83.96584,40.83677],[-83.96618,40.83676],[-83.96622,40.83676],[-83.96623,40.83676],[-83.96628,40.83676],[-83.9666,40.83675],[-83.96705,40.83674],[-83.96779,40.83673],[-83.96791,40.83672],[-83.9687,40.83671],[-83.96958,40.83669],[-83.97124,40.83667],[-83.97135,40.83667],[-83.97313,40.83665],[-83.9758,40.83661],[-83.97582,40.83661],[-83.9766,40.8366],[-83.98003,40.83656],[-83.9836,40.83651],[-83.98537,40.83648]]]}},{"type":"Feature","properties":{"GEOID":"3907426","NAME":"Bluffton village","BASENAME":"Bluffton","LSADC":"47","AREALAND":"9457722","CENTLAT":"+40.8912343","CENTLON":"-083.8886502"},"geometry":{"type":"Polygon","coordinates":[[[-83.9192,40.89928],[-83.91919,40.89872],[-83.91787,40.89874],[-83.91781,40.89579],[-83.91915,40.89577],[-83.91915,40.89573],[-83.91915,40.89548],[-83.91911,40.89277],[-83.91872,40.89278],[-83.91845,40.89278],[-83.91844,40.89262],[-83.91651,40.89265],[-83.91651,40.89306],[-83.91431,40.8931],[-83.91426,40.89299],[-83.90954,40.89306],[-83.90961,40.89727],[-83.90965,40.89945],[-83.90731,40.89948],[-83.90728,40.89948],[-83.90636,40.8995],[-83.90503,40.89952],[-83.90485,40.89952],[-83.90482,40.8959],[-83.90481,40.89472],[-83.90483,40.89226],[-83.9039,40.89229],[-83.90189,40.89234],[-83.90077,40.89235],[-83.90077,40.89223],[-83.90076,40.89162],[-83.90076,40.89145],[-83.90076,40.89131],[-83.901,40.89113],[-83.9013,40.8909],[-83.90162,40.89047],[-83.90183,40.89021],[-83.90219,40.88937],[-83.90198,40.88891],[-83.90197,40.88844],[-83.90199,40.88842],[-83.90255,40.888],[-83.90297,40.88767],[-83.9031,40.88744],[-83.90338,40.88723],[-83.90357,40.8871],[-83.90403,40.88663],[-83.90461,40.88648],[-83.90526,40.88632],[-83.90535,40.88585],[-83.90558,40.88559],[-83.90577,40.88538],[-83.90525,40.88498],[-83.90535,40.8849],[-83.90564,40.88468],[-83.90619,40.88426],[-83.90625,40.88421],[-83.9068,40.88379],[-83.907,40.88371],[-83.90777,40.88339],[-83.90804,40.8836],[-83.90815,40.88356],[-83.90823,40.88353],[-83.90829,40.8835],[-83.90838,40.88348],[-83.9085,40.88349],[-83.90857,40.8835],[-83.90867,40.88354],[-83.90877,40.88359],[-83.90881,40.8836],[-83.90889,40.88362],[-83.90898,40.88362],[-83.90903,40.88363],[-83.90911,40.88363],[-83.90919,40.88362],[-83.9093,40.88362],[-83.90941,40.88361],[-83.90948,40.88361],[-83.90953,40.88361],[-83.90961,40.88361],[-83.90972,40.8836],[-83.90978,40.88359],[-83.90985,40.88358],[-83.90989,40.88357],[-83.90993,40.88353],[-83.90821,40.88222],[-83.90855,40.88195],[-83.90921,40.88246],[-83.9097,40.88209],[-83.90905,40.88159],[-83.9083,40.88101],[-83.90866,40.88074],[-83.909,40.88048],[-83.90908,40.88042],[-83.90763,40.87932],[-83.90704,40.87971],[-83.90649,40.87929],[-83.90236,40.88196],[-83.90067,40.88305],[-83.90038,40.88324],[-83.89984,40.88359],[-83.89984,40.88349],[-83.89984,40.88343],[-83.89984,40.88302],[-83.89984,40.88287],[-83.89983,40.88265],[-83.89983,40.88238],[-83.89981,40.88105],[-83.89983,40.88076],[-83.90006,40.88075],[-83.90178,40.88069],[-83.90195,40.88064],[-83.90205,40.88057],[-83.90267,40.88016],[-83.90302,40.88008],[-83.90344,40.8799],[-83.90362,40.87981],[-83.90383,40.87969],[-83.90416,40.87949],[-83.90481,40.87904],[-83.9048,40.87899],[-83.90476,40.87773],[-83.90461,40.87773],[-83.9046,40.87595],[-83.8998,40.87603],[-83.89981,40.87619],[-83.89981,40.87675],[-83.89982,40.87688],[-83.89887,40.87686],[-83.89887,40.8773],[-83.89829,40.87728],[-83.89817,40.87728],[-83.89818,40.87775],[-83.89448,40.87758],[-83.89382,40.87755],[-83.8914,40.87744],[-83.89041,40.87739],[-83.89011,40.87738],[-83.89023,40.88012],[-83.89025,40.8818],[-83.8889,40.88178],[-83.88153,40.88154],[-83.8803,40.88154],[-83.8803,40.88142],[-83.8803,40.88103],[-83.8803,40.88008],[-83.8803,40.88006],[-83.8803,40.87984],[-83.88029,40.87885],[-83.88029,40.87836],[-83.88028,40.87794],[-83.87686,40.87795],[-83.87425,40.87795],[-83.87336,40.87795],[-83.87235,40.87796],[-83.86968,40.87796],[-83.86773,40.87798],[-83.86679,40.87798],[-83.86678,40.87962],[-83.8667,40.88528],[-83.8619,40.8853],[-83.8619,40.88548],[-83.86192,40.88638],[-83.86191,40.88667],[-83.86191,40.88686],[-83.86191,40.88715],[-83.86173,40.88714],[-83.85721,40.88709],[-83.85723,40.89191],[-83.85724,40.89228],[-83.85724,40.89252],[-83.85742,40.89252],[-83.85759,40.89252],[-83.85759,40.89163],[-83.86195,40.89168],[-83.86195,40.89185],[-83.86194,40.89257],[-83.86239,40.89257],[-83.86293,40.89256],[-83.86458,40.89254],[-83.86477,40.89254],[-83.86491,40.89229],[-83.86502,40.89211],[-83.86515,40.8919],[-83.86517,40.89189],[-83.86617,40.89166],[-83.86772,40.89131],[-83.86808,40.8911],[-83.86832,40.89096],[-83.86878,40.8907],[-83.86942,40.8902],[-83.87006,40.8897],[-83.87043,40.88941],[-83.87085,40.88909],[-83.87125,40.88902],[-83.87271,40.88787],[-83.87321,40.88749],[-83.87337,40.88737],[-83.87355,40.88724],[-83.87386,40.88702],[-83.87417,40.88682],[-83.8745,40.88662],[-83.87487,40.88641],[-83.87521,40.88622],[-83.87556,40.88605],[-83.87591,40.88588],[-83.87626,40.88572],[-83.87663,40.88557],[-83.877,40.88542],[-83.87737,40.88529],[-83.87769,40.88518],[-83.87808,40.88506],[-83.87847,40.88495],[-83.87892,40.88483],[-83.87967,40.88466],[-83.88014,40.88458],[-83.88031,40.88455],[-83.88031,40.88476],[-83.88031,40.88493],[-83.8803,40.88525],[-83.87913,40.88525],[-83.87893,40.88525],[-83.87849,40.88537],[-83.87827,40.88543],[-83.87809,40.88548],[-83.87762,40.88563],[-83.87712,40.88581],[-83.87699,40.88586],[-83.87617,40.8862],[-83.87578,40.88639],[-83.8752,40.88669],[-83.87483,40.8869],[-83.87436,40.88719],[-83.87394,40.88753],[-83.87108,40.88983],[-83.87016,40.8907],[-83.86957,40.89202],[-83.86946,40.89228],[-83.86942,40.89247],[-83.86938,40.89268],[-83.86885,40.89317],[-83.86773,40.8934],[-83.86753,40.89345],[-83.86735,40.89348],[-83.86672,40.89362],[-83.8667,40.89608],[-83.87236,40.89601],[-83.87384,40.89605],[-83.8773,40.89622],[-83.87923,40.89634],[-83.87932,40.89634],[-83.87941,40.89632],[-83.87947,40.89631],[-83.87953,40.8963],[-83.87959,40.89629],[-83.87968,40.89627],[-83.87978,40.89624],[-83.87986,40.89621],[-83.87997,40.89617],[-83.88009,40.89611],[-83.88018,40.89605],[-83.88037,40.89593],[-83.88037,40.89598],[-83.88037,40.89612],[-83.88037,40.89629],[-83.88037,40.89643],[-83.88037,40.89664],[-83.88038,40.89864],[-83.88038,40.89876],[-83.88038,40.89886],[-83.88281,40.89947],[-83.88039,40.90128],[-83.88039,40.90122],[-83.88039,40.89966],[-83.88007,40.89967],[-83.87916,40.89967],[-83.8791,40.89967],[-83.87702,40.8997],[-83.87583,40.89972],[-83.87515,40.89973],[-83.875,40.89973],[-83.87293,40.90106],[-83.87293,40.90113],[-83.87296,40.9019],[-83.87297,40.90227],[-83.87948,40.90221],[-83.87954,40.90217],[-83.88013,40.90217],[-83.88039,40.90195],[-83.8804,40.90263],[-83.8804,40.90466],[-83.8804,40.9052],[-83.8804,40.90591],[-83.88425,40.90592],[-83.89007,40.90594],[-83.89012,40.90589],[-83.89015,40.90587],[-83.8902,40.90584],[-83.89027,40.9058],[-83.89031,40.90577],[-83.89032,40.90575],[-83.89032,40.90553],[-83.89032,40.90531],[-83.89031,40.90509],[-83.89032,40.9049],[-83.89032,40.90468],[-83.89032,40.90444],[-83.89032,40.90425],[-83.89032,40.90417],[-83.89031,40.90409],[-83.89031,40.9038],[-83.89028,40.90362],[-83.89028,40.90358],[-83.89029,40.90302],[-83.89029,40.90288],[-83.89029,40.90284],[-83.89029,40.90279],[-83.8903,40.90272],[-83.89007,40.90222],[-83.88969,40.90136],[-83.89,40.90148],[-83.8903,40.9021],[-83.8903,40.90205],[-83.8903,40.90202],[-83.8903,40.90195],[-83.8903,40.9018],[-83.89028,40.9016],[-83.89028,40.90158],[-83.89215,40.90153],[-83.8927,40.90151],[-83.8928,40.90151],[-83.89308,40.90172],[-83.89352,40.90225],[-83.8942,40.90307],[-83.8943,40.90319],[-83.89417,40.90338],[-83.89411,40.90347],[-83.8939,40.90376],[-83.89371,40.90399],[-83.89359,40.90454],[-83.89379,40.90484],[-83.89419,40.90521],[-83.89438,40.90525],[-83.89461,40.90547],[-83.8949,40.90574],[-83.8949,40.90575],[-83.8949,40.90586],[-83.90022,40.90585],[-83.90022,40.90574],[-83.90022,40.90562],[-83.90022,40.9054],[-83.90021,40.90518],[-83.90021,40.90513],[-83.90021,40.90487],[-83.90021,40.90471],[-83.9002,40.90448],[-83.9002,40.90425],[-83.90021,40.90406],[-83.9002,40.90391],[-83.90019,40.90358],[-83.90018,40.90342],[-83.90018,40.90318],[-83.90017,40.90273],[-83.90017,40.90265],[-83.9014,40.90263],[-83.90487,40.90261],[-83.90501,40.90261],[-83.90636,40.90262],[-83.90652,40.90261],[-83.9096,40.90258],[-83.9096,40.90576],[-83.90989,40.90572],[-83.90996,40.90572],[-83.91006,40.90572],[-83.9144,40.90567],[-83.91437,40.90448],[-83.91429,40.89936],[-83.91434,40.89936],[-83.91448,40.89936],[-83.91708,40.89931],[-83.9192,40.89928]]]}},{"type":"Feature","properties":{"GEOID":"3910884","NAME":"Cairo village","BASENAME":"Cairo","LSADC":"47","AREALAND":"717434","CENTLAT":"+40.8307525","CENTLON":"-084.0844887"},"geometry":{"type":"Polygon","coordinates":[[[-84.09318,40.83192],[-84.09318,40.83163],[-84.09318,40.83159],[-84.09303,40.83156],[-84.09213,40.83141],[-84.09213,40.83098],[-84.09118,40.83074],[-84.09124,40.8306],[-84.09131,40.83044],[-84.09161,40.82976],[-84.0918,40.82932],[-84.09216,40.82848],[-84.09225,40.82829],[-84.09127,40.82828],[-84.09025,40.82829],[-84.08902,40.82829],[-84.0885,40.8283],[-84.08796,40.8283],[-84.08252,40.82832],[-84.08226,40.82832],[-84.08255,40.82718],[-84.0826,40.82698],[-84.08242,40.82699],[-84.08177,40.82699],[-84.07996,40.827],[-84.07829,40.82701],[-84.0783,40.83019],[-84.07834,40.83098],[-84.07835,40.83142],[-84.07768,40.83149],[-84.07747,40.83149],[-84.07748,40.83197],[-84.07748,40.832],[-84.07747,40.83201],[-84.07748,40.83203],[-84.07745,40.83202],[-84.07743,40.83202],[-84.07743,40.83208],[-84.07743,40.83217],[-84.07743,40.83259],[-84.07761,40.83259],[-84.07823,40.83259],[-84.07823,40.8326],[-84.07823,40.8328],[-84.07823,40.83314],[-84.07866,40.83313],[-84.07893,40.83313],[-84.07983,40.83313],[-84.07998,40.83313],[-84.08077,40.83312],[-84.08098,40.83312],[-84.08007,40.83641],[-84.07929,40.83925],[-84.07947,40.83925],[-84.07998,40.83737],[-84.08041,40.83609],[-84.0806,40.83588],[-84.08129,40.83514],[-84.08134,40.83509],[-84.08161,40.83481],[-84.0819,40.83453],[-84.08208,40.83437],[-84.08224,40.8342],[-84.0824,40.83402],[-84.08247,40.83409],[-84.08256,40.83415],[-84.08267,40.83419],[-84.08292,40.83433],[-84.08297,40.83438],[-84.08297,40.83311],[-84.08633,40.83308],[-84.08954,40.83306],[-84.09014,40.83306],[-84.09024,40.83286],[-84.09032,40.83289],[-84.09215,40.83336],[-84.09214,40.83306],[-84.09213,40.83266],[-84.09212,40.83229],[-84.09211,40.83193],[-84.09262,40.83193],[-84.09318,40.83192]]]}},{"type":"Feature","properties":{"GEOID":"3919400","NAME":"Cridersville village","BASENAME":"Cridersville","LSADC":"47","AREALAND":"2679061","CENTLAT":"+40.6509001","CENTLON":"-084.1427491"},"geometry":{"type":"Polygon","coordinates":[[[-84.16224,40.65153],[-84.16223,40.65126],[-84.16222,40.65097],[-84.16222,40.65067],[-84.16221,40.65043],[-84.1622,40.64993],[-84.16198,40.64994],[-84.16134,40.64994],[-84.16064,40.64994],[-84.15997,40.64995],[-84.15901,40.64995],[-84.15808,40.64996],[-84.15798,40.64934],[-84.15794,40.64904],[-84.1579,40.64891],[-84.15768,40.6488],[-84.15708,40.64855],[-84.15696,40.6485],[-84.15693,40.64269],[-84.15554,40.6427],[-84.15079,40.64275],[-84.15069,40.64275],[-84.14945,40.64492],[-84.14862,40.64639],[-84.14789,40.64766],[-84.14652,40.65008],[-84.14631,40.65009],[-84.13717,40.65017],[-84.13707,40.65017],[-84.13648,40.65017],[-84.13648,40.65014],[-84.13646,40.64817],[-84.13643,40.64817],[-84.13395,40.64822],[-84.13394,40.64814],[-84.13394,40.64802],[-84.13394,40.64799],[-84.13394,40.64775],[-84.13394,40.64773],[-84.13142,40.64776],[-84.13142,40.64772],[-84.13141,40.64717],[-84.13142,40.64706],[-84.13142,40.64652],[-84.13142,40.64613],[-84.13141,40.64534],[-84.13141,40.64496],[-84.1314,40.64418],[-84.1314,40.64378],[-84.13142,40.64341],[-84.13145,40.64301],[-84.13146,40.64293],[-84.13131,40.64295],[-84.13116,40.64295],[-84.12685,40.64298],[-84.12685,40.64353],[-84.12692,40.65394],[-84.12692,40.65456],[-84.12727,40.65455],[-84.12773,40.65454],[-84.12824,40.65453],[-84.12934,40.65451],[-84.12944,40.65451],[-84.1309,40.65451],[-84.1312,40.65451],[-84.13149,40.6545],[-84.13255,40.65448],[-84.13401,40.65444],[-84.13404,40.65581],[-84.13405,40.65656],[-84.13417,40.65656],[-84.13421,40.65656],[-84.13467,40.65657],[-84.1348,40.65657],[-84.13508,40.65658],[-84.13509,40.65738],[-84.13509,40.65745],[-84.13581,40.65745],[-84.13649,40.65744],[-84.13741,40.65743],[-84.1375,40.65743],[-84.13759,40.65743],[-84.13846,40.65743],[-84.13964,40.65742],[-84.14043,40.65741],[-84.14127,40.65741],[-84.14215,40.6574],[-84.14388,40.65739],[-84.14471,40.65738],[-84.14513,40.65738],[-84.14562,40.65737],[-84.14612,40.65737],[-84.14617,40.65737],[-84.14732,40.65736],[-84.14766,40.65735],[-84.14792,40.65735],[-84.14817,40.65735],[-84.14842,40.65735],[-84.14893,40.65734],[-84.14943,40.65734],[-84.14968,40.65733],[-84.14997,40.65733],[-84.15013,40.65733],[-84.15088,40.65731],[-84.15223,40.65729],[-84.15223,40.65407],[-84.15289,40.65405],[-84.1533,40.65404],[-84.1533,40.65361],[-84.15331,40.65318],[-84.1532,40.65319],[-84.15321,40.65286],[-84.15323,40.65235],[-84.15343,40.65235],[-84.15333,40.64999],[-84.15559,40.64997],[-84.15559,40.65043],[-84.15559,40.65054],[-84.15559,40.65084],[-84.15559,40.65113],[-84.15559,40.65141],[-84.1556,40.65169],[-84.1556,40.65196],[-84.15615,40.65195],[-84.15624,40.65195],[-84.15624,40.65203],[-84.15625,40.65226],[-84.15677,40.65224],[-84.15683,40.65224],[-84.1571,40.65224],[-84.15726,40.65223],[-84.1575,40.65223],[-84.15773,40.65222],[-84.15789,40.65222],[-84.15816,40.65221],[-84.15852,40.6522],[-84.15851,40.65191],[-84.1585,40.65182],[-84.15864,40.65181],[-84.15866,40.65181],[-84.15867,40.65177],[-84.15869,40.65164],[-84.15873,40.65142],[-84.15902,40.65144],[-84.15908,40.65146],[-84.15939,40.65154],[-84.15954,40.65161],[-84.15966,40.65167],[-84.16007,40.65146],[-84.16011,40.65151],[-84.16016,40.65158],[-84.16063,40.65157],[-84.16068,40.65165],[-84.1612,40.65163],[-84.16163,40.65162],[-84.16163,40.65155],[-84.16224,40.65153]]]}},{"type":"Feature","properties":{"GEOID":"3921602","NAME":"Delphos city","BASENAME":"Delphos","LSADC":"25","AREALAND":"8604113","CENTLAT":"+40.8463953","CENTLON":"-084.3367431"},"geometry":{"type":"MultiPolygon","coordinates":[[[[-84.3559,40.85227],[-84.3559,40.84944],[-84.35588,40.84944],[-84.35588,40.84941],[-84.35497,40.84942],[-84.35497,40.84837],[-84.35497,40.84713],[-84.35497,40.84704],[-84.35491,40.84704],[-84.35453,40.84704],[-84.35449,40.84704],[-84.35448,40.8475],[-84.35414,40.8475],[-84.35399,40.8475],[-84.35398,40.84814],[-84.35315,40.84814],[-84.35316,40.84705],[-84.35333,40.84705],[-84.35335,40.84658],[-84.35306,40.84658],[-84.35304,40.84705],[-84.35276,40.84705],[-84.35251,40.84706],[-84.35198,40.84706],[-84.35133,40.84706],[-84.35065,40.84706],[-84.35056,40.84706],[-84.35066,40.847],[-84.35134,40.84653],[-84.35148,40.84634],[-84.35149,40.84583],[-84.3514,40.84583],[-84.35146,40.84551],[-84.35161,40.84534],[-84.3519,40.84515],[-84.35204,40.8451],[-84.35209,40.84508],[-84.35229,40.845],[-84.35234,40.84486],[-84.35243,40.8446],[-84.35245,40.84455],[-84.3525,40.84439],[-84.35253,40.84427],[-84.35253,40.84423],[-84.35254,40.844],[-84.35254,40.84394],[-84.35255,40.84372],[-84.35256,40.84367],[-84.35259,40.84356],[-84.35256,40.84276],[-84.35258,40.84269],[-84.3526,40.84258],[-84.35267,40.84259],[-84.35264,40.84255],[-84.35261,40.84252],[-84.35256,40.84249],[-84.3525,40.84246],[-84.35239,40.84241],[-84.35227,40.84234],[-84.35216,40.84229],[-84.35191,40.84215],[-84.35172,40.84199],[-84.35163,40.8419],[-84.35158,40.8418],[-84.35155,40.84174],[-84.35153,40.8417],[-84.35151,40.84164],[-84.35149,40.84158],[-84.35145,40.84152],[-84.35134,40.84136],[-84.35131,40.84131],[-84.35074,40.8406],[-84.35059,40.84042],[-84.35048,40.84032],[-84.35036,40.84029],[-84.35017,40.84024],[-84.35015,40.84025],[-84.34997,40.84032],[-84.34979,40.84038],[-84.3496,40.84044],[-84.34943,40.8405],[-84.34922,40.84055],[-84.34923,40.84024],[-84.34918,40.84024],[-84.34883,40.84026],[-84.34868,40.84025],[-84.34858,40.84023],[-84.34852,40.8402],[-84.34849,40.84018],[-84.34845,40.84014],[-84.34842,40.8401],[-84.34838,40.84004],[-84.34833,40.83994],[-84.34825,40.83979],[-84.34779,40.83896],[-84.34751,40.83851],[-84.34743,40.83838],[-84.34742,40.83826],[-84.34746,40.83816],[-84.34751,40.83808],[-84.34755,40.83801],[-84.34764,40.83789],[-84.34775,40.83777],[-84.34787,40.83768],[-84.34799,40.83761],[-84.34815,40.83754],[-84.34833,40.83746],[-84.34842,40.83742],[-84.34851,40.8374],[-84.34865,40.83738],[-84.34878,40.83736],[-84.34889,40.83733],[-84.34898,40.83729],[-84.34914,40.83718],[-84.34922,40.8371],[-84.34929,40.83697],[-84.34932,40.83691],[-84.34952,40.83672],[-84.34993,40.8362],[-84.35038,40.83562],[-84.35118,40.83527],[-84.35167,40.83506],[-84.35259,40.83485],[-84.3527,40.83479],[-84.35327,40.83448],[-84.35329,40.83447],[-84.35331,40.83444],[-84.35339,40.83421],[-84.35341,40.83419],[-84.35344,40.83419],[-84.35346,40.83417],[-84.35354,40.83417],[-84.35389,40.83416],[-84.3547,40.83416],[-84.35468,40.83302],[-84.35465,40.83142],[-84.35464,40.83057],[-84.35464,40.83021],[-84.35464,40.82973],[-84.35465,40.82719],[-84.35415,40.82719],[-84.35409,40.82719],[-84.35365,40.82718],[-84.35356,40.82697],[-84.35377,40.82642],[-84.3538,40.82642],[-84.35382,40.82632],[-84.35403,40.82618],[-84.35404,40.82617],[-84.35412,40.82609],[-84.35415,40.82592],[-84.35415,40.82588],[-84.35415,40.82587],[-84.35414,40.82582],[-84.35412,40.82583],[-84.35396,40.82589],[-84.35244,40.82652],[-84.3523,40.82652],[-84.3525,40.82681],[-84.35275,40.82719],[-84.3519,40.82719],[-84.35084,40.8272],[-84.35028,40.8272],[-84.34989,40.8272],[-84.34937,40.82721],[-84.34912,40.82721],[-84.3487,40.82721],[-84.34734,40.82722],[-84.34738,40.82862],[-84.34739,40.82885],[-84.34739,40.82892],[-84.34594,40.82892],[-84.34595,40.82984],[-84.34595,40.83012],[-84.34595,40.8302],[-84.34596,40.83028],[-84.34596,40.83037],[-84.34616,40.83037],[-84.34616,40.8313],[-84.34402,40.83131],[-84.34402,40.83121],[-84.34357,40.83121],[-84.34358,40.83031],[-84.34358,40.83007],[-84.34357,40.82934],[-84.34356,40.82894],[-84.34031,40.82895],[-84.34025,40.82895],[-84.34025,40.82885],[-84.34025,40.82875],[-84.34025,40.82838],[-84.33504,40.82842],[-84.33503,40.82884],[-84.33504,40.82967],[-84.33313,40.82969],[-84.33313,40.83045],[-84.33313,40.83062],[-84.33314,40.83107],[-84.33311,40.83206],[-84.3331,40.83367],[-84.32998,40.83364],[-84.32959,40.83364],[-84.32958,40.83063],[-84.32859,40.83062],[-84.32607,40.8306],[-84.32606,40.83085],[-84.32605,40.83286],[-84.32603,40.83456],[-84.32602,40.83519],[-84.326,40.8377],[-84.32671,40.8377],[-84.32955,40.83769],[-84.32954,40.83834],[-84.32954,40.8385],[-84.32954,40.83901],[-84.32953,40.8396],[-84.32901,40.83959],[-84.32899,40.84079],[-84.32922,40.84079],[-84.32952,40.84079],[-84.32951,40.84116],[-84.32954,40.84162],[-84.32955,40.84166],[-84.32955,40.84177],[-84.32828,40.84161],[-84.32789,40.84155],[-84.32743,40.84148],[-84.32707,40.8414],[-84.32673,40.84133],[-84.32604,40.84118],[-84.32499,40.84096],[-84.32498,40.84116],[-84.32498,40.8414],[-84.32401,40.84094],[-84.32401,40.84098],[-84.32401,40.8411],[-84.32401,40.84111],[-84.32406,40.84227],[-84.32406,40.84228],[-84.32389,40.84227],[-84.32385,40.8429],[-84.32387,40.84346],[-84.32386,40.84417],[-84.32386,40.84426],[-84.32386,40.84441],[-84.32219,40.84442],[-84.32219,40.84486],[-84.32219,40.84497],[-84.32209,40.84497],[-84.32154,40.84498],[-84.32116,40.84499],[-84.32,40.845],[-84.32,40.84456],[-84.32,40.84423],[-84.31564,40.84427],[-84.31564,40.84503],[-84.31482,40.84504],[-84.31483,40.84532],[-84.31483,40.84586],[-84.31484,40.84685],[-84.31405,40.84686],[-84.31397,40.84686],[-84.31332,40.84687],[-84.31276,40.84688],[-84.31218,40.84688],[-84.31219,40.84732],[-84.3106,40.84735],[-84.30989,40.84738],[-84.31001,40.84797],[-84.31025,40.84842],[-84.31051,40.8487],[-84.31129,40.84956],[-84.31185,40.85009],[-84.31323,40.85141],[-84.31413,40.85227],[-84.31371,40.85227],[-84.31358,40.85227],[-84.31317,40.85228],[-84.31256,40.85227],[-84.31292,40.85259],[-84.31301,40.8526],[-84.31302,40.85389],[-84.31303,40.85576],[-84.31405,40.85577],[-84.31415,40.85577],[-84.31416,40.85628],[-84.31302,40.85628],[-84.31307,40.85943],[-84.31401,40.85941],[-84.31426,40.85941],[-84.31501,40.8594],[-84.32027,40.85934],[-84.31875,40.85793],[-84.3179,40.85714],[-84.3174,40.85667],[-84.3179,40.85667],[-84.31806,40.85667],[-84.31832,40.85666],[-84.31877,40.85666],[-84.31936,40.85717],[-84.31956,40.85734],[-84.31975,40.85751],[-84.32076,40.85751],[-84.32171,40.85751],[-84.32172,40.85767],[-84.32173,40.85823],[-84.32175,40.85921],[-84.32317,40.85922],[-84.32318,40.85941],[-84.32896,40.85934],[-84.32959,40.85933],[-84.32962,40.85933],[-84.32962,40.8593],[-84.3296,40.85907],[-84.32869,40.85908],[-84.32868,40.85883],[-84.32866,40.85811],[-84.32865,40.85798],[-84.32958,40.85797],[-84.32958,40.8577],[-84.32866,40.85771],[-84.32865,40.85716],[-84.32879,40.85716],[-84.32956,40.85717],[-84.32957,40.85724],[-84.33053,40.85722],[-84.33051,40.85717],[-84.33047,40.85711],[-84.33044,40.85707],[-84.33035,40.85692],[-84.32956,40.85695],[-84.32956,40.85684],[-84.32956,40.85674],[-84.32952,40.85531],[-84.32953,40.85425],[-84.32972,40.85404],[-84.3307,40.85291],[-84.33136,40.85215],[-84.33141,40.85197],[-84.33145,40.85189],[-84.33166,40.85122],[-84.3317,40.85106],[-84.3317,40.85104],[-84.33197,40.85104],[-84.33198,40.85122],[-84.33198,40.85208],[-84.33221,40.85208],[-84.33241,40.85207],[-84.33319,40.85206],[-84.33473,40.85204],[-84.33512,40.85203],[-84.3354,40.85203],[-84.33586,40.85202],[-84.33719,40.852],[-84.33719,40.85209],[-84.33719,40.85219],[-84.3372,40.8526],[-84.3372,40.85307],[-84.33721,40.85384],[-84.33721,40.85387],[-84.33716,40.85482],[-84.3374,40.85482],[-84.33781,40.85481],[-84.33781,40.85491],[-84.33781,40.85506],[-84.33781,40.85514],[-84.33781,40.85567],[-84.33782,40.85575],[-84.33651,40.85577],[-84.33512,40.85579],[-84.33515,40.85803],[-84.33516,40.85906],[-84.33437,40.85908],[-84.33437,40.85919],[-84.33692,40.85913],[-84.33831,40.85911],[-84.33887,40.85911],[-84.33912,40.85911],[-84.33941,40.85911],[-84.33983,40.85911],[-84.34036,40.8591],[-84.34053,40.8591],[-84.34057,40.85978],[-84.34177,40.85977],[-84.3422,40.85977],[-84.34242,40.85963],[-84.3426,40.85951],[-84.34284,40.85926],[-84.34284,40.85899],[-84.34258,40.85861],[-84.34281,40.85822],[-84.34257,40.85779],[-84.34246,40.85702],[-84.34254,40.85678],[-84.34271,40.85655],[-84.34295,40.8565],[-84.34344,40.85661],[-84.34334,40.85687],[-84.34316,40.85732],[-84.34318,40.85976],[-84.34319,40.86247],[-84.34703,40.86243],[-84.34702,40.85981],[-84.34698,40.8597],[-84.3467,40.8597],[-84.34547,40.85973],[-84.34465,40.85974],[-84.34461,40.85974],[-84.34461,40.85912],[-84.34436,40.85913],[-84.34405,40.85913],[-84.34405,40.85926],[-84.34375,40.85975],[-84.34369,40.85975],[-84.34363,40.85975],[-84.34334,40.85976],[-84.34331,40.85976],[-84.3433,40.85737],[-84.3433,40.85733],[-84.34355,40.85669],[-84.34359,40.85659],[-84.3438,40.85649],[-84.3439,40.85637],[-84.34397,40.85613],[-84.34419,40.85592],[-84.3444,40.85584],[-84.34453,40.85591],[-84.34461,40.85596],[-84.34477,40.85604],[-84.34498,40.85615],[-84.34505,40.85619],[-84.3452,40.85599],[-84.34528,40.85593],[-84.34535,40.85588],[-84.3456,40.85571],[-84.3462,40.85559],[-84.34625,40.85559],[-84.34629,40.8556],[-84.34661,40.85565],[-84.34691,40.8557],[-84.34693,40.8557],[-84.34701,40.85568],[-84.34719,40.85562],[-84.3472,40.85547],[-84.34722,40.85509],[-84.34728,40.85504],[-84.34733,40.85501],[-84.34735,40.85499],[-84.34743,40.8549],[-84.34756,40.85484],[-84.34764,40.85479],[-84.3477,40.85475],[-84.34781,40.85468],[-84.34787,40.85464],[-84.348,40.85456],[-84.34828,40.85434],[-84.34853,40.8541],[-84.34864,40.854],[-84.34883,40.85382],[-84.34885,40.8538],[-84.34877,40.8537],[-84.34875,40.85366],[-84.34872,40.85362],[-84.34857,40.85354],[-84.34866,40.85334],[-84.34873,40.85335],[-84.34923,40.85337],[-84.3495,40.85323],[-84.34953,40.85314],[-84.34958,40.85299],[-84.34966,40.85277],[-84.34959,40.85255],[-84.34956,40.85245],[-84.34953,40.85237],[-84.34956,40.85237],[-84.34969,40.85238],[-84.34979,40.85237],[-84.3499,40.85237],[-84.34997,40.85237],[-84.35004,40.85236],[-84.35009,40.85236],[-84.35016,40.85236],[-84.35024,40.85236],[-84.35176,40.85233],[-84.35323,40.85231],[-84.3533,40.8523],[-84.3559,40.85227]]],[[[-84.36965,40.88282],[-84.36965,40.88279],[-84.36963,40.88273],[-84.3696,40.88266],[-84.36956,40.88259],[-84.36949,40.8825],[-84.36934,40.88233],[-84.36918,40.88215],[-84.36909,40.88204],[-84.36901,40.88193],[-84.36895,40.88182],[-84.36887,40.88166],[-84.36871,40.8813],[-84.36866,40.88121],[-84.36862,40.88121],[-84.3686,40.88116],[-84.36864,40.88116],[-84.3687,40.88116],[-84.36902,40.88116],[-84.36958,40.88116],[-84.36958,40.88094],[-84.36956,40.87923],[-84.36954,40.87783],[-84.36956,40.87755],[-84.3691,40.87755],[-84.36882,40.87754],[-84.36882,40.87756],[-84.36862,40.87756],[-84.36788,40.87756],[-84.36525,40.87757],[-84.35994,40.87758],[-84.35925,40.8776],[-84.35891,40.87761],[-84.35891,40.87768],[-84.35994,40.87765],[-84.36,40.88118],[-84.36235,40.88117],[-84.36646,40.88117],[-84.36647,40.88282],[-84.36965,40.88282]]]]}},{"type":"Feature","properties":{"GEOID":"3924808","NAME":"Elida village","BASENAME":"Elida","LSADC":"47","AREALAND":"2854260","CENTLAT":"+40.7867491","CENTLON":"-084.1996246"},"geometry":{"type":"Polygon","coordinates":[[[-84.21674,40.79389],[-84.21674,40.79383],[-84.21674,40.79377],[-84.21673,40.79371],[-84.21672,40.79368],[-84.21667,40.79361],[-84.21663,40.79357],[-84.21657,40.79351],[-84.21649,40.79346],[-84.21635,40.7934],[-84.21542,40.79308],[-84.21555,40.79194],[-84.21527,40.79182],[-84.21451,40.79146],[-84.21428,40.79135],[-84.2141,40.79127],[-84.21366,40.79107],[-84.21327,40.7909],[-84.21382,40.79089],[-84.21414,40.79089],[-84.21469,40.79114],[-84.21524,40.79139],[-84.21537,40.79144],[-84.21513,40.79103],[-84.21511,40.79101],[-84.2151,40.79098],[-84.21508,40.79097],[-84.21506,40.79095],[-84.21504,40.79093],[-84.21503,40.79091],[-84.215,40.7909],[-84.21497,40.79087],[-84.21494,40.79084],[-84.21476,40.79072],[-84.21466,40.79065],[-84.21458,40.79057],[-84.21451,40.79049],[-84.21442,40.79038],[-84.21421,40.79011],[-84.21415,40.79003],[-84.21412,40.78999],[-84.21403,40.7899],[-84.21398,40.78985],[-84.2139,40.78978],[-84.21382,40.78969],[-84.21371,40.78956],[-84.21361,40.78943],[-84.21356,40.78936],[-84.21344,40.78916],[-84.21328,40.78911],[-84.21293,40.78901],[-84.21255,40.7889],[-84.21209,40.78842],[-84.21179,40.78817],[-84.21157,40.78791],[-84.21156,40.7879],[-84.21153,40.7879],[-84.21119,40.78741],[-84.21045,40.78632],[-84.20866,40.78371],[-84.2063,40.78373],[-84.20556,40.78373],[-84.20363,40.78375],[-84.20363,40.78344],[-84.20362,40.78293],[-84.20361,40.78257],[-84.20361,40.78207],[-84.2036,40.78128],[-84.2,40.78128],[-84.19895,40.78129],[-84.19895,40.78052],[-84.19895,40.78013],[-84.19835,40.78014],[-84.19707,40.78015],[-84.19421,40.78021],[-84.19402,40.78022],[-84.194,40.77953],[-84.19391,40.77697],[-84.19388,40.776],[-84.19377,40.776],[-84.19367,40.776],[-84.19349,40.77599],[-84.19282,40.77597],[-84.19206,40.77594],[-84.19066,40.77589],[-84.19009,40.77587],[-84.18963,40.77586],[-84.18928,40.77586],[-84.18928,40.77607],[-84.18928,40.77626],[-84.18928,40.77673],[-84.18911,40.77673],[-84.18867,40.77673],[-84.18596,40.77676],[-84.18531,40.77676],[-84.18452,40.77676],[-84.18452,40.77722],[-84.18452,40.77733],[-84.18451,40.77763],[-84.18654,40.77854],[-84.18815,40.77928],[-84.18936,40.77982],[-84.18959,40.77993],[-84.18947,40.78012],[-84.18926,40.78002],[-84.18716,40.77906],[-84.18679,40.77888],[-84.18616,40.77862],[-84.18519,40.77819],[-84.18493,40.77808],[-84.18451,40.77788],[-84.18451,40.7781],[-84.18449,40.77928],[-84.18449,40.77942],[-84.18449,40.77957],[-84.18449,40.77968],[-84.18478,40.77982],[-84.18518,40.78002],[-84.1855,40.78017],[-84.18579,40.7803],[-84.18614,40.78046],[-84.18663,40.78069],[-84.18691,40.78083],[-84.18837,40.78149],[-84.18878,40.78168],[-84.18906,40.78181],[-84.18934,40.78193],[-84.18932,40.78217],[-84.18932,40.78239],[-84.18932,40.78264],[-84.18932,40.78289],[-84.18932,40.78323],[-84.18932,40.78339],[-84.18932,40.7838],[-84.18932,40.78424],[-84.18932,40.78506],[-84.18933,40.78548],[-84.18933,40.7857],[-84.18933,40.78609],[-84.18934,40.78629],[-84.18934,40.78678],[-84.18934,40.78713],[-84.18935,40.78745],[-84.19001,40.78745],[-84.19011,40.78745],[-84.19027,40.78745],[-84.19027,40.78766],[-84.19028,40.78788],[-84.18936,40.78789],[-84.18937,40.7889],[-84.18937,40.78919],[-84.18936,40.78939],[-84.18937,40.78962],[-84.18937,40.78995],[-84.18937,40.79012],[-84.18938,40.79032],[-84.18937,40.79053],[-84.18938,40.79094],[-84.18937,40.79098],[-84.18937,40.79105],[-84.19407,40.79101],[-84.19407,40.79123],[-84.19408,40.79144],[-84.19412,40.79459],[-84.19467,40.79459],[-84.19467,40.79468],[-84.20197,40.79466],[-84.20238,40.79465],[-84.20271,40.79463],[-84.20272,40.7945],[-84.20305,40.7945],[-84.20305,40.79412],[-84.20368,40.79411],[-84.20378,40.79411],[-84.20378,40.79397],[-84.20368,40.79397],[-84.20304,40.79398],[-84.20304,40.79356],[-84.20367,40.79355],[-84.20378,40.79355],[-84.20389,40.79355],[-84.2051,40.79353],[-84.2051,40.79373],[-84.2051,40.79385],[-84.2052,40.79385],[-84.2052,40.79416],[-84.20521,40.7945],[-84.20564,40.7945],[-84.20613,40.7945],[-84.20632,40.7945],[-84.20651,40.7945],[-84.20689,40.7945],[-84.20727,40.79449],[-84.20765,40.79449],[-84.20803,40.79449],[-84.2085,40.79449],[-84.20901,40.79448],[-84.21127,40.79447],[-84.21139,40.79447],[-84.2114,40.79446],[-84.2114,40.79445],[-84.21141,40.79444],[-84.21141,40.79443],[-84.21142,40.79442],[-84.21142,40.79441],[-84.21143,40.7944],[-84.21144,40.79439],[-84.21144,40.79438],[-84.21145,40.79437],[-84.21146,40.79436],[-84.21147,40.79435],[-84.21148,40.79434],[-84.21148,40.79434],[-84.21149,40.79433],[-84.2115,40.79432],[-84.21151,40.79431],[-84.21152,40.7943],[-84.21153,40.79429],[-84.21153,40.79428],[-84.21154,40.79427],[-84.21155,40.79426],[-84.21156,40.79425],[-84.21157,40.79425],[-84.21158,40.79424],[-84.2116,40.79423],[-84.21161,40.79423],[-84.21162,40.79422],[-84.21163,40.79422],[-84.21165,40.79421],[-84.21166,40.7942],[-84.21167,40.7942],[-84.21168,40.79419],[-84.21169,40.79419],[-84.21171,40.79418],[-84.21172,40.79418],[-84.21173,40.79417],[-84.21175,40.79417],[-84.21176,40.79416],[-84.21177,40.79415],[-84.21178,40.79415],[-84.2118,40.79414],[-84.21181,40.79414],[-84.21182,40.79413],[-84.21184,40.79413],[-84.21185,40.79412],[-84.21186,40.79412],[-84.21188,40.79412],[-84.21189,40.79411],[-84.2119,40.79411],[-84.21192,40.7941],[-84.21193,40.7941],[-84.21194,40.7941],[-84.21196,40.7941],[-84.21197,40.7941],[-84.21199,40.79409],[-84.212,40.79409],[-84.21202,40.79409],[-84.21203,40.79409],[-84.21205,40.79409],[-84.21206,40.79409],[-84.21208,40.7941],[-84.21209,40.7941],[-84.21211,40.7941],[-84.21229,40.79415],[-84.21258,40.79429],[-84.21288,40.79444],[-84.21321,40.79462],[-84.21345,40.79474],[-84.21359,40.79478],[-84.21378,40.79483],[-84.214,40.79484],[-84.21417,40.79483],[-84.21445,40.79479],[-84.21463,40.79478],[-84.21496,40.79474],[-84.2153,40.79469],[-84.21565,40.79461],[-84.21586,40.79456],[-84.21603,40.7945],[-84.21614,40.79447],[-84.21627,40.79441],[-84.2164,40.79433],[-84.21652,40.79425],[-84.21658,40.79419],[-84.21663,40.79414],[-84.21666,40.7941],[-84.2167,40.79403],[-84.21672,40.79398],[-84.21673,40.79395],[-84.21674,40.79392],[-84.21674,40.79389]],[[-84.20301,40.79096],[-84.20303,40.79263],[-84.20267,40.79263],[-84.1988,40.79256],[-84.19818,40.79256],[-84.19816,40.79144],[-84.19772,40.79145],[-84.19759,40.79145],[-84.19759,40.79121],[-84.19759,40.79098],[-84.19815,40.79098],[-84.19816,40.79045],[-84.19879,40.79045],[-84.1988,40.79097],[-84.19947,40.79098],[-84.2,40.79098],[-84.2002,40.79097],[-84.20065,40.79097],[-84.20268,40.79096],[-84.20283,40.79096],[-84.20301,40.79096]],[[-84.19879,40.78909],[-84.1988,40.78926],[-84.19879,40.78984],[-84.19879,40.79032],[-84.19814,40.79033],[-84.19812,40.78886],[-84.19879,40.78886],[-84.19879,40.78891],[-84.19879,40.78909]],[[-84.19876,40.78743],[-84.19877,40.78797],[-84.19798,40.78799],[-84.19553,40.78801],[-84.19552,40.78751],[-84.19524,40.78751],[-84.19512,40.78751],[-84.1948,40.78752],[-84.19482,40.78853],[-84.19309,40.78854],[-84.19263,40.78854],[-84.19263,40.78788],[-84.19263,40.78745],[-84.19296,40.78745],[-84.19327,40.78745],[-84.19334,40.78745],[-84.19461,40.78744],[-84.19512,40.78744],[-84.19524,40.78744],[-84.19569,40.78744],[-84.19681,40.78743],[-84.19688,40.78743],[-84.19764,40.78742],[-84.19876,40.78743]],[[-84.19243,40.78745],[-84.19244,40.78788],[-84.19213,40.78788],[-84.19172,40.78789],[-84.19173,40.78825],[-84.19173,40.78829],[-84.19125,40.78829],[-84.19125,40.78802],[-84.19048,40.78802],[-84.19047,40.78756],[-84.19047,40.78754],[-84.19047,40.78753],[-84.19046,40.78753],[-84.19047,40.78745],[-84.19058,40.78745],[-84.19077,40.78745],[-84.19104,40.78745],[-84.19117,40.78745],[-84.19122,40.78745],[-84.1914,40.78745],[-84.19243,40.78745]]]}},{"type":"Feature","properties":{"GEOID":"3934118","NAME":"Harrod village","BASENAME":"Harrod","LSADC":"47","AREALAND":"605968","CENTLAT":"+40.7074926","CENTLON":"-083.9213448"},"geometry":{"type":"Polygon","coordinates":[[[-83.92687,40.70641],[-83.92683,40.70457],[-83.92624,40.70458],[-83.9238,40.70459],[-83.9238,40.70426],[-83.92381,40.70277],[-83.92359,40.70277],[-83.92345,40.70278],[-83.92244,40.70278],[-83.92177,40.70277],[-83.92109,40.70278],[-83.91833,40.70281],[-83.91808,40.70282],[-83.91778,40.70282],[-83.91779,40.70336],[-83.91779,40.70372],[-83.91779,40.70497],[-83.9178,40.70645],[-83.9178,40.70706],[-83.91781,40.70832],[-83.91764,40.70836],[-83.91697,40.70852],[-83.91616,40.70872],[-83.91616,40.70893],[-83.91647,40.70896],[-83.91759,40.70906],[-83.91781,40.70908],[-83.91781,40.70947],[-83.91782,40.71099],[-83.91781,40.71171],[-83.91782,40.71189],[-83.92102,40.71189],[-83.92151,40.71188],[-83.92284,40.71186],[-83.92284,40.7119],[-83.92315,40.7119],[-83.92316,40.71365],[-83.92316,40.7137],[-83.92427,40.7137],[-83.92455,40.71369],[-83.92458,40.71149],[-83.92459,40.70981],[-83.92447,40.7098],[-83.92378,40.70973],[-83.92378,40.70932],[-83.92373,40.70931],[-83.92372,40.70644],[-83.92487,40.70643],[-83.92627,40.70641],[-83.92687,40.70641]]]}},{"type":"Feature","properties":{"GEOID":"3941118","NAME":"Lafayette village","BASENAME":"Lafayette","LSADC":"47","AREALAND":"602323","CENTLAT":"+40.7589114","CENTLON":"-083.9499215"},"geometry":{"type":"Polygon","coordinates":[[[-83.95632,40.76063],[-83.95631,40.76016],[-83.95631,40.75949],[-83.95629,40.75775],[-83.95523,40.75786],[-83.95524,40.75791],[-83.95277,40.75818],[-83.95278,40.75803],[-83.95278,40.75798],[-83.95272,40.75709],[-83.9527,40.75634],[-83.9527,40.75622],[-83.95268,40.75497],[-83.95278,40.75497],[-83.95277,40.75433],[-83.95147,40.75435],[-83.95148,40.75498],[-83.95148,40.75513],[-83.95148,40.75529],[-83.9489,40.75532],[-83.94741,40.75534],[-83.94535,40.75534],[-83.9453,40.75761],[-83.94533,40.7587],[-83.94534,40.7593],[-83.94536,40.76018],[-83.94537,40.76054],[-83.94538,40.76106],[-83.94541,40.76248],[-83.94541,40.76262],[-83.94748,40.76258],[-83.94828,40.76256],[-83.9484,40.76256],[-83.94873,40.76255],[-83.95126,40.7625],[-83.95132,40.7625],[-83.95148,40.76251],[-83.95158,40.76251],[-83.95161,40.76251],[-83.95191,40.76249],[-83.9521,40.76249],[-83.95221,40.76249],[-83.95258,40.76248],[-83.95277,40.76248],[-83.95276,40.76195],[-83.95276,40.76152],[-83.95275,40.7607],[-83.9542,40.76068],[-83.95507,40.76066],[-83.95611,40.76064],[-83.95632,40.76063]]]}},{"type":"Feature","properties":{"GEOID":"3943554","NAME":"Lima city","BASENAME":"Lima","LSADC":"25","AREALAND":"35269085","CENTLAT":"+40.7409102","CENTLON":"-084.1119836"},"geometry":{"type":"Polygon","coordinates":[[[-84.16511,40.75475],[-84.16512,40.75421],[-84.16393,40.75399],[-84.16342,40.7539],[-84.16293,40.75382],[-84.16253,40.75376],[-84.16252,40.75322],[-84.16251,40.75247],[-84.16239,40.75244],[-84.16183,40.7523],[-84.16125,40.75215],[-84.16079,40.75203],[-84.16074,40.75202],[-84.16055,40.75197],[-84.16052,40.75008],[-84.16013,40.75009],[-84.16011,40.74925],[-84.16051,40.74924],[-84.16047,40.74668],[-84.16046,40.7459],[-84.16043,40.74416],[-84.16035,40.74416],[-84.16035,40.74396],[-84.16035,40.74282],[-84.16035,40.74115],[-84.15999,40.74115],[-84.15998,40.74061],[-84.15966,40.74061],[-84.15903,40.74062],[-84.15869,40.74063],[-84.15807,40.74063],[-84.15811,40.74263],[-84.15815,40.74418],[-84.15522,40.7442],[-84.15523,40.74473],[-84.15525,40.74593],[-84.15526,40.74679],[-84.15349,40.74681],[-84.15349,40.74691],[-84.1535,40.74743],[-84.1535,40.7477],[-84.1535,40.7478],[-84.15528,40.74778],[-84.15529,40.74792],[-84.15593,40.74791],[-84.15593,40.74856],[-84.15594,40.74901],[-84.15594,40.74912],[-84.15583,40.74912],[-84.15583,40.74928],[-84.15583,40.74933],[-84.15747,40.74932],[-84.15749,40.74944],[-84.15753,40.74976],[-84.15753,40.74981],[-84.1575,40.75014],[-84.15742,40.75039],[-84.15736,40.75062],[-84.1572,40.75109],[-84.15631,40.75086],[-84.15606,40.75079],[-84.15611,40.75139],[-84.15613,40.75157],[-84.15504,40.75129],[-84.15532,40.7506],[-84.1552,40.75057],[-84.15516,40.75055],[-84.15439,40.75036],[-84.15376,40.75019],[-84.15353,40.75013],[-84.15193,40.74972],[-84.15182,40.74969],[-84.15158,40.74963],[-84.15151,40.7498],[-84.15119,40.75059],[-84.15117,40.75064],[-84.15104,40.75096],[-84.15093,40.75119],[-84.15086,40.75133],[-84.15079,40.75149],[-84.14894,40.75149],[-84.14844,40.7515],[-84.14845,40.752],[-84.14716,40.75198],[-84.14711,40.75198],[-84.14706,40.75198],[-84.147,40.75198],[-84.14699,40.7518],[-84.147,40.75151],[-84.14701,40.75131],[-84.14704,40.75113],[-84.14703,40.75083],[-84.14703,40.75062],[-84.14703,40.75035],[-84.14703,40.75019],[-84.14703,40.7501],[-84.14703,40.74991],[-84.14703,40.74979],[-84.14703,40.7497],[-84.14703,40.74927],[-84.14701,40.74848],[-84.14762,40.74863],[-84.14807,40.74874],[-84.14816,40.74876],[-84.14867,40.74889],[-84.14871,40.7489],[-84.14904,40.74898],[-84.14984,40.74919],[-84.1501,40.74925],[-84.15037,40.74932],[-84.15043,40.74933],[-84.15109,40.74951],[-84.15106,40.74745],[-84.15106,40.74739],[-84.15112,40.74739],[-84.15112,40.74725],[-84.15112,40.74706],[-84.1511,40.74602],[-84.1511,40.74592],[-84.15121,40.74592],[-84.15147,40.74591],[-84.15146,40.74559],[-84.15145,40.745],[-84.15144,40.7442],[-84.15144,40.74368],[-84.15138,40.74067],[-84.15154,40.74067],[-84.15286,40.74066],[-84.15389,40.74065],[-84.15439,40.74065],[-84.15528,40.74063],[-84.15528,40.74005],[-84.15527,40.73995],[-84.15621,40.73994],[-84.15653,40.73994],[-84.15653,40.73938],[-84.15653,40.73917],[-84.15581,40.73917],[-84.15581,40.73953],[-84.15542,40.73954],[-84.15527,40.73951],[-84.15527,40.73885],[-84.15525,40.7379],[-84.15525,40.73721],[-84.15525,40.73706],[-84.15332,40.73706],[-84.15272,40.73706],[-84.15224,40.73706],[-84.15119,40.73706],[-84.14947,40.73707],[-84.14921,40.73707],[-84.14916,40.73707],[-84.14829,40.73708],[-84.148,40.73708],[-84.1478,40.73708],[-84.14773,40.73709],[-84.14678,40.7371],[-84.14678,40.73645],[-84.14679,40.73613],[-84.14679,40.73605],[-84.14679,40.73597],[-84.14677,40.73485],[-84.14678,40.73376],[-84.14678,40.73279],[-84.14971,40.73275],[-84.1497,40.73374],[-84.15021,40.73374],[-84.15123,40.73372],[-84.15219,40.73372],[-84.15229,40.73373],[-84.15228,40.73271],[-84.15272,40.7327],[-84.15306,40.7327],[-84.15306,40.73333],[-84.15306,40.73373],[-84.15326,40.73373],[-84.15371,40.73372],[-84.15435,40.73371],[-84.15434,40.73343],[-84.15438,40.73278],[-84.15439,40.73267],[-84.15555,40.73266],[-84.15573,40.73265],[-84.15571,40.73025],[-84.15532,40.73025],[-84.15503,40.73025],[-84.15503,40.73013],[-84.15503,40.72953],[-84.15503,40.72952],[-84.15476,40.72951],[-84.15475,40.72913],[-84.15622,40.72911],[-84.15622,40.72925],[-84.15623,40.72975],[-84.15623,40.72989],[-84.15623,40.73017],[-84.15623,40.73025],[-84.15625,40.73025],[-84.15641,40.73023],[-84.15652,40.73022],[-84.15715,40.73015],[-84.16101,40.73015],[-84.16117,40.73015],[-84.16117,40.72601],[-84.16035,40.72603],[-84.1523,40.72629],[-84.15106,40.72634],[-84.15107,40.7272],[-84.15108,40.7276],[-84.14887,40.72763],[-84.14886,40.72773],[-84.14885,40.72796],[-84.14883,40.72817],[-84.14813,40.72812],[-84.14744,40.72807],[-84.14708,40.72805],[-84.14688,40.72807],[-84.14674,40.72798],[-84.14622,40.72838],[-84.14596,40.72859],[-84.14574,40.72875],[-84.14513,40.72921],[-84.14423,40.72989],[-84.14407,40.72999],[-84.14401,40.73002],[-84.14392,40.73008],[-84.14367,40.7302],[-84.14342,40.73029],[-84.14324,40.73034],[-84.14296,40.73039],[-84.14291,40.7304],[-84.14275,40.73041],[-84.14239,40.73042],[-84.14096,40.73041],[-84.14091,40.72981],[-84.1413,40.72978],[-84.1413,40.7297],[-84.14217,40.7297],[-84.14216,40.72919],[-84.14207,40.7292],[-84.14139,40.72919],[-84.14051,40.72918],[-84.14023,40.72918],[-84.14011,40.72918],[-84.1401,40.72996],[-84.14011,40.7304],[-84.13938,40.73041],[-84.13866,40.73041],[-84.13858,40.73041],[-84.13852,40.73041],[-84.1378,40.73042],[-84.13712,40.73042],[-84.13615,40.73042],[-84.13564,40.73042],[-84.13406,40.73041],[-84.1325,40.73041],[-84.13087,40.73041],[-84.12753,40.73038],[-84.12462,40.73037],[-84.12385,40.73037],[-84.12309,40.73037],[-84.12288,40.73037],[-84.12405,40.72939],[-84.12465,40.72891],[-84.12502,40.72862],[-84.12538,40.72817],[-84.12546,40.72802],[-84.12556,40.72765],[-84.12563,40.72741],[-84.12568,40.7268],[-84.12573,40.7262],[-84.12576,40.72599],[-84.12582,40.72559],[-84.12583,40.72536],[-84.12584,40.72518],[-84.12584,40.72516],[-84.12582,40.72486],[-84.12603,40.72488],[-84.12605,40.72488],[-84.12607,40.72481],[-84.1263,40.72482],[-84.12694,40.72487],[-84.12732,40.7249],[-84.12846,40.72498],[-84.12962,40.72505],[-84.13087,40.72513],[-84.131,40.72514],[-84.13111,40.72514],[-84.13123,40.72515],[-84.13129,40.72515],[-84.13142,40.72516],[-84.13153,40.72517],[-84.13172,40.72518],[-84.13175,40.72518],[-84.13221,40.72521],[-84.13262,40.72524],[-84.13264,40.72524],[-84.1329,40.72526],[-84.13292,40.7253],[-84.13295,40.7253],[-84.13313,40.72531],[-84.13356,40.72533],[-84.13379,40.72535],[-84.13422,40.72537],[-84.13462,40.7254],[-84.13462,40.72542],[-84.13593,40.72549],[-84.13725,40.72557],[-84.1376,40.72559],[-84.13761,40.72565],[-84.13843,40.72569],[-84.13955,40.72576],[-84.13956,40.72567],[-84.13957,40.7255],[-84.13995,40.72553],[-84.14204,40.72577],[-84.14228,40.7252],[-84.14239,40.72503],[-84.14252,40.7249],[-84.14281,40.72476],[-84.14301,40.72491],[-84.14303,40.72489],[-84.14317,40.72477],[-84.14386,40.72445],[-84.14393,40.72441],[-84.14401,40.72438],[-84.14388,40.72425],[-84.14383,40.7242],[-84.14333,40.72371],[-84.14352,40.72363],[-84.14382,40.72348],[-84.14416,40.72333],[-84.14432,40.72325],[-84.14438,40.72359],[-84.14448,40.7238],[-84.14452,40.72397],[-84.14456,40.72411],[-84.14458,40.7241],[-84.14463,40.72408],[-84.14463,40.72392],[-84.14462,40.72174],[-84.14519,40.72174],[-84.14521,40.72155],[-84.1453,40.72153],[-84.14535,40.72144],[-84.14467,40.72145],[-84.14461,40.72145],[-84.14461,40.71946],[-84.1446,40.7193],[-84.13964,40.71937],[-84.13972,40.7218],[-84.13976,40.72303],[-84.13659,40.72304],[-84.13593,40.72304],[-84.13495,40.72305],[-84.13392,40.72305],[-84.13351,40.72305],[-84.13335,40.72305],[-84.13301,40.72305],[-84.13157,40.72306],[-84.13134,40.72306],[-84.12968,40.72307],[-84.12718,40.72308],[-84.12689,40.72319],[-84.12669,40.72327],[-84.12634,40.72342],[-84.12623,40.72348],[-84.12614,40.72353],[-84.12596,40.72363],[-84.12591,40.72366],[-84.12564,40.72383],[-84.12537,40.72402],[-84.12515,40.72419],[-84.12511,40.72423],[-84.12489,40.72442],[-84.12485,40.72446],[-84.1248,40.72451],[-84.12464,40.72468],[-84.12453,40.72479],[-84.12367,40.72474],[-84.12297,40.7247],[-84.1215,40.72461],[-84.12018,40.72453],[-84.12001,40.72452],[-84.11817,40.72441],[-84.11778,40.72439],[-84.11703,40.72435],[-84.11664,40.72433],[-84.11619,40.7243],[-84.11579,40.72427],[-84.11442,40.72419],[-84.11411,40.72417],[-84.11393,40.72416],[-84.11327,40.72412],[-84.11327,40.72395],[-84.11327,40.72265],[-84.11327,40.72219],[-84.11327,40.7221],[-84.11327,40.7219],[-84.11326,40.72077],[-84.11327,40.72019],[-84.11329,40.71991],[-84.11329,40.71976],[-84.11335,40.71956],[-84.11353,40.71915],[-84.11388,40.71841],[-84.1139,40.71836],[-84.11403,40.71807],[-84.1143,40.7175],[-84.11508,40.71581],[-84.11517,40.71566],[-84.11522,40.71555],[-84.11552,40.71555],[-84.11563,40.71555],[-84.11575,40.71555],[-84.11605,40.71553],[-84.11619,40.71551],[-84.11634,40.71549],[-84.11649,40.71547],[-84.11663,40.71544],[-84.11678,40.71541],[-84.11692,40.71537],[-84.11697,40.71524],[-84.11701,40.71515],[-84.11706,40.71506],[-84.11719,40.71486],[-84.11762,40.71418],[-84.11834,40.71303],[-84.11811,40.71303],[-84.11809,40.71303],[-84.11746,40.71304],[-84.1164,40.71303],[-84.1166,40.7126],[-84.11674,40.71231],[-84.11679,40.71221],[-84.11693,40.71191],[-84.11709,40.71156],[-84.11729,40.71113],[-84.11748,40.71072],[-84.11756,40.71056],[-84.11813,40.70933],[-84.11831,40.70893],[-84.1185,40.70855],[-84.11838,40.70857],[-84.11825,40.70858],[-84.11806,40.70858],[-84.11772,40.70857],[-84.11718,40.70856],[-84.1168,40.70855],[-84.1158,40.71067],[-84.11571,40.71067],[-84.11551,40.71067],[-84.11473,40.71126],[-84.11472,40.71207],[-84.11454,40.71208],[-84.11363,40.71204],[-84.11232,40.71107],[-84.11232,40.71146],[-84.11235,40.71148],[-84.11333,40.7122],[-84.11348,40.71231],[-84.11325,40.71231],[-84.11299,40.7123],[-84.11299,40.71235],[-84.11299,40.71272],[-84.11299,40.71307],[-84.113,40.71345],[-84.113,40.71399],[-84.11301,40.71555],[-84.11301,40.71567],[-84.11302,40.7158],[-84.11302,40.71585],[-84.11245,40.71586],[-84.1111,40.71586],[-84.11052,40.71588],[-84.1101,40.71588],[-84.11007,40.71589],[-84.10985,40.71596],[-84.10979,40.71598],[-84.10966,40.71598],[-84.10925,40.71598],[-84.10879,40.71599],[-84.10857,40.71599],[-84.10835,40.71641],[-84.10834,40.71598],[-84.10834,40.71584],[-84.10834,40.71579],[-84.10834,40.71553],[-84.10834,40.71481],[-84.10834,40.71467],[-84.10833,40.7143],[-84.10832,40.71307],[-84.10832,40.71301],[-84.10831,40.71181],[-84.1083,40.71058],[-84.1083,40.7095],[-84.10704,40.70949],[-84.10666,40.70947],[-84.10641,40.70946],[-84.10626,40.70945],[-84.10609,40.70946],[-84.10597,40.70946],[-84.10532,40.70946],[-84.10392,40.70946],[-84.10223,40.70946],[-84.10086,40.70946],[-84.10015,40.70946],[-84.09955,40.70947],[-84.09948,40.70947],[-84.09947,40.70694],[-84.09946,40.70454],[-84.09945,40.70282],[-84.09945,40.70221],[-84.09912,40.70221],[-84.09911,40.70073],[-84.09912,40.69929],[-84.09911,40.69914],[-84.09851,40.69915],[-84.09827,40.69915],[-84.09599,40.69916],[-84.0946,40.69916],[-84.0946,40.69909],[-84.0946,40.69905],[-84.09459,40.69885],[-84.0946,40.69882],[-84.0946,40.69871],[-84.0946,40.69855],[-84.09507,40.69855],[-84.09641,40.69854],[-84.09764,40.69854],[-84.09944,40.69853],[-84.09999,40.69853],[-84.10071,40.69853],[-84.10106,40.69853],[-84.1018,40.69852],[-84.10347,40.69852],[-84.10431,40.69852],[-84.1059,40.69842],[-84.10637,40.69839],[-84.10739,40.69814],[-84.10812,40.69795],[-84.10812,40.69744],[-84.10821,40.69744],[-84.10821,40.69724],[-84.10821,40.69683],[-84.1082,40.69628],[-84.1082,40.69575],[-84.1082,40.69528],[-84.1082,40.69513],[-84.10794,40.6951],[-84.10746,40.6951],[-84.10695,40.69508],[-84.10581,40.69507],[-84.10483,40.69507],[-84.10412,40.69507],[-84.10392,40.69507],[-84.10226,40.69509],[-84.10226,40.69495],[-84.10227,40.69332],[-84.10226,40.6891],[-84.10226,40.68902],[-84.10226,40.68895],[-84.10226,40.6887],[-84.101,40.68871],[-84.10079,40.6887],[-84.10074,40.68811],[-84.10069,40.68767],[-84.10033,40.68767],[-84.09972,40.68768],[-84.09874,40.68768],[-84.09775,40.68769],[-84.09675,40.6877],[-84.09618,40.6877],[-84.09574,40.6877],[-84.095,40.6877],[-84.09387,40.68772],[-84.09328,40.68772],[-84.09254,40.68772],[-84.09175,40.68771],[-84.09084,40.68772],[-84.09084,40.68827],[-84.08981,40.68838],[-84.08981,40.6884],[-84.08981,40.68842],[-84.08982,40.68879],[-84.08982,40.68922],[-84.08982,40.68931],[-84.08981,40.68939],[-84.0898,40.68967],[-84.08981,40.69],[-84.08982,40.69018],[-84.08982,40.69046],[-84.08982,40.69074],[-84.08982,40.69109],[-84.08982,40.6913],[-84.08983,40.6916],[-84.08983,40.69189],[-84.08983,40.69245],[-84.08983,40.69254],[-84.08983,40.69271],[-84.08983,40.69299],[-84.08983,40.69324],[-84.08984,40.69347],[-84.08984,40.69357],[-84.08984,40.69419],[-84.08984,40.69462],[-84.08984,40.69478],[-84.08984,40.69494],[-84.08984,40.69509],[-84.08984,40.69545],[-84.08984,40.69577],[-84.08984,40.69616],[-84.08984,40.69635],[-84.08984,40.69666],[-84.08984,40.69672],[-84.08985,40.69698],[-84.08984,40.69728],[-84.08985,40.69733],[-84.08985,40.6974],[-84.08985,40.69764],[-84.08985,40.69808],[-84.08986,40.69825],[-84.08986,40.6984],[-84.08986,40.69845],[-84.08986,40.69885],[-84.08986,40.69888],[-84.08987,40.69905],[-84.08987,40.69908],[-84.08986,40.69956],[-84.08986,40.69977],[-84.08986,40.70065],[-84.08986,40.70088],[-84.08975,40.70088],[-84.08975,40.70076],[-84.08975,40.70074],[-84.08974,40.70068],[-84.08971,40.70058],[-84.08967,40.70049],[-84.08966,40.70046],[-84.08956,40.69967],[-84.08932,40.69959],[-84.0878,40.6994],[-84.08679,40.69941],[-84.08645,40.69941],[-84.08569,40.69941],[-84.08532,40.69942],[-84.08512,40.69942],[-84.08499,40.69942],[-84.08499,40.69965],[-84.08501,40.7008],[-84.08502,40.702],[-84.08503,40.70225],[-84.08493,40.70225],[-84.08465,40.70225],[-84.08456,40.70225],[-84.08405,40.70225],[-84.08406,40.70367],[-84.08388,40.70367],[-84.08306,40.70367],[-84.08306,40.70394],[-84.08307,40.70452],[-84.08307,40.70561],[-84.08308,40.70586],[-84.08293,40.70586],[-84.08032,40.70587],[-84.0803,40.70226],[-84.0802,40.70226],[-84.0798,40.70226],[-84.07951,40.70226],[-84.07872,40.70226],[-84.07843,40.70226],[-84.07833,40.70226],[-84.07734,40.70227],[-84.07616,40.70226],[-84.07598,40.70251],[-84.07592,40.70265],[-84.07579,40.70298],[-84.07567,40.70345],[-84.0756,40.70393],[-84.07559,40.70438],[-84.0756,40.70468],[-84.0756,40.70594],[-84.0756,40.70954],[-84.07739,40.70953],[-84.07856,40.70952],[-84.0851,40.70952],[-84.08523,40.70951],[-84.08525,40.70585],[-84.08535,40.70586],[-84.08534,40.70225],[-84.08541,40.70225],[-84.08588,40.70225],[-84.08656,40.70223],[-84.08695,40.70222],[-84.08862,40.70221],[-84.08897,40.70221],[-84.08987,40.70221],[-84.08987,40.70237],[-84.08987,40.70306],[-84.08988,40.7032],[-84.08987,40.70347],[-84.08987,40.70399],[-84.08987,40.70458],[-84.08987,40.70476],[-84.08987,40.7053],[-84.08986,40.70564],[-84.08987,40.70575],[-84.08987,40.70604],[-84.08988,40.70661],[-84.08989,40.7071],[-84.08991,40.70737],[-84.08991,40.7075],[-84.08995,40.7078],[-84.08996,40.70793],[-84.08999,40.70818],[-84.09004,40.70849],[-84.0901,40.70882],[-84.09013,40.70895],[-84.09026,40.70953],[-84.09113,40.70952],[-84.09206,40.70947],[-84.09232,40.70947],[-84.09274,40.70948],[-84.09286,40.7095],[-84.09465,40.70945],[-84.0947,40.71083],[-84.09472,40.7121],[-84.09472,40.71254],[-84.09471,40.71399],[-84.0947,40.71545],[-84.0947,40.71624],[-84.09396,40.71625],[-84.09346,40.71625],[-84.09293,40.71626],[-84.09097,40.71627],[-84.09049,40.71627],[-84.08951,40.71628],[-84.08951,40.71631],[-84.08933,40.71631],[-84.0891,40.71631],[-84.08892,40.71632],[-84.08777,40.71633],[-84.08735,40.71633],[-84.08699,40.71633],[-84.0866,40.71633],[-84.08522,40.71633],[-84.08522,40.71635],[-84.0851,40.71635],[-84.08508,40.71684],[-84.08499,40.71684],[-84.08498,40.71673],[-84.08447,40.71676],[-84.08241,40.71676],[-84.0823,40.71676],[-84.08207,40.71676],[-84.08213,40.71686],[-84.08223,40.71705],[-84.08233,40.71728],[-84.08242,40.71752],[-84.08248,40.71768],[-84.08271,40.71884],[-84.0827,40.7189],[-84.08273,40.71916],[-84.08273,40.71942],[-84.08273,40.71991],[-84.08274,40.72099],[-84.08254,40.721],[-84.08121,40.72102],[-84.08091,40.72102],[-84.08064,40.72103],[-84.08038,40.72104],[-84.08038,40.72085],[-84.08039,40.72055],[-84.08039,40.72039],[-84.08039,40.72024],[-84.08039,40.72009],[-84.08039,40.71994],[-84.08039,40.71965],[-84.08039,40.71935],[-84.08039,40.71921],[-84.0804,40.71906],[-84.0804,40.71891],[-84.0804,40.71877],[-84.0804,40.71862],[-84.0804,40.71848],[-84.0804,40.71832],[-84.0804,40.71818],[-84.0804,40.71804],[-84.0804,40.71789],[-84.0804,40.71775],[-84.0804,40.71746],[-84.08041,40.71732],[-84.08041,40.71718],[-84.08041,40.71685],[-84.07946,40.71685],[-84.07911,40.71685],[-84.07892,40.71686],[-84.07885,40.71686],[-84.07858,40.71687],[-84.07858,40.71707],[-84.07862,40.7188],[-84.07864,40.72029],[-84.07863,40.72045],[-84.07799,40.72046],[-84.07742,40.72048],[-84.07739,40.71865],[-84.07738,40.71818],[-84.07737,40.71734],[-84.07729,40.71733],[-84.07722,40.71732],[-84.07718,40.71732],[-84.07714,40.71732],[-84.07705,40.71732],[-84.07655,40.71732],[-84.07546,40.71733],[-84.07543,40.71733],[-84.07539,40.71733],[-84.07533,40.71733],[-84.07528,40.71733],[-84.07525,40.71733],[-84.07512,40.71733],[-84.07506,40.71733],[-84.07504,40.71733],[-84.07497,40.71733],[-84.07478,40.71733],[-84.07327,40.71714],[-84.07322,40.71714],[-84.07244,40.71704],[-84.07209,40.71702],[-84.07207,40.71701],[-84.0715,40.71696],[-84.07134,40.71694],[-84.07087,40.71695],[-84.07087,40.71711],[-84.07091,40.7171],[-84.07092,40.7175],[-84.07093,40.71797],[-84.07093,40.71805],[-84.07091,40.7185],[-84.0709,40.71897],[-84.07091,40.72001],[-84.07091,40.72032],[-84.07089,40.72108],[-84.07091,40.72112],[-84.07095,40.72115],[-84.07104,40.72118],[-84.07114,40.72121],[-84.07094,40.72121],[-84.07092,40.72182],[-84.07089,40.72258],[-84.07495,40.72292],[-84.07496,40.72301],[-84.07496,40.72322],[-84.07506,40.72661],[-84.07506,40.72715],[-84.07506,40.7272],[-84.07507,40.72821],[-84.07508,40.72859],[-84.07507,40.72866],[-84.07507,40.72871],[-84.07509,40.7306],[-84.07525,40.7306],[-84.07536,40.73059],[-84.07541,40.73059],[-84.07564,40.73059],[-84.07607,40.73058],[-84.07639,40.73058],[-84.07643,40.73058],[-84.07687,40.73056],[-84.07695,40.73056],[-84.07852,40.73055],[-84.0788,40.73055],[-84.07896,40.73059],[-84.07913,40.73058],[-84.07952,40.73058],[-84.07972,40.73058],[-84.07972,40.73072],[-84.07972,40.7308],[-84.07991,40.73086],[-84.07991,40.731],[-84.07972,40.73094],[-84.07897,40.73071],[-84.07889,40.73068],[-84.0788,40.73063],[-84.07863,40.73064],[-84.07715,40.73066],[-84.07714,40.73175],[-84.07731,40.73175],[-84.07734,40.73175],[-84.0776,40.73174],[-84.07773,40.73174],[-84.07779,40.73174],[-84.07779,40.73241],[-84.07851,40.73241],[-84.07859,40.73241],[-84.07859,40.73237],[-84.0786,40.73171],[-84.07991,40.73168],[-84.07989,40.73289],[-84.07928,40.73289],[-84.07929,40.73275],[-84.07855,40.73273],[-84.07852,40.73287],[-84.07851,40.73303],[-84.07716,40.73302],[-84.07717,40.7332],[-84.07715,40.7335],[-84.07655,40.7335],[-84.07656,40.7327],[-84.07607,40.7327],[-84.07606,40.73304],[-84.07597,40.73304],[-84.07591,40.73305],[-84.07591,40.7335],[-84.0759,40.73413],[-84.0759,40.73418],[-84.0759,40.73419],[-84.07653,40.73419],[-84.07653,40.73457],[-84.07602,40.73457],[-84.07596,40.73456],[-84.07595,40.73667],[-84.07644,40.73667],[-84.07709,40.73666],[-84.07707,40.73565],[-84.07744,40.73565],[-84.07744,40.73556],[-84.07806,40.73556],[-84.07805,40.73564],[-84.07847,40.73563],[-84.07847,40.73555],[-84.07847,40.73543],[-84.07837,40.73543],[-84.07786,40.73543],[-84.07786,40.7352],[-84.07795,40.7352],[-84.07836,40.7352],[-84.07846,40.7352],[-84.07846,40.73507],[-84.07786,40.73508],[-84.07786,40.73498],[-84.07797,40.73498],[-84.07832,40.73498],[-84.07846,40.73498],[-84.07846,40.73485],[-84.07846,40.73483],[-84.07845,40.73456],[-84.0792,40.73456],[-84.07987,40.73455],[-84.07987,40.73485],[-84.07985,40.73563],[-84.07987,40.73669],[-84.07988,40.73717],[-84.07988,40.73734],[-84.07988,40.7379],[-84.07991,40.74027],[-84.0799,40.74152],[-84.0799,40.74165],[-84.07989,40.74231],[-84.0798,40.74466],[-84.07979,40.7449],[-84.07979,40.74509],[-84.0785,40.74512],[-84.07849,40.74491],[-84.07849,40.74483],[-84.07849,40.74463],[-84.07846,40.7432],[-84.0781,40.74312],[-84.07804,40.74308],[-84.07795,40.74299],[-84.07795,40.74265],[-84.07794,40.74238],[-84.07793,40.74238],[-84.07787,40.74238],[-84.07785,40.74238],[-84.07786,40.74287],[-84.07766,40.74288],[-84.07766,40.74312],[-84.07766,40.74515],[-84.07755,40.74515],[-84.07626,40.7452],[-84.07598,40.74521],[-84.07597,40.74564],[-84.07596,40.74636],[-84.07641,40.74633],[-84.07656,40.74631],[-84.07972,40.74613],[-84.07991,40.74612],[-84.07991,40.74623],[-84.07991,40.74634],[-84.08116,40.7463],[-84.0815,40.7463],[-84.08249,40.74622],[-84.08358,40.74614],[-84.08447,40.74608],[-84.08461,40.74811],[-84.08465,40.74879],[-84.08467,40.74909],[-84.08472,40.74909],[-84.08505,40.74908],[-84.0856,40.74907],[-84.08624,40.74906],[-84.08636,40.74907],[-84.08727,40.7491],[-84.08754,40.74911],[-84.08851,40.74915],[-84.08852,40.75091],[-84.08853,40.75351],[-84.08925,40.7534],[-84.08946,40.75339],[-84.0907,40.7532],[-84.09189,40.75302],[-84.09309,40.75284],[-84.09425,40.7527],[-84.09426,40.7529],[-84.09427,40.75317],[-84.09425,40.75397],[-84.09425,40.75452],[-84.09424,40.75547],[-84.09424,40.75584],[-84.09425,40.75629],[-84.09426,40.75664],[-84.09426,40.75666],[-84.09426,40.75726],[-84.09424,40.75756],[-84.09421,40.75799],[-84.0943,40.75843],[-84.09427,40.75914],[-84.09429,40.75928],[-84.09429,40.75932],[-84.09429,40.75935],[-84.09277,40.75939],[-84.09206,40.75941],[-84.09183,40.75941],[-84.09177,40.75944],[-84.09168,40.75949],[-84.09145,40.75961],[-84.09136,40.75965],[-84.09131,40.75968],[-84.09095,40.75986],[-84.09059,40.76004],[-84.09018,40.76025],[-84.08978,40.76046],[-84.08952,40.76059],[-84.08952,40.7606],[-84.08952,40.76065],[-84.08954,40.76109],[-84.09235,40.75995],[-84.09305,40.75971],[-84.09319,40.75965],[-84.09342,40.75957],[-84.09355,40.75952],[-84.09367,40.75949],[-84.09375,40.75946],[-84.09384,40.75943],[-84.09423,40.75942],[-84.0943,40.75942],[-84.09432,40.75942],[-84.09432,40.75935],[-84.0944,40.75935],[-84.0945,40.75935],[-84.09466,40.75935],[-84.09562,40.75932],[-84.09583,40.75931],[-84.09598,40.75931],[-84.09617,40.75931],[-84.09713,40.75929],[-84.09736,40.75928],[-84.09904,40.75924],[-84.09985,40.75924],[-84.10045,40.75924],[-84.10043,40.75932],[-84.10032,40.75976],[-84.10012,40.76064],[-84.09993,40.76064],[-84.09992,40.76073],[-84.0999,40.76089],[-84.09985,40.76125],[-84.09991,40.76165],[-84.09994,40.76179],[-84.09997,40.76208],[-84.10002,40.7624],[-84.10012,40.76271],[-84.10026,40.76304],[-84.10034,40.7632],[-84.10046,40.76338],[-84.10053,40.7635],[-84.1007,40.76372],[-84.10087,40.76391],[-84.10096,40.764],[-84.10147,40.76446],[-84.10156,40.76453],[-84.10166,40.76462],[-84.10201,40.76493],[-84.10261,40.76491],[-84.10324,40.76491],[-84.10504,40.76489],[-84.1069,40.76486],[-84.1086,40.76482],[-84.10866,40.76482],[-84.10868,40.76651],[-84.10869,40.7674],[-84.10868,40.76778],[-84.10868,40.76828],[-84.10869,40.76882],[-84.10869,40.76904],[-84.10861,40.76904],[-84.10861,40.76907],[-84.10861,40.76921],[-84.10862,40.77],[-84.10863,40.77053],[-84.10864,40.77145],[-84.10864,40.77179],[-84.10787,40.7718],[-84.10581,40.77182],[-84.10411,40.77183],[-84.10411,40.77156],[-84.10408,40.77016],[-84.10407,40.76924],[-84.10407,40.76916],[-84.10407,40.76907],[-84.10382,40.76907],[-84.103,40.76908],[-84.10172,40.76908],[-84.1001,40.76911],[-84.10001,40.76912],[-84.09991,40.76914],[-84.09975,40.76918],[-84.09957,40.76926],[-84.09893,40.76969],[-84.09821,40.77027],[-84.09778,40.77075],[-84.09742,40.77123],[-84.09709,40.77178],[-84.09684,40.77236],[-84.09668,40.77297],[-84.09645,40.77385],[-84.09642,40.7739],[-84.09641,40.77391],[-84.09636,40.77412],[-84.09627,40.77438],[-84.09615,40.77481],[-84.09612,40.77489],[-84.09604,40.77504],[-84.09601,40.77516],[-84.09601,40.77525],[-84.096,40.77532],[-84.09598,40.7754],[-84.09594,40.77552],[-84.09589,40.77564],[-84.09585,40.77575],[-84.09583,40.77583],[-84.09581,40.77592],[-84.0958,40.77602],[-84.09579,40.77612],[-84.09574,40.77628],[-84.09566,40.77659],[-84.09563,40.77671],[-84.09556,40.77698],[-84.09552,40.77711],[-84.09546,40.77739],[-84.09543,40.7775],[-84.09542,40.77762],[-84.09542,40.77775],[-84.09539,40.77795],[-84.09532,40.7782],[-84.0953,40.77832],[-84.09524,40.77849],[-84.09514,40.77885],[-84.09268,40.78728],[-84.0924,40.78843],[-84.09198,40.78998],[-84.09248,40.79001],[-84.0924,40.79025],[-84.09291,40.79026],[-84.09426,40.79023],[-84.09426,40.79012],[-84.09427,40.78999],[-84.09427,40.78992],[-84.09428,40.78969],[-84.09429,40.78939],[-84.09429,40.7892],[-84.0943,40.78867],[-84.0943,40.78845],[-84.09471,40.78844],[-84.09522,40.78844],[-84.0957,40.78844],[-84.09659,40.78843],[-84.09737,40.78843],[-84.09764,40.78842],[-84.09965,40.78841],[-84.10006,40.7884],[-84.1005,40.7884],[-84.10053,40.78934],[-84.10052,40.78951],[-84.10002,40.78952],[-84.09909,40.78954],[-84.09909,40.78977],[-84.09909,40.79008],[-84.09908,40.79171],[-84.09907,40.79381],[-84.09853,40.79381],[-84.09639,40.79382],[-84.0944,40.79383],[-84.09428,40.79384],[-84.09428,40.79435],[-84.09425,40.79511],[-84.09424,40.79565],[-84.0943,40.79565],[-84.09514,40.79564],[-84.09863,40.7956],[-84.10268,40.79554],[-84.10886,40.79548],[-84.10885,40.79494],[-84.10884,40.79324],[-84.10883,40.79119],[-84.10881,40.78827],[-84.1088,40.7865],[-84.10877,40.78464],[-84.10875,40.78365],[-84.10875,40.78328],[-84.10875,40.78248],[-84.10874,40.78192],[-84.10874,40.78189],[-84.10874,40.78176],[-84.10874,40.78168],[-84.10874,40.78161],[-84.10873,40.78137],[-84.10873,40.78117],[-84.10872,40.78027],[-84.10872,40.77988],[-84.10872,40.77975],[-84.10872,40.77966],[-84.10872,40.77869],[-84.10872,40.7786],[-84.10872,40.77834],[-84.10871,40.77762],[-84.10871,40.77716],[-84.1087,40.77571],[-84.10869,40.77552],[-84.1087,40.7749],[-84.10873,40.77483],[-84.10873,40.77448],[-84.10873,40.77364],[-84.10872,40.77294],[-84.10872,40.77272],[-84.10872,40.77253],[-84.10872,40.77179],[-84.10871,40.77088],[-84.10871,40.77014],[-84.10961,40.7701],[-84.10972,40.7701],[-84.10974,40.7701],[-84.10975,40.77033],[-84.10975,40.77057],[-84.10976,40.77201],[-84.11004,40.77201],[-84.11033,40.77201],[-84.11049,40.772],[-84.11048,40.77007],[-84.11057,40.77007],[-84.11128,40.77005],[-84.11175,40.77003],[-84.1125,40.77001],[-84.11329,40.76999],[-84.11414,40.76996],[-84.11602,40.76992],[-84.11672,40.7699],[-84.11769,40.76987],[-84.12065,40.76979],[-84.1215,40.76977],[-84.1219,40.76975],[-84.12193,40.77067],[-84.12196,40.77182],[-84.12193,40.77346],[-84.12318,40.77341],[-84.12329,40.77895],[-84.12365,40.77895],[-84.12731,40.77896],[-84.12802,40.77895],[-84.12802,40.77933],[-84.12801,40.77942],[-84.12802,40.78039],[-84.1296,40.78038],[-84.12976,40.78037],[-84.13217,40.78036],[-84.13522,40.78034],[-84.13684,40.78032],[-84.13756,40.78031],[-84.1378,40.78031],[-84.13774,40.77484],[-84.13745,40.77485],[-84.13689,40.77485],[-84.13471,40.77488],[-84.13146,40.77491],[-84.12964,40.77491],[-84.12874,40.77492],[-84.12875,40.77613],[-84.12876,40.77727],[-84.12876,40.77782],[-84.12852,40.77781],[-84.128,40.77782],[-84.12797,40.77647],[-84.12796,40.77631],[-84.12796,40.77629],[-84.12796,40.77612],[-84.12797,40.77562],[-84.12795,40.77484],[-84.12796,40.77475],[-84.12795,40.77441],[-84.12796,40.77426],[-84.12795,40.77397],[-84.12794,40.77374],[-84.12794,40.77312],[-84.12793,40.77246],[-84.12793,40.77212],[-84.12793,40.77187],[-84.12792,40.77145],[-84.12792,40.77098],[-84.12792,40.77075],[-84.12792,40.77072],[-84.12793,40.77019],[-84.12793,40.76959],[-84.12793,40.7695],[-84.12839,40.76949],[-84.12838,40.76958],[-84.1287,40.76957],[-84.12891,40.76934],[-84.12891,40.76882],[-84.12874,40.76882],[-84.12793,40.76882],[-84.12793,40.76876],[-84.12792,40.76865],[-84.12792,40.76851],[-84.12792,40.76761],[-84.12792,40.76723],[-84.12792,40.76637],[-84.12792,40.76578],[-84.12792,40.76538],[-84.12792,40.76475],[-84.12792,40.76463],[-84.12792,40.76458],[-84.12792,40.76403],[-84.12872,40.76403],[-84.12974,40.76402],[-84.13057,40.76403],[-84.13064,40.76402],[-84.13064,40.76378],[-84.13064,40.76362],[-84.13064,40.76296],[-84.13053,40.76259],[-84.13027,40.76241],[-84.13026,40.76236],[-84.12792,40.76238],[-84.12791,40.76217],[-84.12791,40.76182],[-84.12791,40.76176],[-84.12791,40.76174],[-84.13138,40.7617],[-84.13139,40.76236],[-84.13231,40.76235],[-84.13276,40.76235],[-84.13276,40.76009],[-84.13225,40.7601],[-84.12958,40.76011],[-84.12788,40.76011],[-84.12788,40.75992],[-84.12788,40.75934],[-84.1279,40.75877],[-84.12707,40.75879],[-84.12652,40.75881],[-84.1259,40.75882],[-84.12562,40.75883],[-84.12306,40.75889],[-84.12305,40.75838],[-84.12304,40.75702],[-84.12304,40.75581],[-84.12305,40.75499],[-84.12305,40.75416],[-84.12301,40.7533],[-84.12301,40.75306],[-84.123,40.75285],[-84.12298,40.75243],[-84.12299,40.75217],[-84.12298,40.75171],[-84.12298,40.75163],[-84.1238,40.75162],[-84.12437,40.75161],[-84.12474,40.7516],[-84.12486,40.7516],[-84.12542,40.75158],[-84.1257,40.75158],[-84.12582,40.75157],[-84.12583,40.75196],[-84.12636,40.75196],[-84.1266,40.75165],[-84.12664,40.75161],[-84.12669,40.7516],[-84.12694,40.75156],[-84.12697,40.75155],[-84.12776,40.75155],[-84.12958,40.75159],[-84.13235,40.75157],[-84.13237,40.75284],[-84.13237,40.75332],[-84.13478,40.75435],[-84.13466,40.75469],[-84.13504,40.75486],[-84.13731,40.7559],[-84.13755,40.75601],[-84.14024,40.75727],[-84.14117,40.75771],[-84.14117,40.75757],[-84.14116,40.75733],[-84.14115,40.75683],[-84.14115,40.75677],[-84.14185,40.75667],[-84.14228,40.75671],[-84.14227,40.75782],[-84.14226,40.75837],[-84.14325,40.75883],[-84.14342,40.75889],[-84.14364,40.75897],[-84.14459,40.75941],[-84.14451,40.75951],[-84.14388,40.76034],[-84.14393,40.76036],[-84.14395,40.76037],[-84.1445,40.76063],[-84.14461,40.76069],[-84.14493,40.76083],[-84.14528,40.76099],[-84.1454,40.76105],[-84.14548,40.76109],[-84.14573,40.76121],[-84.14578,40.76123],[-84.14637,40.7615],[-84.14706,40.76181],[-84.14711,40.76184],[-84.14717,40.76187],[-84.14716,40.76117],[-84.14716,40.76097],[-84.14716,40.76081],[-84.14716,40.76073],[-84.14716,40.7607],[-84.14716,40.76065],[-84.1472,40.76064],[-84.14719,40.76044],[-84.14719,40.76039],[-84.14836,40.76039],[-84.14876,40.76039],[-84.14892,40.76039],[-84.14992,40.76038],[-84.15066,40.76037],[-84.15415,40.76032],[-84.1557,40.7603],[-84.15613,40.7603],[-84.15613,40.75981],[-84.15612,40.75947],[-84.15612,40.75944],[-84.15599,40.75947],[-84.15563,40.75952],[-84.1554,40.75956],[-84.15514,40.75959],[-84.15499,40.75959],[-84.15453,40.75962],[-84.1542,40.75963],[-84.15376,40.75956],[-84.15346,40.75952],[-84.15343,40.75952],[-84.15329,40.7595],[-84.15322,40.75948],[-84.1531,40.75945],[-84.15303,40.75944],[-84.15279,40.75938],[-84.15255,40.75932],[-84.15228,40.75925],[-84.15201,40.7592],[-84.15178,40.75915],[-84.15175,40.75915],[-84.15143,40.75912],[-84.1513,40.75911],[-84.15146,40.75888],[-84.15119,40.75874],[-84.15111,40.75866],[-84.15102,40.75858],[-84.15079,40.75838],[-84.15077,40.75836],[-84.1507,40.75831],[-84.15069,40.75766],[-84.15069,40.7576],[-84.1508,40.75759],[-84.15112,40.75759],[-84.15112,40.75749],[-84.15112,40.75744],[-84.15112,40.75741],[-84.1511,40.75735],[-84.15095,40.75735],[-84.15079,40.75747],[-84.15059,40.75748],[-84.15031,40.7575],[-84.14959,40.75752],[-84.1496,40.75714],[-84.14944,40.75714],[-84.14931,40.75714],[-84.14929,40.75743],[-84.14928,40.75747],[-84.14918,40.75747],[-84.14895,40.75748],[-84.1485,40.75748],[-84.14849,40.75696],[-84.14848,40.75672],[-84.14764,40.75673],[-84.14747,40.75673],[-84.14717,40.75674],[-84.14712,40.75674],[-84.14711,40.75633],[-84.14711,40.75604],[-84.14711,40.75585],[-84.1471,40.75554],[-84.1471,40.75511],[-84.14715,40.75511],[-84.1476,40.7551],[-84.14931,40.75508],[-84.15035,40.75507],[-84.15089,40.75506],[-84.15138,40.75505],[-84.15165,40.75505],[-84.15298,40.75503],[-84.15362,40.75502],[-84.15428,40.75501],[-84.15493,40.75501],[-84.15516,40.755],[-84.15529,40.755],[-84.15594,40.75499],[-84.1566,40.75498],[-84.15725,40.75497],[-84.15787,40.75497],[-84.15849,40.75496],[-84.15906,40.75495],[-84.15955,40.75495],[-84.1605,40.75493],[-84.16051,40.75686],[-84.16052,40.7571],[-84.16508,40.75707],[-84.16508,40.75698],[-84.16507,40.75606],[-84.16511,40.75475]],[[-84.09995,40.79437],[-84.09995,40.79492],[-84.09985,40.79493],[-84.09911,40.79493],[-84.09911,40.79451],[-84.09911,40.79438],[-84.09995,40.79437]]]}},{"type":"Feature","properties":{"GEOID":"3974034","NAME":"Spencerville village","BASENAME":"Spencerville","LSADC":"47","AREALAND":"2498538","CENTLAT":"+40.7079190","CENTLON":"-084.3526794"},"geometry":{"type":"Polygon","coordinates":[[[-84.36603,40.70691],[-84.36603,40.7068],[-84.36601,40.70438],[-84.36558,40.70438],[-84.36341,40.70439],[-84.36343,40.70388],[-84.3635,40.70143],[-84.36248,40.70143],[-84.36003,40.70142],[-84.35982,40.70142],[-84.35963,40.70142],[-84.35949,40.70142],[-84.35862,40.70146],[-84.3582,40.70144],[-84.35851,40.70085],[-84.35826,40.70085],[-84.35802,40.70085],[-84.35689,40.70085],[-84.35549,40.70085],[-84.35498,40.70085],[-84.35472,40.70085],[-84.35234,40.70085],[-84.35226,40.70099],[-84.35105,40.70333],[-84.35057,40.70333],[-84.34755,40.70333],[-84.34737,40.70312],[-84.34721,40.70292],[-84.34715,40.70281],[-84.34712,40.70272],[-84.34709,40.70264],[-84.34706,40.70237],[-84.34702,40.70186],[-84.34693,40.70114],[-84.3469,40.70076],[-84.34687,40.70043],[-84.34519,40.70043],[-84.34518,40.69966],[-84.34495,40.69966],[-84.34493,40.69966],[-84.34494,40.70043],[-84.34471,40.70044],[-84.34295,40.70044],[-84.34296,40.70068],[-84.34298,40.70336],[-84.34269,40.70336],[-84.34241,40.70336],[-84.34185,40.70337],[-84.34067,40.70337],[-84.3405,40.70338],[-84.3405,40.70349],[-84.34051,40.70361],[-84.34053,40.70376],[-84.34003,40.70376],[-84.34001,40.70376],[-84.34002,40.70444],[-84.33987,40.70444],[-84.33949,40.70444],[-84.33948,40.7045],[-84.33948,40.70455],[-84.33955,40.70619],[-84.33954,40.70697],[-84.33955,40.70729],[-84.34054,40.70728],[-84.34152,40.70727],[-84.3425,40.70725],[-84.34249,40.70675],[-84.34486,40.70675],[-84.34486,40.70721],[-84.34558,40.70721],[-84.34557,40.70782],[-84.34557,40.70815],[-84.34557,40.70905],[-84.34556,40.70991],[-84.34557,40.70995],[-84.34551,40.71275],[-84.34552,40.71334],[-84.34552,40.71357],[-84.34553,40.71422],[-84.34553,40.71446],[-84.34553,40.7145],[-84.34553,40.71457],[-84.34553,40.71464],[-84.34554,40.71542],[-84.34554,40.71619],[-84.34555,40.71652],[-84.34604,40.71652],[-84.34583,40.71691],[-84.34567,40.71719],[-84.34629,40.71719],[-84.34658,40.71719],[-84.34721,40.71719],[-84.34901,40.71719],[-84.34904,40.71711],[-84.34906,40.71702],[-84.34907,40.71693],[-84.34908,40.71686],[-84.34908,40.71675],[-84.34908,40.71654],[-84.34908,40.71652],[-84.34924,40.71652],[-84.34945,40.71653],[-84.34978,40.71653],[-84.34991,40.71653],[-84.35003,40.71652],[-84.35054,40.71651],[-84.35104,40.71652],[-84.35394,40.71657],[-84.35393,40.71552],[-84.35807,40.71552],[-84.35858,40.71553],[-84.35858,40.71549],[-84.3586,40.71416],[-84.35859,40.71386],[-84.35858,40.71341],[-84.35859,40.71234],[-84.35857,40.71071],[-84.35857,40.71053],[-84.36004,40.71052],[-84.36341,40.71051],[-84.36342,40.70889],[-84.36342,40.70856],[-84.36126,40.70856],[-84.36127,40.70668],[-84.36268,40.70665],[-84.36268,40.70613],[-84.36276,40.70612],[-84.36306,40.70612],[-84.36319,40.70612],[-84.36321,40.70612],[-84.36324,40.70613],[-84.36327,40.70615],[-84.36331,40.70618],[-84.36333,40.7062],[-84.36335,40.70622],[-84.36336,40.70624],[-84.36335,40.70646],[-84.36334,40.70669],[-84.36334,40.70675],[-84.36335,40.7068],[-84.36336,40.70683],[-84.36337,40.70686],[-84.36339,40.70688],[-84.36343,40.7069],[-84.36346,40.70691],[-84.36353,40.70692],[-84.3654,40.70691],[-84.36599,40.70691],[-84.36603,40.70691]]]}}]}
